zip,type,decommissioned,primary_city,acceptable_cities,unacceptable_cities,state,county,timezone,area_codes,world_region,country,latitude,longitude,irs_estimated_population_2015,
32003,STANDARD,0,Fleming Island,"Fleming Isle, Orange Park",Orange Pk,FL,Clay County,America/New_York,904,NA,US,30.1,-81.71,26900,
32004,PO BOX,0,Ponte Vedra Beach,Ponte Vedra,,FL,St. Johns County,America/New_York,904,NA,US,30.23,-81.38,1133,
32006,PO BOX,0,Fleming Island,"Fleming Isle, Orange Park",,FL,Clay County,America/New_York,,NA,US,30.11,-81.72,435,
32007,PO BOX,0,Bostwick,,,FL,Putnam County,America/New_York,,NA,US,29.77,-81.63,894,
32008,STANDARD,0,Branford,,,FL,Suwannee County,America/New_York,386,NA,US,29.96,-82.92,4170,
32009,STANDARD,0,Bryceville,,,FL,Nassau County,America/New_York,904,NA,US,30.38,-81.93,2830,
32011,STANDARD,0,Callahan,,,FL,Nassau County,America/New_York,904,NA,US,30.56,-81.83,13380,
32013,PO BOX,0,Day,,,FL,Lafayette County,America/New_York,386,NA,US,30.19,-83.29,137,
32024,STANDARD,0,Lake City,,,FL,Columbia County,America/New_York,386,NA,US,30.09,-82.73,15860,
32025,STANDARD,0,Lake City,,,FL,Columbia County,America/New_York,386,NA,US,30.11,-82.58,14710,
32026,UNIQUE,0,Raiford,,Florida Dept Of Corrections,FL,Bradford County,America/New_York,386,NA,US,30.05,-82.18,65,
32030,PO BOX,0,Doctors Inlet,,,FL,Clay County,America/New_York,,NA,US,30.12,-81.76,86,
32033,STANDARD,0,Elkton,,Armstrong,FL,St. Johns County,America/New_York,904,NA,US,29.78,-81.42,4210,
32034,STANDARD,0,Fernandina Beach,"Amelia Island, Fernandina",Amelia City,FL,Nassau County,America/New_York,904,NA,US,30.65,-81.44,29180,
32035,PO BOX,0,Fernandina Beach,Fernandina,"Amelia Village, Five Points Hamilton",FL,Nassau County,America/New_York,904,NA,US,30.65,-81.44,1953,
32038,STANDARD,0,Fort White,,,FL,Columbia County,America/New_York,386,NA,US,29.92,-82.71,7600,
32040,STANDARD,0,Glen Saint Mary,Glen St Mary,,FL,Baker County,America/New_York,904,NA,US,30.27,-82.16,7050,
32041,PO BOX,0,Yulee,,,FL,Nassau County,America/New_York,904,NA,US,30.63,-81.57,1804,
32042,PO BOX,0,Graham,,,FL,Bradford County,America/New_York,,NA,US,29.88,-82.24,392,
32043,STANDARD,0,Green Cove Springs,Green Cv Spgs,,FL,Clay County,America/New_York,904,NA,US,29.98,-81.67,28010,
32044,STANDARD,0,Hampton,,,FL,Bradford County,America/New_York,,NA,US,29.86,-82.13,1420,
32046,STANDARD,0,Hilliard,,,FL,Nassau County,America/New_York,904,NA,US,30.69,-81.92,8060,
32050,PO BOX,0,Middleburg,,,FL,Clay County,America/New_York,,NA,US,30.05,-81.9,1897,
32052,STANDARD,0,Jasper,,,FL,Hamilton County,America/New_York,386,NA,US,30.51,-82.95,4920,
32053,STANDARD,0,Jennings,,,FL,Hamilton County,America/New_York,386,NA,US,30.6,-83.1,3480,
32054,STANDARD,0,Lake Butler,,,FL,Union County,America/New_York,386,NA,US,30.02,-82.33,8260,
32055,STANDARD,0,Lake City,,,FL,Columbia County,America/New_York,386,NA,US,30.19,-82.64,12650,
32056,PO BOX,0,Lake City,,,FL,Columbia County,America/New_York,386,NA,US,30.19,-82.64,3635,
32058,STANDARD,0,Lawtey,,,FL,Bradford County,America/New_York,904,NA,US,30.04,-82.07,3000,
32059,STANDARD,0,Lee,,,FL,Madison County,America/New_York,"386,850",NA,US,30.41,-83.3,2130,
32060,STANDARD,0,Live Oak,Dowling Park,,FL,Suwannee County,America/New_York,386,NA,US,30.27,-83.04,15670,
32061,STANDARD,0,Lulu,,Lake Butler,FL,Columbia County,America/New_York,386,NA,US,30.1,-82.49,270,
32062,STANDARD,0,Mc Alpin,,Mcalpin,FL,Suwannee County,America/New_York,386,NA,US,30.13,-82.96,2070,
32063,STANDARD,0,Macclenny,,,FL,Baker County,America/New_York,904,NA,US,30.28,-82.12,11090,
32064,STANDARD,0,Live Oak,"Boys Ranch, Dowling Park",,FL,Suwannee County,America/New_York,386,NA,US,30.29,-82.98,6020,
32065,STANDARD,0,Orange Park,,Orange Pk,FL,Clay County,America/New_York,904,NA,US,30.15,-81.8,34140,
32066,STANDARD,0,Mayo,,,FL,Lafayette County,America/New_York,386,NA,US,30.05,-83.17,4220,
32067,PO BOX,0,Orange Park,,Orange Pk,FL,Clay County,America/New_York,904,NA,US,30.16,-81.7,1087,
32068,STANDARD,0,Middleburg,,,FL,Clay County,America/New_York,904,NA,US,30.05,-81.9,48590,
32071,STANDARD,0,O Brien,,,FL,Suwannee County,America/New_York,386,NA,US,30.03,-82.92,2900,
32072,PO BOX,0,Olustee,,,FL,Baker County,America/New_York,904,NA,US,30.2,-82.42,179,
32073,STANDARD,0,Orange Park,,Orange Pk,FL,Clay County,America/New_York,904,NA,US,30.16,-81.7,38170,
32079,PO BOX,0,Penney Farms,,,FL,Clay County,America/New_York,,NA,US,29.98,-81.81,711,
32080,STANDARD,0,Saint Augustine,"Anastasia Is, Anastasia Island, Saint Augustine Beach, St Aug Beach, St Augustine, St Augustine Beach",,FL,St. Johns County,America/New_York,904,NA,US,29.8,-81.26,18630,
32081,STANDARD,0,Ponte Vedra,"Ponte Vedra Beach, Tn Of Nocatee, Town Of Nocatee",,FL,St. Johns County,America/New_York,904,NA,US,30.08,-81.4,13420,
32082,STANDARD,0,Ponte Vedra Beach,Ponte Vedra,Pnte Vdra Bch,FL,St. Johns County,America/New_York,904,NA,US,30.23,-81.38,28580,
32083,STANDARD,0,Raiford,,,FL,Union County,America/New_York,904,NA,US,30.06,-82.23,1260,
32084,STANDARD,0,Saint Augustine,"Saint Augustine Beach, St Aug Beach, St Augustine, St Augustine Beach",,FL,St. Johns County,America/New_York,904,NA,US,29.89,-81.31,26550,
32085,PO BOX,0,Saint Augustine,St Augustine,,FL,St. Johns County,America/New_York,904,NA,US,29.89,-81.31,2242,
32086,STANDARD,0,Saint Augustine,"Saint Augustine Beach, St Aug Beach, St Augustine, St Augustine Beach",,FL,St. Johns County,America/New_York,904,NA,US,29.76,-81.3,23870,
32087,STANDARD,0,Sanderson,,,FL,Baker County,America/New_York,904,NA,US,30.25,-82.27,3490,
32091,STANDARD,0,Starke,"Kingsley Lake, Kngsly Lk",,FL,Bradford County,America/New_York,"386,904",NA,US,29.94,-82.11,12270,
32092,STANDARD,0,Saint Augustine,St Augustine,,FL,St. Johns County,America/New_York,904,NA,US,29.94,-81.51,33560,
32094,STANDARD,0,Wellborn,,,FL,Suwannee County,America/New_York,386,NA,US,30.23,-82.81,2240,
32095,STANDARD,0,Saint Augustine,St Augustine,,FL,St. Johns County,America/New_York,904,NA,US,30.01,-81.41,8990,
32096,STANDARD,0,White Springs,,,FL,Hamilton County,America/New_York,386,NA,US,30.33,-82.75,2200,
32097,STANDARD,0,Yulee,,,FL,Nassau County,America/New_York,904,NA,US,30.63,-81.57,17160,
32099,STANDARD,0,Jacksonville,,,FL,Duval County,America/New_York,904,NA,US,30.33,-81.65,0,
32102,STANDARD,0,Astor,,,FL,Lake County,America/New_York,352,NA,US,29.14,-81.53,1760,
32105,PO BOX,0,Barberville,,,FL,Volusia County,America/New_York,,NA,US,29.18,-81.42,334,
32110,STANDARD,0,Bunnell,,,FL,Flagler County,America/New_York,386,NA,US,29.46,-81.25,6130,
32111,PO BOX,0,Candler,,,FL,Marion County,America/New_York,352,NA,US,29.04,-81.89,545,
32112,STANDARD,0,Crescent City,,,FL,Putnam County,America/New_York,386,NA,US,29.43,-81.51,5430,
32113,STANDARD,0,Citra,,,FL,Marion County,America/New_York,352,NA,US,29.41,-82.11,4780,
32114,STANDARD,0,Daytona Beach,,,FL,Volusia County,America/New_York,386,NA,US,29.19,-81.05,21640,
32115,PO BOX,0,Daytona Beach,,,FL,Volusia County,America/New_York,386,NA,US,29.19,-81.05,719,
32116,PO BOX,0,Daytona Beach,"Dayt Bch Sh, Daytona Beach Shores",,FL,Volusia County,America/New_York,386,NA,US,29.19,-81.05,182,
32117,STANDARD,0,Daytona Beach,Holly Hill,,FL,Volusia County,America/New_York,386,NA,US,29.24,-81.06,20470,
32118,STANDARD,0,Daytona Beach,"Dayt Bch Sh, Daytona Beach Shores",,FL,Volusia County,America/New_York,386,NA,US,29.21,-81,13730,
32119,STANDARD,0,Daytona Beach,"S Daytona, S Daytona Bch, South Daytona",,FL,Volusia County,America/New_York,386,NA,US,29.16,-81.03,17310,
32120,PO BOX,0,Daytona Beach,,,FL,Volusia County,America/New_York,386,NA,US,29.19,-81.05,1215,
32121,PO BOX,0,Daytona Beach,South Daytona,,FL,Volusia County,America/New_York,386,NA,US,29.19,-81.05,258,
32122,PO BOX,0,Daytona Beach,,,FL,Volusia County,America/New_York,386,NA,US,29.19,-81.05,49,
32123,PO BOX,0,Port Orange,"Allandale, Daytona Beach, Pt Orange",,FL,Volusia County,America/New_York,386,NA,US,29.19,-81.05,193,
32124,STANDARD,0,Daytona Beach,,,FL,Volusia County,America/New_York,386,NA,US,29.17,-81.14,3610,
32125,PO BOX,0,Daytona Beach,Holly Hill,,FL,Volusia County,America/New_York,386,NA,US,29.19,-81.05,357,
32126,PO BOX,0,Daytona Beach,,,FL,Volusia County,America/New_York,386,NA,US,29.19,-81.05,186,
32127,STANDARD,0,Port Orange,"Ponce Inlet, Pt Orange, Wilbur By Sea, Wilbur By The Sea",,FL,Volusia County,America/New_York,386,NA,US,29.11,-80.97,24990,
32128,STANDARD,0,Port Orange,Pt Orange,,FL,Volusia County,America/New_York,386,NA,US,29.1,-81.07,16760,
32129,STANDARD,0,Port Orange,Pt Orange,,FL,Volusia County,America/New_York,386,NA,US,29.14,-81.02,17550,
32130,STANDARD,0,De Leon Springs,De Leon Spgs,,FL,Volusia County,America/New_York,386,NA,US,29.11,-81.35,4900,
32131,STANDARD,0,East Palatka,,,FL,Putnam County,America/New_York,,NA,US,29.65,-81.59,3630,
32132,STANDARD,0,Edgewater,,,FL,Volusia County,America/New_York,386,NA,US,28.98,-80.92,6260,
32133,PO BOX,0,Eastlake Weir,,,FL,Marion County,America/New_York,352,NA,US,29.02,-81.91,189,
32134,STANDARD,0,Fort Mc Coy,Salt Springs,,FL,Marion County,America/New_York,352,NA,US,29.34,-81.85,5230,
32135,PO BOX,0,Palm Coast,,,FL,Flagler County,America/New_York,386,NA,US,29.57,-81.21,3176,
32136,STANDARD,0,Flagler Beach,Beverly Beach,,FL,Flagler County,America/New_York,386,NA,US,29.47,-81.13,6650,
32137,STANDARD,0,Palm Coast,,,FL,Flagler County,America/New_York,386,NA,US,29.57,-81.21,36320,
32138,PO BOX,0,Grandin,,,FL,Putnam County,America/New_York,,NA,US,29.72,-81.92,271,
32139,STANDARD,0,Georgetown,,,FL,Putnam County,America/New_York,"386,352",NA,US,29.39,-81.63,750,
32140,STANDARD,0,Florahome,,,FL,Putnam County,America/New_York,386,NA,US,29.73,-81.88,1280,
32141,STANDARD,0,Edgewater,,,FL,Volusia County,America/New_York,386,NA,US,28.96,-80.9,14610,
32142,PO BOX,0,Palm Coast,,,FL,Flagler County,America/New_York,386,NA,US,29.57,-81.21,0,
32143,STANDARD,0,Palm Coast,,Flagler Beach,FL,Flagler County,America/New_York,386,NA,US,29.42,-81.16,0,
32145,STANDARD,0,Hastings,,,FL,St. Johns County,America/New_York,904,NA,US,29.71,-81.5,4480,
32147,PO BOX,0,Hollister,,,FL,Putnam County,America/New_York,,NA,US,29.62,-81.81,1601,
32148,STANDARD,0,Interlachen,,,FL,Putnam County,America/New_York,"352,386",NA,US,29.61,-81.89,7610,
32149,PO BOX,0,Edgar,Interlachen,,FL,Putnam County,America/New_York,,NA,US,29.61,-81.89,34,
32157,PO BOX,0,Lake Como,,,FL,Putnam County,America/New_York,,NA,US,29.47,-81.58,721,
32158,PO BOX,0,Lady Lake,,,FL,Lake County,America/New_York,352,NA,US,28.92,-81.92,1532,
32159,STANDARD,0,Lady Lake,The Villages,,FL,Lake County,America/New_York,352,NA,US,28.92,-81.92,23430,
32160,PO BOX,0,Lake Geneva,,,FL,Clay County,America/New_York,,NA,US,29.77,-82.01,358,
32162,STANDARD,0,The Villages,Lady Lake,,FL,Sumter County,America/New_York,352,NA,US,28.91,-81.99,46010,
32163,STANDARD,0,The Villages,,Lady Lake,FL,Sumter County,America/New_York,352,NA,US,28.93,-81.95,0,
32164,STANDARD,0,Palm Coast,,,FL,Flagler County,America/New_York,386,NA,US,29.52,-81.24,39190,
32168,STANDARD,0,New Smyrna Beach,New Smyrna,,FL,Volusia County,America/New_York,386,NA,US,29.02,-80.92,21390,
32169,STANDARD,0,New Smyrna Beach,New Smyrna,,FL,Volusia County,America/New_York,386,NA,US,28.97,-80.87,8370,
32170,PO BOX,0,New Smyrna Beach,New Smyrna,,FL,Volusia County,America/New_York,386,NA,US,29.02,-80.92,1449,
32173,PO BOX,0,Ormond Beach,,,FL,Volusia County,America/New_York,386,NA,US,29.28,-81.06,693,
32174,STANDARD,0,Ormond Beach,,,FL,Volusia County,America/New_York,386,NA,US,29.28,-81.06,43270,
32175,PO BOX,0,Ormond Beach,,,FL,Volusia County,America/New_York,386,NA,US,29.28,-81.06,731,
32176,STANDARD,0,Ormond Beach,,,FL,Volusia County,America/New_York,386,NA,US,29.33,-81.06,12120,
32177,STANDARD,0,Palatka,,,FL,Putnam County,America/New_York,386,NA,US,29.64,-81.65,19000,
32178,PO BOX,0,Palatka,,,FL,Putnam County,America/New_York,386,NA,US,29.64,-81.65,1845,
32179,STANDARD,0,Ocklawaha,,Oklawaha,FL,Marion County,America/New_York,352,NA,US,29.04,-81.92,5880,
32180,STANDARD,0,Pierson,,,FL,Volusia County,America/New_York,386,NA,US,29.23,-81.46,3830,
32181,STANDARD,0,Pomona Park,,,FL,Putnam County,America/New_York,"352,386",NA,US,29.49,-81.59,1850,
32182,PO BOX,0,Orange Springs,Orange Spgs,,FL,Marion County,America/New_York,352,NA,US,29.5,-81.94,796,
32183,PO BOX,0,Ocklawaha,,,FL,Marion County,America/New_York,352,NA,US,29.04,-81.92,1315,
32185,PO BOX,0,Putnam Hall,,,FL,Putnam County,America/New_York,,NA,US,29.73,-81.95,204,
32187,STANDARD,0,San Mateo,,,FL,Putnam County,America/New_York,386,NA,US,29.6,-81.58,1690,
32189,STANDARD,0,Satsuma,,,FL,Putnam County,America/New_York,386,NA,US,29.55,-81.65,3830,
32190,STANDARD,0,Seville,,,FL,Volusia County,America/New_York,352,NA,US,29.31,-81.49,1180,
32192,PO BOX,0,Sparr,,,FL,Marion County,America/New_York,352,NA,US,29.33,-82.11,1007,
32193,STANDARD,0,Welaka,,,FL,Putnam County,America/New_York,352,NA,US,29.48,-81.66,850,
32195,STANDARD,0,Weirsdale,,,FL,Marion County,America/New_York,352,NA,US,28.98,-81.92,2940,
32198,UNIQUE,0,Daytona Beach,,"Fl Reg Lib Bl, Fl Regional Library For Blin",FL,Volusia County,America/New_York,386,NA,US,29.19,-81.05,0,
32201,PO BOX,0,Jacksonville,,Jax,FL,Duval County,America/New_York,904,NA,US,30.33,-81.65,277,
32202,STANDARD,0,Jacksonville,,Jax,FL,Duval County,America/New_York,904,NA,US,30.33,-81.65,2770,
32203,PO BOX,0,Jacksonville,,Jax,FL,Duval County,America/New_York,904,NA,US,30.33,-81.65,2203,
32204,STANDARD,0,Jacksonville,,Jax,FL,Duval County,America/New_York,904,NA,US,30.32,-81.68,5700,
32205,STANDARD,0,Jacksonville,,Jax,FL,Duval County,America/New_York,904,NA,US,30.3,-81.72,23730,
32206,STANDARD,0,Jacksonville,,Jax,FL,Duval County,America/New_York,904,NA,US,30.35,-81.64,13360,
32207,STANDARD,0,Jacksonville,,Jax,FL,Duval County,America/New_York,904,NA,US,30.29,-81.64,30130,
32208,STANDARD,0,Jacksonville,,Jax,FL,Duval County,America/New_York,904,NA,US,30.39,-81.68,25710,
32209,STANDARD,0,Jacksonville,,Jax,FL,Duval County,America/New_York,904,NA,US,30.36,-81.7,26810,
32210,STANDARD,0,Jacksonville,,Jax,FL,Duval County,America/New_York,904,NA,US,30.27,-81.75,55810,
32211,STANDARD,0,Jacksonville,,Jax,FL,Duval County,America/New_York,904,NA,US,30.33,-81.58,27490,
32212,STANDARD,0,Jacksonville,"Jacksonville N A S, Jax Naval Air","Jacksonville Naval Air Stati, Jax, Nas Jacksonvle, Nas Jax",FL,Duval County,America/New_York,904,NA,US,30.22,-81.67,1570,
32214,UNIQUE,0,Jacksonville,,"Jacksonville Naval Hospital, Jax, Jax Naval Hos",FL,Duval County,America/New_York,904,NA,US,30.33,-81.65,195,
32215,PO BOX,1,Jacksonville,,Jax,FL,Duval County,America/New_York,904,NA,US,30.33,-81.65,22,
32216,STANDARD,0,Jacksonville,,Jax,FL,Duval County,America/New_York,904,NA,US,30.28,-81.58,34660,
32217,STANDARD,0,Jacksonville,,Jax,FL,Duval County,America/New_York,904,NA,US,30.24,-81.63,18030,
32218,STANDARD,0,Jacksonville,,Jax,FL,Duval County,America/New_York,904,NA,US,30.49,-81.67,54030,
32219,STANDARD,0,Jacksonville,Dinsmore,Jax,FL,Duval County,America/New_York,904,NA,US,30.42,-81.81,10790,
32220,STANDARD,0,Jacksonville,,Jax,FL,Duval County,America/New_York,904,NA,US,30.37,-81.87,11140,
32221,STANDARD,0,Jacksonville,,Jax,FL,Duval County,America/New_York,904,NA,US,30.26,-81.85,26150,
32222,STANDARD,0,Jacksonville,,Jax,FL,Duval County,America/New_York,904,NA,US,30.22,-81.83,10260,
32223,STANDARD,0,Jacksonville,,Jax,FL,Duval County,America/New_York,904,NA,US,30.16,-81.65,23930,
32224,STANDARD,0,Jacksonville,,"Atlantic Beach, Jax",FL,Duval County,America/New_York,904,NA,US,30.27,-81.47,34110,
32225,STANDARD,0,Jacksonville,,Jax,FL,Duval County,America/New_York,904,NA,US,30.36,-81.51,52610,
32226,STANDARD,0,Jacksonville,,Jax,FL,Duval County,America/New_York,904,NA,US,30.48,-81.51,17480,
32227,STANDARD,0,Jacksonville,,"Jacksonville Beach, Jax, Jax Bch, Mayport, Mayport Naval Housing, Maypt Nav Hou",FL,Duval County,America/New_York,904,NA,US,30.39,-81.4,1980,
32228,PO BOX,0,Jacksonville,"Mayport Nav S, Mayport Naval Station","Jax, Mayport, Mayport Nav Sta, Mayport Naval Sta",FL,Duval County,America/New_York,904,NA,US,30.39,-81.4,170,
32229,PO BOX,0,Jacksonville,,Jax,FL,Duval County,America/New_York,904,NA,US,30.33,-81.65,150,
32230,PO BOX,1,Jacksonville,,,FL,Duval County,America/New_York,904,NA,US,30.33,-81.65,0,
32231,PO BOX,0,Jacksonville,,Jax,FL,Duval County,America/New_York,904,NA,US,30.33,-81.65,27,
32232,PO BOX,0,Jacksonville,,Jax,FL,Duval County,America/New_York,904,NA,US,30.33,-81.65,27,
32233,STANDARD,0,Atlantic Beach,"Atlantic Bch, Jacksonville, Mayport",Jax,FL,Duval County,America/New_York,904,NA,US,30.33,-81.4,20440,
32234,STANDARD,0,Jacksonville,"Baldwin, Maxville",Jax,FL,Duval County,America/New_York,904,NA,US,30.23,-81.98,6500,
32235,PO BOX,0,Jacksonville,,Jax,FL,Duval County,America/New_York,904,NA,US,30.33,-81.65,506,
32236,PO BOX,0,Jacksonville,,Jax,FL,Duval County,America/New_York,904,NA,US,30.33,-81.65,1438,
32237,PO BOX,0,Jacksonville,,Jax,FL,Duval County,America/New_York,904,NA,US,30.33,-81.65,14,
32238,PO BOX,0,Jacksonville,,Jax,FL,Duval County,America/New_York,904,NA,US,30.33,-81.65,839,
32239,PO BOX,0,Jacksonville,,Jax,FL,Duval County,America/New_York,904,NA,US,30.33,-81.65,850,
32240,PO BOX,0,Jacksonville Beach,"Jacksonville, Jax Bch",Jax,FL,Duval County,America/New_York,904,NA,US,30.29,-81.39,624,
32241,PO BOX,0,Jacksonville,,Jax,FL,Duval County,America/New_York,904,NA,US,30.33,-81.65,1374,
32244,STANDARD,0,Jacksonville,,Jax,FL,Duval County,America/New_York,904,NA,US,30.22,-81.75,54880,
32245,PO BOX,0,Jacksonville,,Jax,FL,Duval County,America/New_York,904,NA,US,30.33,-81.65,1267,
32246,STANDARD,0,Jacksonville,,Jax,FL,Duval County,America/New_York,904,NA,US,30.29,-81.52,46370,
32247,PO BOX,0,Jacksonville,,Jax,FL,Duval County,America/New_York,904,NA,US,30.33,-81.65,1089,
32250,STANDARD,0,Jacksonville Beach,"Jacksonville, Jax Bch","Jax, Jax Beach",FL,Duval County,America/New_York,904,NA,US,30.29,-81.39,26090,
32254,STANDARD,0,Jacksonville,,Jax,FL,Duval County,America/New_York,904,NA,US,30.34,-81.73,11340,
32255,PO BOX,0,Jacksonville,,Jax,FL,Duval County,America/New_York,904,NA,US,30.33,-81.65,482,
32256,STANDARD,0,Jacksonville,,Jax,FL,Duval County,America/New_York,904,NA,US,30.18,-81.47,41040,
32257,STANDARD,0,Jacksonville,,Jax,FL,Duval County,America/New_York,904,NA,US,30.19,-81.61,36050,
32258,STANDARD,0,Jacksonville,,Jax,FL,Duval County,America/New_York,904,NA,US,30.14,-81.55,30030,
32259,STANDARD,0,Saint Johns,"Fruit Cove, Jacksonville, Julington Creek, Julington Crk, Switzerland",Jax,FL,St. Johns County,America/New_York,904,NA,US,30.08,-81.59,46950,
32260,PO BOX,0,Jacksonville,Saint Johns,Jax,FL,Duval County,America/New_York,904,NA,US,30.33,-81.65,310,
32266,STANDARD,0,Neptune Beach,Jacksonville,Jax,FL,Duval County,America/New_York,904,NA,US,30.31,-81.39,6470,
32267,STANDARD,1,Jacksonville,,,FL,Duval County,America/New_York,904,NA,US,30.38,-81.41,0,
32277,STANDARD,0,Jacksonville,,Jax,FL,Duval County,America/New_York,904,NA,US,30.38,-81.59,28030,
32290,UNIQUE,1,Jacksonville,Homeside Lending Inc,,FL,Duval County,America/New_York,904,NA,US,30.33,-81.65,0,
32301,STANDARD,0,Tallahassee,,,FL,Leon County,America/New_York,850,NA,US,30.43,-84.26,19870,
32302,PO BOX,0,Tallahassee,,,FL,Leon County,America/New_York,850,NA,US,30.45,-84.28,994,
32303,STANDARD,0,Tallahassee,,,FL,Leon County,America/New_York,850,NA,US,30.45,-84.28,38910,
32304,STANDARD,0,Tallahassee,,,FL,Leon County,America/New_York,850,NA,US,30.45,-84.35,16160,
32305,STANDARD,0,Tallahassee,,,FL,Leon County,America/New_York,850,NA,US,30.33,-84.3,15610,
32306,UNIQUE,0,Tallahassee,,"Florida State Univ Admin, Florida State University",FL,Leon County,America/New_York,850,NA,US,30.45,-84.28,30,
32307,UNIQUE,0,Tallahassee,"Florida A & M, Florida A And M University",,FL,Leon County,America/New_York,850,NA,US,30.45,-84.28,104,
32308,STANDARD,0,Tallahassee,,Centerville,FL,Leon County,America/New_York,850,NA,US,30.48,-84.23,19140,
32309,STANDARD,0,Tallahassee,Miccosukee,Centerville,FL,Leon County,America/New_York,850,NA,US,30.53,-84.1,28850,
32310,STANDARD,0,Tallahassee,,,FL,Leon County,America/New_York,850,NA,US,30.39,-84.51,11490,
32311,STANDARD,0,Tallahassee,,,FL,Leon County,America/New_York,850,NA,US,30.38,-84.17,17340,
32312,STANDARD,0,Tallahassee,,,FL,Leon County,America/New_York,850,NA,US,30.61,-84.23,31110,
32313,UNIQUE,0,Tallahassee,"Florida State, Florida State University",Fl State Univ Student,FL,Leon County,America/New_York,850,NA,US,30.45,-84.28,153,
32314,PO BOX,0,Tallahassee,,,FL,Leon County,America/New_York,850,NA,US,30.45,-84.28,1426,
32315,PO BOX,0,Tallahassee,,,FL,Leon County,America/New_York,850,NA,US,30.45,-84.28,869,
32316,PO BOX,0,Tallahassee,,,FL,Leon County,America/New_York,850,NA,US,30.45,-84.28,1119,
32317,STANDARD,0,Tallahassee,,Centerville,FL,Leon County,America/New_York,850,NA,US,30.47,-84.12,14650,
32318,PO BOX,0,Tallahassee,,,FL,Leon County,America/New_York,850,NA,US,30.56,-84.18,656,
32320,STANDARD,0,Apalachicola,,,FL,Franklin County,America/New_York,850,NA,US,29.72,-84.99,2770,
32321,STANDARD,0,Bristol,,,FL,Liberty County,America/New_York,850,NA,US,30.42,-84.97,3830,
32322,STANDARD,0,Carrabelle,,,FL,Franklin County,America/New_York,850,NA,US,29.84,-84.67,2130,
32323,PO BOX,0,Lanark Village,Lanark Vlg,,FL,Franklin County,America/New_York,850,NA,US,29.89,-84.61,168,
32324,STANDARD,0,Chattahoochee,,,FL,Gadsden County,America/New_York,850,NA,US,30.69,-84.83,3210,
32326,PO BOX,0,Crawfordville,,,FL,Wakulla County,America/New_York,850,NA,US,30.17,-84.37,1453,
32327,STANDARD,0,Crawfordville,"Wakulla Spgs, Wakulla Springs",,FL,Wakulla County,America/New_York,850,NA,US,30.17,-84.37,21230,
32328,STANDARD,0,Eastpoint,"Saint George Island, St George Isl",East Point,FL,Franklin County,America/New_York,850,NA,US,29.75,-84.86,2740,
32329,PO BOX,0,Apalachicola,,,FL,Franklin County,America/New_York,850,NA,US,29.72,-84.99,738,
32330,PO BOX,0,Greensboro,,,FL,Gadsden County,America/New_York,850,NA,US,30.57,-84.74,1454,
32331,STANDARD,0,Greenville,,,FL,Madison County,America/New_York,850,NA,US,30.46,-83.63,3190,
32332,STANDARD,0,Gretna,,,FL,Gadsden County,America/New_York,850,NA,US,30.61,-84.66,1780,
32333,STANDARD,0,Havana,,,FL,Gadsden County,America/New_York,850,NA,US,30.62,-84.41,9860,
32334,STANDARD,0,Hosford,,,FL,Liberty County,America/New_York,850,NA,US,30.38,-84.79,1420,
32335,PO BOX,0,Sumatra,,,FL,Liberty County,America/New_York,850,NA,US,30.01,-84.97,0,
32336,STANDARD,0,Lamont,,,FL,Jefferson County,America/New_York,850,NA,US,30.37,-83.81,1080,
32337,PO BOX,0,Lloyd,,,FL,Jefferson County,America/New_York,850,NA,US,30.47,-84.02,339,
32340,STANDARD,0,Madison,,,FL,Madison County,America/New_York,850,NA,US,30.46,-83.41,7250,
32341,PO BOX,0,Madison,,,FL,Madison County,America/New_York,850,NA,US,30.46,-83.41,1314,
32343,STANDARD,0,Midway,,,FL,Gadsden County,America/New_York,850,NA,US,30.49,-84.46,3100,
32344,STANDARD,0,Monticello,,,FL,Jefferson County,America/New_York,850,NA,US,30.54,-83.87,8690,
32345,PO BOX,0,Monticello,,,FL,Jefferson County,America/New_York,850,NA,US,30.54,-83.87,842,
32346,STANDARD,0,Panacea,"Alligator Point, Alligator Pt, Ochlockonee, Ochlockonee Bay",,FL,Wakulla County,America/New_York,850,NA,US,30.03,-84.4,1340,
32347,STANDARD,0,Perry,,,FL,Taylor County,America/New_York,850,NA,US,30.17,-83.61,6290,
32348,STANDARD,0,Perry,,,FL,Taylor County,America/New_York,850,NA,US,30.1,-83.58,7880,
32350,STANDARD,0,Pinetta,,,FL,Madison County,America/New_York,"386,850",NA,US,30.59,-83.35,1170,
32351,STANDARD,0,Quincy,,,FL,Gadsden County,America/New_York,850,NA,US,30.58,-84.58,13000,
32352,STANDARD,0,Quincy,"Mount Pleasant, Mt Pleasant",,FL,Gadsden County,America/New_York,850,NA,US,30.65,-84.69,4980,
32353,PO BOX,0,Quincy,,,FL,Gadsden County,America/New_York,850,NA,US,30.58,-84.58,2245,
32355,PO BOX,0,Saint Marks,,,FL,Wakulla County,America/New_York,850,NA,US,30.16,-84.2,366,
32356,STANDARD,0,Salem,,,FL,Taylor County,America/New_York,"352,850",NA,US,29.88,-83.41,124,
32357,PO BOX,0,Shady Grove,,,FL,Taylor County,America/New_York,850,NA,US,30.28,-83.63,151,
32358,STANDARD,0,Sopchoppy,"Saint Teresa, St Teresa",,FL,Wakulla County,America/New_York,850,NA,US,30.05,-84.48,1680,
32359,STANDARD,0,Steinhatchee,,Jena,FL,Taylor County,America/New_York,,NA,US,29.67,-83.39,1350,
32360,PO BOX,0,Telogia,,,FL,Liberty County,America/New_York,850,NA,US,30.35,-84.81,264,
32361,PO BOX,0,Wacissa,,,FL,Jefferson County,America/New_York,850,NA,US,30.36,-83.99,345,
32362,PO BOX,0,Woodville,,,FL,Leon County,America/New_York,850,NA,US,30.31,-84.26,1152,
32395,UNIQUE,0,Tallahassee,,"Fl State Lot, Florida State Lottery",FL,Leon County,America/New_York,850,NA,US,30.45,-84.28,0,
32399,UNIQUE,0,Tallahassee,,State Of Florida,FL,Leon County,America/New_York,850,NA,US,30.44,-84.28,25,
32401,STANDARD,0,Panama City,"P C Beach, Panama City Beach",,FL,Bay County,America/Chicago,850,NA,US,30.17,-85.67,19630,
32402,PO BOX,0,Panama City,,,FL,Bay County,America/Chicago,850,NA,US,30.17,-85.67,808,
32403,STANDARD,0,Panama City,Tyndall Afb,Tyndall A F B,FL,Bay County,America/Chicago,850,NA,US,30.05,-85.55,3130,
32404,STANDARD,0,Panama City,Callaway,,FL,Bay County,America/Chicago,850,NA,US,30.2,-85.51,33860,
32405,STANDARD,0,Panama City,,,FL,Bay County,America/Chicago,850,NA,US,30.2,-85.67,26110,
32406,PO BOX,0,Panama City,,,FL,Bay County,America/Chicago,850,NA,US,30.17,-85.67,626,
32407,STANDARD,0,Panama City Beach,"P C Beach, Panama City",,FL,Bay County,America/Chicago,850,NA,US,30.2,-85.79,10910,
32408,STANDARD,0,Panama City,"P C Beach, Panama City Beach",,FL,Bay County,America/Chicago,850,NA,US,30.14,-85.73,14010,
32409,STANDARD,0,Panama City,Southport,,FL,Bay County,America/Chicago,850,NA,US,30.36,-85.65,8310,
32410,PO BOX,0,Mexico Beach,,Port Saint Joe,FL,Bay County,America/Chicago,850,NA,US,29.94,-85.4,570,
32411,PO BOX,0,Panama City,,,FL,Bay County,America/Chicago,850,NA,US,30.17,-85.67,1483,
32412,PO BOX,0,Panama City,,,FL,Bay County,America/Chicago,850,NA,US,30.17,-85.67,580,
32413,STANDARD,0,Panama City Beach,"Grande Pointe, Inlet Beach, P C Beach, Panama City, Rosemary Bch, Seacrest, Watersound","W Panama City Beach, West Panama City Beach",FL,Bay County,America/Chicago,850,NA,US,30.31,-85.91,13140,
32417,PO BOX,0,Panama City,"P C Beach, Panama City Beach",,FL,Bay County,America/Chicago,850,NA,US,30.17,-85.67,1489,
32420,STANDARD,0,Alford,,,FL,Jackson County,America/Chicago,850,NA,US,30.69,-85.39,1790,
32421,STANDARD,0,Altha,,,FL,Calhoun County,America/Chicago,850,NA,US,30.57,-85.12,3390,
32422,PO BOX,0,Argyle,,,FL,Walton County,America/Chicago,850,NA,US,30.71,-86.04,120,
32423,STANDARD,0,Bascom,,,FL,Jackson County,America/Chicago,850,NA,US,30.92,-85.11,1050,
32424,STANDARD,0,Blountstown,,,FL,Calhoun County,America/Chicago,850,NA,US,30.44,-85.04,4720,
32425,STANDARD,0,Bonifay,"Caryville, Esto, Noma",,FL,Holmes County,America/Chicago,850,NA,US,30.78,-85.68,9560,
32426,STANDARD,0,Campbellton,,,FL,Jackson County,America/Chicago,850,NA,US,30.95,-85.39,730,
32427,STANDARD,0,Caryville,,,FL,Washington County,America/Chicago,850,NA,US,30.77,-85.81,880,
32428,STANDARD,0,Chipley,Sunny Hills,,FL,Washington County,America/Chicago,850,NA,US,30.77,-85.54,12200,
32430,STANDARD,0,Clarksville,,,FL,Calhoun County,America/Chicago,850,NA,US,30.43,-85.18,980,
32431,STANDARD,0,Cottondale,Jacob,,FL,Jackson County,America/Chicago,850,NA,US,30.79,-85.37,4070,
32432,PO BOX,0,Cypress,,,FL,Jackson County,America/Chicago,850,NA,US,30.71,-85.08,249,
32433,STANDARD,0,Defuniak Springs,Defuniak Spgs,,FL,Walton County,America/Chicago,850,NA,US,30.85,-86.2,12040,
32434,PO BOX,0,Mossy Head,"Defuniak Spgs, Defuniak Springs",,FL,Walton County,America/Chicago,850,NA,US,30.74,-86.31,107,
32435,STANDARD,0,Defuniak Springs,Defuniak Spgs,,FL,Walton County,America/Chicago,850,NA,US,30.74,-86.19,5680,
32437,STANDARD,0,Ebro,,,FL,Washington County,America/Chicago,850,NA,US,30.44,-85.88,500,
32438,STANDARD,0,Fountain,,,FL,Bay County,America/Chicago,850,NA,US,30.47,-85.42,3040,
32439,STANDARD,0,Freeport,,,FL,Walton County,America/Chicago,850,NA,US,30.5,-86.13,8240,
32440,STANDARD,0,Graceville,,,FL,Jackson County,America/Chicago,850,NA,US,30.96,-85.51,4390,
32442,STANDARD,0,Grand Ridge,,,FL,Jackson County,America/Chicago,850,NA,US,30.71,-85.01,3110,
32443,STANDARD,0,Greenwood,,,FL,Jackson County,America/Chicago,850,NA,US,30.87,-85.16,2440,
32444,STANDARD,0,Lynn Haven,,,FL,Bay County,America/Chicago,850,NA,US,30.24,-85.65,19720,
32445,STANDARD,0,Malone,,,FL,Jackson County,America/Chicago,850,NA,US,30.95,-85.16,1120,
32446,STANDARD,0,Marianna,,,FL,Jackson County,America/Chicago,850,NA,US,30.85,-85.23,7670,
32447,PO BOX,0,Marianna,,,FL,Jackson County,America/Chicago,850,NA,US,30.76,-85.25,1325,
32448,STANDARD,0,Marianna,,,FL,Jackson County,America/Chicago,850,NA,US,30.77,-85.23,6560,
32449,STANDARD,0,Wewahitchka,Kinard,,FL,Calhoun County,America/Chicago,850,NA,US,30.26,-85.24,390,
32452,PO BOX,0,Noma,,,FL,Holmes County,America/Chicago,850,NA,US,30.98,-85.61,75,
32454,PO BOX,1,Point Washington,Pt Washington,,FL,Walton County,America/Chicago,850,NA,US,30.37,-86.11,0,
32455,STANDARD,0,Ponce De Leon,"Bruce, Red Bay",,FL,Walton County,America/Chicago,850,NA,US,30.72,-85.93,3220,
32456,STANDARD,0,Port Saint Joe,"Cape San Blas, Mexico Beach, Overstreet, Port St Joe",,FL,Gulf County,America/New_York,850,NA,US,29.84,-85.3,6410,
32457,PO BOX,0,Port Saint Joe,Port St Joe,,FL,Gulf County,America/New_York,850,NA,US,29.83,-85.24,927,
32459,STANDARD,0,Santa Rosa Beach,"Point Washington, Pt Washington, Santa Rsa Bch",,FL,Walton County,America/Chicago,850,NA,US,30.37,-86.22,16500,
32460,STANDARD,0,Sneads,,,FL,Jackson County,America/Chicago,850,NA,US,30.7,-84.92,3220,
32461,PO BOX,0,Rosemary Beach,"Alys Beach, Panama City, Rosemary Bch, Watersound",,FL,Walton County,America/Chicago,850,NA,US,30.29,-86.03,237,
32462,STANDARD,0,Vernon,,,FL,Washington County,America/Chicago,850,NA,US,30.61,-85.7,2760,
32463,PO BOX,0,Wausau,,,FL,Washington County,America/Chicago,850,NA,US,30.63,-85.59,435,
32464,STANDARD,0,Westville,,,FL,Holmes County,America/Chicago,850,NA,US,30.76,-85.84,2860,
32465,STANDARD,0,Wewahitchka,,,FL,Gulf County,America/Chicago,850,NA,US,30.11,-85.19,4510,
32466,STANDARD,0,Youngstown,,,FL,Bay County,America/Chicago,850,NA,US,30.36,-85.43,5280,
32501,STANDARD,0,Pensacola,,,FL,Escambia County,America/Chicago,850,NA,US,30.43,-87.22,7470,
32502,STANDARD,0,Pensacola,,,FL,Escambia County,America/Chicago,850,NA,US,30.41,-87.22,2790,
32503,STANDARD,0,Pensacola,,,FL,Escambia County,America/Chicago,850,NA,US,30.44,-87.18,26180,
32504,STANDARD,0,Pensacola,,,FL,Escambia County,America/Chicago,850,NA,US,30.47,-87.19,19210,
32505,STANDARD,0,Pensacola,,,FL,Escambia County,America/Chicago,850,NA,US,30.45,-87.26,22930,
32506,STANDARD,0,Pensacola,,,FL,Escambia County,America/Chicago,850,NA,US,30.39,-87.37,30890,
32507,STANDARD,0,Pensacola,,Perdido Key,FL,Escambia County,America/Chicago,850,NA,US,30.34,-87.37,26390,
32508,STANDARD,0,Pensacola,,,FL,Escambia County,America/Chicago,850,NA,US,30.35,-87.32,1970,
32509,UNIQUE,0,Pensacola,,Netpmdsa Saufley Field,FL,Escambia County,America/Chicago,850,NA,US,30.47,-87.33,0,
32511,UNIQUE,0,Pensacola,,Ntt Corry Field,FL,Escambia County,America/Chicago,850,NA,US,30.41,-87.29,271,
32512,UNIQUE,0,Pensacola,,Pensacola Naval Hospital,FL,Escambia County,America/Chicago,850,NA,US,30.44,-87.18,93,
32513,PO BOX,0,Pensacola,,,FL,Escambia County,America/Chicago,850,NA,US,30.44,-87.18,2736,
32514,STANDARD,0,Pensacola,,,FL,Escambia County,America/Chicago,850,NA,US,30.53,-87.22,32040,
32516,PO BOX,0,Pensacola,,,FL,Escambia County,America/Chicago,850,NA,US,30.44,-87.18,824,
32520,UNIQUE,0,Pensacola,,Gulf Power,FL,Escambia County,America/Chicago,850,NA,US,30.44,-87.18,0,
32521,UNIQUE,0,Pensacola,,City Of Pensacola,FL,Escambia County,America/Chicago,850,NA,US,30.44,-87.18,0,
32522,PO BOX,0,Pensacola,,,FL,Escambia County,America/Chicago,850,NA,US,30.44,-87.18,388,
32523,PO BOX,0,Pensacola,,,FL,Escambia County,America/Chicago,850,NA,US,30.44,-87.18,284,
32524,PO BOX,0,Pensacola,,,FL,Escambia County,America/Chicago,850,NA,US,30.44,-87.18,807,
32526,STANDARD,0,Pensacola,Bellview,,FL,Escambia County,America/Chicago,850,NA,US,30.5,-87.37,35050,
32530,PO BOX,0,Bagdad,,,FL,Santa Rosa County,America/Chicago,850,NA,US,30.6,-87.03,686,
32531,STANDARD,0,Baker,Crestview,,FL,Okaloosa County,America/Chicago,850,NA,US,30.79,-86.68,5490,
32533,STANDARD,0,Cantonment,,,FL,Escambia County,America/Chicago,850,NA,US,30.6,-87.34,26040,
32534,STANDARD,0,Pensacola,,,FL,Escambia County,America/Chicago,850,NA,US,30.53,-87.28,13860,
32535,STANDARD,0,Century,,,FL,Escambia County,America/Chicago,850,NA,US,30.97,-87.26,3720,
32536,STANDARD,0,Crestview,,,FL,Okaloosa County,America/Chicago,850,NA,US,30.75,-86.57,25420,
32537,PO BOX,0,Milligan,,,FL,Okaloosa County,America/Chicago,850,NA,US,30.75,-86.64,0,
32538,PO BOX,0,Paxton,,,FL,Walton County,America/Chicago,850,NA,US,30.97,-86.31,384,
32539,STANDARD,0,Crestview,,,FL,Okaloosa County,America/Chicago,850,NA,US,30.78,-86.46,23260,
32540,PO BOX,0,Destin,,,FL,Okaloosa County,America/Chicago,850,NA,US,30.4,-86.49,1188,
32541,STANDARD,0,Destin,,,FL,Okaloosa County,America/Chicago,850,NA,US,30.4,-86.49,16720,
32542,STANDARD,0,Eglin Afb,"Dfafs, Duke Field Afs, Eglin","Elgin, Elgin Afb",FL,Okaloosa County,America/Chicago,,NA,US,30.46,-86.54,3030,
32544,STANDARD,0,Hurlburt Field,Hurlburt Fld,,FL,Okaloosa County,America/Chicago,850,NA,US,30.42,-86.69,2090,
32547,STANDARD,0,Fort Walton Beach,Ft Walton Bch,Ft Walton Beach,FL,Okaloosa County,America/Chicago,850,NA,US,30.47,-86.67,30280,
32548,STANDARD,0,Fort Walton Beach,"Ft Walton Bch, Okaloosa Is, Okaloosa Island","Ft Walton Beach, West Destin",FL,Okaloosa County,America/Chicago,850,NA,US,30.42,-86.61,19640,
32549,PO BOX,0,Fort Walton Beach,Ft Walton Bch,Ft Walton Beach,FL,Okaloosa County,America/Chicago,850,NA,US,30.42,-86.61,1400,
32550,STANDARD,0,Miramar Beach,"Destin, Sandestin",,FL,Walton County,America/Chicago,850,NA,US,30.39,-86.31,7050,
32559,UNIQUE,0,Pensacola,,Educ Dev Ctr Corresp,FL,Escambia County,America/Chicago,850,NA,US,30.44,-87.18,0,
32560,PO BOX,0,Gonzalez,,,FL,Escambia County,America/Chicago,850,NA,US,30.57,-87.29,544,
32561,STANDARD,0,Gulf Breeze,"Pensacola Bch, Pensacola Beach",,FL,Santa Rosa County,America/Chicago,850,NA,US,30.36,-87.17,8250,
32562,PO BOX,0,Gulf Breeze,,,FL,Santa Rosa County,America/Chicago,850,NA,US,30.36,-87.17,705,
32563,STANDARD,0,Gulf Breeze,,,FL,Santa Rosa County,America/Chicago,850,NA,US,30.4,-87.03,22330,
32564,STANDARD,0,Holt,,,FL,Okaloosa County,America/Chicago,850,NA,US,30.72,-86.67,2490,
32565,STANDARD,0,Jay,,,FL,Santa Rosa County,America/Chicago,850,NA,US,30.95,-87.15,4910,
32566,STANDARD,0,Navarre,Gulf Breeze,,FL,Santa Rosa County,America/Chicago,850,NA,US,30.44,-86.88,36950,
32567,STANDARD,0,Laurel Hill,,,FL,Okaloosa County,America/Chicago,850,NA,US,30.96,-86.45,3260,
32568,STANDARD,0,Mc David,Walnut Hill,,FL,Escambia County,America/Chicago,850,NA,US,30.86,-87.46,2750,
32569,STANDARD,0,Mary Esther,,,FL,Okaloosa County,America/Chicago,850,NA,US,30.41,-86.66,11250,
32570,STANDARD,0,Milton,,,FL,Santa Rosa County,America/Chicago,850,NA,US,30.63,-87.04,26260,
32571,STANDARD,0,Milton,Pace,,FL,Santa Rosa County,America/Chicago,850,NA,US,30.68,-87.2,30810,
32572,PO BOX,0,Milton,,,FL,Santa Rosa County,America/Chicago,850,NA,US,30.63,-87.04,1049,
32577,STANDARD,0,Molino,,,FL,Escambia County,America/Chicago,850,NA,US,30.71,-87.32,4550,
32578,STANDARD,0,Niceville,Choctaw Beach,,FL,Okaloosa County,America/Chicago,850,NA,US,30.53,-86.48,31870,
32579,STANDARD,0,Shalimar,,,FL,Okaloosa County,America/Chicago,850,NA,US,30.44,-86.57,10020,
32580,STANDARD,0,Valparaiso,,,FL,Okaloosa County,America/Chicago,850,NA,US,30.49,-86.5,3760,
32583,STANDARD,0,Milton,,,FL,Santa Rosa County,America/Chicago,850,NA,US,30.59,-86.97,19190,
32588,PO BOX,0,Niceville,,,FL,Okaloosa County,America/Chicago,850,NA,US,30.53,-86.48,638,
32590,PO BOX,1,Pensacola,,,FL,Escambia County,America/Chicago,850,NA,US,30.44,-87.18,0,
32591,PO BOX,0,Pensacola,,,FL,Escambia County,America/Chicago,850,NA,US,30.44,-87.18,744,
32592,PO BOX,1,Pensacola,,,FL,Escambia County,America/Chicago,850,NA,US,30.44,-87.18,0,
32601,STANDARD,0,Gainesville,,,FL,Alachua County,America/New_York,352,NA,US,29.65,-82.32,9450,
32602,PO BOX,0,Gainesville,,,FL,Alachua County,America/New_York,352,NA,US,29.67,-82.33,1034,
32603,STANDARD,0,Gainesville,,,FL,Alachua County,America/New_York,352,NA,US,29.66,-82.35,1440,
32604,PO BOX,0,Gainesville,,,FL,Alachua County,America/New_York,352,NA,US,29.67,-82.33,733,
32605,STANDARD,0,Gainesville,,,FL,Alachua County,America/New_York,352,NA,US,29.68,-82.37,21360,
32606,STANDARD,0,Gainesville,,,FL,Alachua County,America/New_York,352,NA,US,29.68,-82.44,20660,
32607,STANDARD,0,Gainesville,,,FL,Alachua County,America/New_York,352,NA,US,29.65,-82.42,22340,
32608,STANDARD,0,Gainesville,,,FL,Alachua County,America/New_York,352,NA,US,29.6,-82.41,34350,
32609,STANDARD,0,Gainesville,,,FL,Alachua County,America/New_York,352,NA,US,29.67,-82.33,13950,
32610,UNIQUE,0,Gainesville,,University Medical Center,FL,Alachua County,America/New_York,352,NA,US,29.67,-82.33,18,
32611,UNIQUE,0,Gainesville,,University Of Fl,FL,Alachua County,America/New_York,352,NA,US,29.67,-82.33,70,
32612,UNIQUE,0,Gainesville,,"Univ Of Fl Student Dorms, University Of Fl",FL,Alachua County,America/New_York,352,NA,US,29.64,-82.35,136,
32613,PO BOX,1,Gainesville,,,FL,Alachua County,America/New_York,352,NA,US,29.67,-82.33,0,
32614,PO BOX,0,Gainesville,,,FL,Alachua County,America/New_York,352,NA,US,29.67,-82.33,1324,
32615,STANDARD,0,Alachua,Santa Fe,,FL,Alachua County,America/New_York,386,NA,US,29.77,-82.48,12600,
32616,PO BOX,0,Alachua,,,FL,Alachua County,America/New_York,386,NA,US,29.79,-82.5,3021,
32617,STANDARD,0,Anthony,,,FL,Marion County,America/New_York,352,NA,US,29.28,-82.11,3470,
32618,STANDARD,0,Archer,,,FL,Alachua County,America/New_York,352,NA,US,29.53,-82.51,5880,
32619,STANDARD,0,Bell,,,FL,Gilchrist County,America/New_York,352,NA,US,29.75,-82.86,4150,
32621,STANDARD,0,Bronson,,,FL,Levy County,America/New_York,352,NA,US,29.44,-82.63,4440,
32622,STANDARD,0,Brooker,,,FL,Bradford County,America/New_York,"386,352",NA,US,29.88,-82.33,1180,
32625,STANDARD,0,Cedar Key,,,FL,Levy County,America/New_York,352,NA,US,29.14,-83.03,1250,
32626,STANDARD,0,Chiefland,,,FL,Levy County,America/New_York,352,NA,US,29.47,-82.86,5450,
32627,PO BOX,0,Gainesville,,,FL,Alachua County,America/New_York,352,NA,US,29.67,-82.33,501,
32628,STANDARD,0,Cross City,,,FL,Dixie County,America/New_York,352,NA,US,29.63,-83.12,3220,
32631,STANDARD,0,Earleton,,,FL,Alachua County,America/New_York,352,NA,US,29.7,-82.09,430,
32633,PO BOX,0,Evinston,,,FL,Marion County,America/New_York,,NA,US,29.52,-82.27,124,
32634,PO BOX,0,Fairfield,,,FL,Marion County,America/New_York,352,NA,US,29.37,-82.28,497,
32635,PO BOX,0,Gainesville,,,FL,Alachua County,America/New_York,352,NA,US,29.67,-82.33,620,
32639,PO BOX,0,Gulf Hammock,,,FL,Levy County,America/New_York,,NA,US,29.25,-82.7,334,
32640,STANDARD,0,Hawthorne,Cross Creek,,FL,Putnam County,America/New_York,"386,352",NA,US,29.59,-82.08,7900,
32641,STANDARD,0,Gainesville,,,FL,Alachua County,America/New_York,352,NA,US,29.64,-82.23,10800,
32643,STANDARD,0,High Springs,,,FL,Alachua County,America/New_York,386,NA,US,29.82,-82.59,9200,
32644,PO BOX,0,Chiefland,,,FL,Levy County,America/New_York,352,NA,US,29.47,-82.86,2508,
32648,STANDARD,0,Horseshoe Beach,Horseshoe Bch,,FL,Dixie County,America/New_York,"386,352",NA,US,29.44,-83.28,260,
32653,STANDARD,0,Gainesville,,,FL,Alachua County,America/New_York,352,NA,US,29.74,-82.39,12500,
32654,PO BOX,0,Island Grove,,,FL,Alachua County,America/New_York,,NA,US,29.58,-82.12,140,
32655,PO BOX,0,High Springs,,,FL,Alachua County,America/New_York,386,NA,US,29.82,-82.59,3003,
32656,STANDARD,0,Keystone Heights,Keystone Hgts,,FL,Clay County,America/New_York,"904,352",NA,US,29.78,-82.03,11620,
32658,PO BOX,0,La Crosse,,,FL,Alachua County,America/New_York,,NA,US,29.84,-82.4,668,
32662,PO BOX,0,Lochloosa,,,FL,Alachua County,America/New_York,,NA,US,29.51,-82.1,135,
32663,PO BOX,0,Lowell,,,FL,Marion County,America/New_York,352,NA,US,29.32,-82.19,473,
32664,PO BOX,0,Mc Intosh,,Mcintosh,FL,Marion County,America/New_York,352,NA,US,29.44,-82.22,714,
32666,STANDARD,0,Melrose,,,FL,Putnam County,America/New_York,352,NA,US,29.7,-82.05,4640,
32667,STANDARD,0,Micanopy,,,FL,Alachua County,America/New_York,352,NA,US,29.5,-82.28,3160,
32668,STANDARD,0,Morriston,,,FL,Levy County,America/New_York,,NA,US,29.27,-82.49,4170,
32669,STANDARD,0,Newberry,"Jonesville, Tioga",,FL,Alachua County,America/New_York,352,NA,US,29.64,-82.61,12900,
32680,STANDARD,0,Old Town,,,FL,Dixie County,America/New_York,352,NA,US,29.59,-82.98,6240,
32681,PO BOX,0,Orange Lake,,,FL,Marion County,America/New_York,352,NA,US,29.42,-82.21,763,
32683,PO BOX,0,Otter Creek,,,FL,Levy County,America/New_York,,NA,US,29.32,-82.77,169,
32686,STANDARD,0,Reddick,,"Flemington, Irvine",FL,Marion County,America/New_York,352,NA,US,29.36,-82.19,3560,
32692,PO BOX,0,Suwannee,,Suwanee,FL,Dixie County,America/New_York,352,NA,US,29.33,-83.12,277,
32693,STANDARD,0,Trenton,"Fanning Spgs, Fanning Springs",,FL,Gilchrist County,America/New_York,352,NA,US,29.61,-82.81,9420,
32694,STANDARD,0,Waldo,,,FL,Alachua County,America/New_York,352,NA,US,29.79,-82.17,1500,
32696,STANDARD,0,Williston,,,FL,Levy County,America/New_York,352,NA,US,29.37,-82.45,10290,
32697,PO BOX,0,Worthington Springs,Worthngtn Spg,,FL,Union County,America/New_York,386,NA,US,29.93,-82.43,741,
32701,STANDARD,0,Altamonte Springs,Altamonte Spg,,FL,Seminole County,America/New_York,407,NA,US,28.67,-81.37,19730,
32702,STANDARD,0,Altoona,,,FL,Lake County,America/New_York,352,NA,US,29.04,-81.59,2480,
32703,STANDARD,0,Apopka,,,FL,Orange County,America/New_York,"321,407",NA,US,28.68,-81.51,46170,
32704,PO BOX,0,Apopka,,,FL,Orange County,America/New_York,407,NA,US,28.68,-81.51,1895,
32706,PO BOX,0,Cassadaga,,,FL,Volusia County,America/New_York,,NA,US,28.96,-81.23,265,
32707,STANDARD,0,Casselberry,,,FL,Seminole County,America/New_York,407,NA,US,28.66,-81.32,31330,
32708,STANDARD,0,Winter Springs,"Casselberry, Winter Spgs",,FL,Seminole County,America/New_York,407,NA,US,28.68,-81.27,41290,
32709,STANDARD,0,Christmas,,,FL,Orange County,America/New_York,"321,407",NA,US,28.53,-81.02,2110,
32710,PO BOX,0,Clarcona,,,FL,Orange County,America/New_York,407,NA,US,28.61,-81.49,427,
32712,STANDARD,0,Apopka,,,FL,Orange County,America/New_York,"321,407",NA,US,28.75,-81.49,43390,
32713,STANDARD,0,Debary,,,FL,Volusia County,America/New_York,386,NA,US,28.88,-81.32,17890,
32714,STANDARD,0,Altamonte Springs,"Altamonte Spg, Forest City",,FL,Seminole County,America/New_York,407,NA,US,28.66,-81.39,33250,
32715,PO BOX,0,Altamonte Springs,Altamonte Spg,,FL,Seminole County,America/New_York,407,NA,US,28.66,-81.39,571,
32716,PO BOX,0,Altamonte Springs,Altamonte Spg,,FL,Seminole County,America/New_York,407,NA,US,28.66,-81.39,1136,
32718,PO BOX,0,Casselberry,,,FL,Seminole County,America/New_York,407,NA,US,28.66,-81.32,581,
32719,PO BOX,0,Winter Springs,"Casselberry, Winter Spgs",,FL,Seminole County,America/New_York,407,NA,US,28.68,-81.27,355,
32720,STANDARD,0,Deland,,Glenwood,FL,Volusia County,America/New_York,386,NA,US,29.05,-81.31,25080,
32721,PO BOX,0,Deland,,,FL,Volusia County,America/New_York,386,NA,US,29.05,-81.31,2177,
32722,PO BOX,0,Glenwood,Deland,,FL,Volusia County,America/New_York,,NA,US,29.08,-81.35,332,
32723,UNIQUE,0,Deland,,Stetson University,FL,Volusia County,America/New_York,386,NA,US,29.03,-81.3,110,
32724,STANDARD,0,Deland,,,FL,Volusia County,America/New_York,386,NA,US,29.06,-81.23,29340,
32725,STANDARD,0,Deltona,Enterprise,,FL,Volusia County,America/New_York,386,NA,US,28.89,-81.25,41110,
32726,STANDARD,0,Eustis,,,FL,Lake County,America/New_York,352,NA,US,28.85,-81.68,16760,
32727,PO BOX,0,Eustis,,,FL,Lake County,America/New_York,352,NA,US,28.85,-81.68,1377,
32728,PO BOX,0,Deltona,,,FL,Volusia County,America/New_York,386,NA,US,28.9,-81.2,1045,
32730,STANDARD,0,Casselberry,Fern Park,,FL,Seminole County,America/New_York,407,NA,US,28.65,-81.34,4850,
32732,STANDARD,0,Geneva,,,FL,Seminole County,America/New_York,"321,407",NA,US,28.73,-81.11,4660,
32733,PO BOX,0,Goldenrod,,,FL,Orange County,America/New_York,407,NA,US,28.61,-81.29,601,
32735,STANDARD,0,Grand Island,,,FL,Lake County,America/New_York,352,NA,US,28.88,-81.73,4160,
32736,STANDARD,0,Eustis,,,FL,Lake County,America/New_York,352,NA,US,28.92,-81.49,8920,
32738,STANDARD,0,Deltona,,,FL,Volusia County,America/New_York,386,NA,US,28.9,-81.2,39660,
32739,PO BOX,0,Deltona,,,FL,Volusia County,America/New_York,386,NA,US,28.9,-81.2,838,
32744,STANDARD,0,Lake Helen,,,FL,Volusia County,America/New_York,386,NA,US,28.98,-81.23,3130,
32745,PO BOX,0,Mid Florida,,,FL,Seminole County,America/New_York,407,NA,US,28.75,-81.67,0,
32746,STANDARD,0,Lake Mary,Heathrow,,FL,Seminole County,America/New_York,407,NA,US,28.75,-81.33,39820,
32747,PO BOX,0,Lake Monroe,,,FL,Seminole County,America/New_York,407,NA,US,28.84,-81.27,948,
32750,STANDARD,0,Longwood,,,FL,Seminole County,America/New_York,407,NA,US,28.7,-81.34,21300,
32751,STANDARD,0,Maitland,Eatonville,,FL,Orange County,America/New_York,407,NA,US,28.62,-81.36,19380,
32752,PO BOX,0,Longwood,,,FL,Seminole County,America/New_York,407,NA,US,28.7,-81.34,622,
32753,PO BOX,0,Debary,,,FL,Volusia County,America/New_York,386,NA,US,28.88,-81.31,407,
32754,STANDARD,0,Mims,,,FL,Brevard County,America/New_York,,NA,US,28.68,-80.84,9390,
32756,PO BOX,0,Mount Dora,,,FL,Lake County,America/New_York,352,NA,US,28.8,-81.64,1156,
32757,STANDARD,0,Mount Dora,,,FL,Lake County,America/New_York,352,NA,US,28.8,-81.64,22010,
32759,STANDARD,0,Oak Hill,,,FL,Volusia County,America/New_York,386,NA,US,28.86,-80.85,2210,
32762,PO BOX,0,Oviedo,,,FL,Seminole County,America/New_York,407,NA,US,28.65,-81.18,1367,
32763,STANDARD,0,Orange City,,,FL,Volusia County,America/New_York,386,NA,US,28.93,-81.29,18060,
32764,STANDARD,0,Osteen,,,FL,Volusia County,America/New_York,,NA,US,28.84,-81.16,2800,
32765,STANDARD,0,Oviedo,,,FL,Seminole County,America/New_York,"321,407",NA,US,28.65,-81.18,52290,
32766,STANDARD,0,Oviedo,Chuluota,,FL,Seminole County,America/New_York,"321,407",NA,US,28.64,-81.07,15630,
32767,STANDARD,0,Paisley,,,FL,Lake County,America/New_York,352,NA,US,28.98,-81.54,2030,
32768,PO BOX,0,Plymouth,,,FL,Orange County,America/New_York,407,NA,US,28.69,-81.54,1206,
32771,STANDARD,0,Sanford,,,FL,Seminole County,America/New_York,"321,407",NA,US,28.81,-81.33,48130,
32772,PO BOX,0,Sanford,,,FL,Seminole County,America/New_York,407,NA,US,28.78,-81.27,1435,
32773,STANDARD,0,Sanford,,,FL,Seminole County,America/New_York,"321,407",NA,US,28.78,-81.27,27830,
32774,PO BOX,0,Orange City,,,FL,Volusia County,America/New_York,386,NA,US,28.93,-81.29,750,
32775,PO BOX,0,Scottsmoor,,,FL,Brevard County,America/New_York,,NA,US,28.76,-80.87,721,
32776,STANDARD,0,Sorrento,"Mount Plymouth, Mt Plymouth",,FL,Lake County,America/New_York,352,NA,US,28.81,-81.49,10570,
32777,PO BOX,0,Tangerine,,,FL,Orange County,America/New_York,407,NA,US,28.76,-81.62,650,
32778,STANDARD,0,Tavares,Deer Island,,FL,Lake County,America/New_York,352,NA,US,28.8,-81.73,16610,
32779,STANDARD,0,Longwood,"Wekiva Spg, Wekiva Springs",,FL,Seminole County,America/New_York,407,NA,US,28.73,-81.41,27220,
32780,STANDARD,0,Titusville,,,FL,Brevard County,America/New_York,321,NA,US,28.58,-80.82,30790,
32781,PO BOX,0,Titusville,,,FL,Brevard County,America/New_York,321,NA,US,28.58,-80.82,897,
32782,STANDARD,1,Titusville,,,FL,Brevard County,America/New_York,321,NA,US,28.61,-80.8,279,
32783,PO BOX,0,Titusville,,,FL,Brevard County,America/New_York,321,NA,US,28.58,-80.82,400,
32784,STANDARD,0,Umatilla,Dona Vista,,FL,Lake County,America/New_York,352,NA,US,28.92,-81.66,9390,
32789,STANDARD,0,Winter Park,,,FL,Orange County,America/New_York,"321,407",NA,US,28.59,-81.34,21370,
32790,PO BOX,0,Winter Park,,,FL,Orange County,America/New_York,407,NA,US,28.59,-81.34,1204,
32791,PO BOX,0,Longwood,"Wekiva Spg, Wekiva Springs",,FL,Seminole County,America/New_York,407,NA,US,28.7,-81.34,396,
32792,STANDARD,0,Winter Park,Aloma,,FL,Orange County,America/New_York,"321,407",NA,US,28.61,-81.3,39960,
32793,PO BOX,0,Winter Park,,,FL,Orange County,America/New_York,407,NA,US,28.59,-81.34,740,
32794,PO BOX,0,Maitland,,,FL,Orange County,America/New_York,407,NA,US,28.62,-81.36,654,
32795,PO BOX,0,Lake Mary,,,FL,Seminole County,America/New_York,407,NA,US,28.75,-81.33,1433,
32796,STANDARD,0,Titusville,,,FL,Brevard County,America/New_York,321,NA,US,28.63,-80.85,16530,
32798,STANDARD,0,Zellwood,,,FL,Orange County,America/New_York,407,NA,US,28.73,-81.6,3160,
32799,PO BOX,0,Mid Florida,,,FL,Seminole County,America/New_York,407,NA,US,28.76,-81.35,0,
32801,STANDARD,0,Orlando,,,FL,Orange County,America/New_York,"321,407",NA,US,28.54,-81.37,10470,
32802,PO BOX,0,Orlando,,,FL,Orange County,America/New_York,407,NA,US,28.5,-81.37,1178,
32803,STANDARD,0,Orlando,,,FL,Orange County,America/New_York,"321,407",NA,US,28.56,-81.35,17120,
32804,STANDARD,0,Orlando,,,FL,Orange County,America/New_York,"321,407",NA,US,28.58,-81.4,15740,
32805,STANDARD,0,Orlando,,,FL,Orange County,America/New_York,"407,321",NA,US,28.53,-81.4,18110,
32806,STANDARD,0,Orlando,,,FL,Orange County,America/New_York,"321,407",NA,US,28.5,-81.37,23240,
32807,STANDARD,0,Orlando,Azalea Park,,FL,Orange County,America/New_York,"321,407",NA,US,28.55,-81.3,29540,
32808,STANDARD,0,Orlando,Pine Hills,,FL,Orange County,America/New_York,"321,407",NA,US,28.58,-81.44,45280,
32809,STANDARD,0,Orlando,"Belle Isle, Edgewood, Pine Castle",,FL,Orange County,America/New_York,"321,407",NA,US,28.46,-81.39,28900,
32810,STANDARD,0,Orlando,Lockhart,,FL,Orange County,America/New_York,"321,407",NA,US,28.63,-81.43,30270,
32811,STANDARD,0,Orlando,Orlo Vista,,FL,Orange County,America/New_York,407,NA,US,28.52,-81.45,35450,
32812,STANDARD,0,Orlando,Belle Isle,,FL,Orange County,America/New_York,"321,407",NA,US,28.48,-81.32,31340,
32814,STANDARD,0,Orlando,,,FL,Orange County,America/New_York,"321,407",NA,US,28.57,-81.32,7420,
32815,PO BOX,0,Orlando,"Kennedy Sp Ct, Kennedy Space Center",,FL,Brevard County,America/New_York,,NA,US,28.5,-81.37,0,
32816,UNIQUE,0,Orlando,Alafaya,"Ucf, University Of Central Fl",FL,Orange County,America/New_York,407,NA,US,28.5,-81.37,194,
32817,STANDARD,0,Orlando,Union Park,,FL,Orange County,America/New_York,407,NA,US,28.59,-81.24,26940,
32818,STANDARD,0,Orlando,"Hiawassee, Pine Hills",,FL,Orange County,America/New_York,407,NA,US,28.59,-81.49,44690,
32819,STANDARD,0,Orlando,Sand Lake,,FL,Orange County,America/New_York,"321,407",NA,US,28.45,-81.47,26190,
32820,STANDARD,0,Orlando,Alafaya,,FL,Orange County,America/New_York,"321,407",NA,US,28.58,-81.12,8610,
32821,STANDARD,0,Orlando,Bay Lake,,FL,Orange County,America/New_York,"321,407",NA,US,28.38,-81.48,17470,
32822,STANDARD,0,Orlando,,,FL,Orange County,America/New_York,"321,407",NA,US,28.49,-81.29,53590,
32824,STANDARD,0,Orlando,,,FL,Orange County,America/New_York,"321,407",NA,US,28.38,-81.33,43220,
32825,STANDARD,0,Orlando,Alafaya,,FL,Orange County,America/New_York,"321,407",NA,US,28.52,-81.23,53510,
32826,STANDARD,0,Orlando,Alafaya,,FL,Orange County,America/New_York,407,NA,US,28.59,-81.18,17200,
32827,STANDARD,0,Orlando,,,FL,Orange County,America/New_York,"321,407",NA,US,28.42,-81.3,11510,
32828,STANDARD,0,Orlando,Alafaya,,FL,Orange County,America/New_York,407,NA,US,28.53,-81.17,59000,
32829,STANDARD,0,Orlando,,,FL,Orange County,America/New_York,407,NA,US,28.48,-81.25,19310,
32830,PO BOX,0,Orlando,"Lake Buena Vista, Lk Buena Vis",,FL,Orange County,America/New_York,407,NA,US,28.37,-81.55,1343,
32831,STANDARD,0,Orlando,Alafaya,,FL,Orange County,America/New_York,407,NA,US,28.47,-81.15,163,
32832,STANDARD,0,Orlando,,,FL,Orange County,America/New_York,407,NA,US,28.4,-81.19,21400,
32833,STANDARD,0,Orlando,Alafaya,,FL,Orange County,America/New_York,"321,407",NA,US,28.5,-81.08,8800,
32834,STANDARD,0,Orlando,Alafaya,,FL,Orange County,America/New_York,407,NA,US,28.5,-81.37,0,
32835,STANDARD,0,Orlando,,,FL,Orange County,America/New_York,407,NA,US,28.52,-81.48,38680,
32836,STANDARD,0,Orlando,Golden Oak,,FL,Orange County,America/New_York,"321,407",NA,US,28.41,-81.52,17920,
32837,STANDARD,0,Orlando,,,FL,Orange County,America/New_York,"321,407",NA,US,28.38,-81.43,50430,
32839,STANDARD,0,Orlando,"Edgewood, Pine Castle",,FL,Orange County,America/New_York,"321,407",NA,US,28.49,-81.41,48700,
32853,PO BOX,0,Orlando,,,FL,Orange County,America/New_York,407,NA,US,28.5,-81.37,451,
32854,PO BOX,0,Orlando,,,FL,Orange County,America/New_York,407,NA,US,28.5,-81.37,594,
32855,PO BOX,0,Orlando,,,FL,Orange County,America/New_York,407,NA,US,28.5,-81.37,1420,
32856,PO BOX,0,Orlando,,,FL,Orange County,America/New_York,407,NA,US,28.5,-81.37,967,
32857,PO BOX,0,Orlando,,,FL,Orange County,America/New_York,407,NA,US,28.5,-81.37,634,
32858,PO BOX,0,Orlando,,,FL,Orange County,America/New_York,407,NA,US,28.5,-81.37,895,
32859,PO BOX,0,Orlando,,,FL,Orange County,America/New_York,407,NA,US,28.5,-81.37,1452,
32860,PO BOX,0,Orlando,,,FL,Orange County,America/New_York,407,NA,US,28.5,-81.37,911,
32861,PO BOX,0,Orlando,,,FL,Orange County,America/New_York,407,NA,US,28.5,-81.37,1439,
32862,PO BOX,0,Orlando,,,FL,Orange County,America/New_York,407,NA,US,28.5,-81.37,800,
32867,PO BOX,0,Orlando,,,FL,Orange County,America/New_York,407,NA,US,28.5,-81.37,908,
32868,PO BOX,0,Orlando,,,FL,Orange County,America/New_York,407,NA,US,28.5,-81.37,2359,
32869,PO BOX,0,Orlando,,,FL,Orange County,America/New_York,407,NA,US,28.5,-81.37,1309,
32872,PO BOX,0,Orlando,,,FL,Orange County,America/New_York,407,NA,US,28.5,-81.37,1025,
32877,PO BOX,0,Orlando,,,FL,Orange County,America/New_York,407,NA,US,28.5,-81.37,1273,
32878,PO BOX,0,Orlando,Alafaya,,FL,Orange County,America/New_York,407,NA,US,28.5,-81.37,591,
32885,UNIQUE,0,Orlando,,Amsouth,FL,Orange County,America/New_York,407,NA,US,28.54,-81.38,0,
32886,UNIQUE,0,Orlando,,"Wachovia, Wells Fargo",FL,Orange County,America/New_York,407,NA,US,28.5,-81.37,0,
32887,UNIQUE,0,Orlando,,"Hbj, Houghton Mifflin Harcourt",FL,Orange County,America/New_York,407,NA,US,28.5,-81.37,0,
32890,UNIQUE,1,Orlando,,J C Penney Co,FL,Orange County,America/New_York,407,NA,US,28.46,-81.38,0,
32891,UNIQUE,0,Orlando,,Suntrust Service Corporation,FL,Orange County,America/New_York,407,NA,US,28.5,-81.37,0,
32893,UNIQUE,1,Orlando,,Defense Finance Accounting,FL,Orange County,America/New_York,407,NA,US,28.42,-81.3,0,
32896,UNIQUE,0,Orlando,,Ge Capital,FL,Orange County,America/New_York,407,NA,US,28.32,-81.23,0,
32897,UNIQUE,0,Orlando,,Suntrust National Bank,FL,Orange County,America/New_York,407,NA,US,28.5,-81.37,0,
32898,UNIQUE,1,Orlando,,Mastercard,FL,Orange County,America/New_York,407,NA,US,28.53,-81.37,0,
32899,UNIQUE,0,Orlando,"Kennedy Sp Ct, Kennedy Space Center",N A S A,FL,Brevard County,America/New_York,407,NA,US,28.5,-81.37,0,
32901,STANDARD,0,Melbourne,,,FL,Brevard County,America/New_York,321,NA,US,28.08,-80.6,16880,
32902,PO BOX,0,Melbourne,,,FL,Brevard County,America/New_York,321,NA,US,28.08,-80.6,759,
32903,STANDARD,0,Indialantic,Melbourne,,FL,Brevard County,America/New_York,321,NA,US,28.08,-80.56,12490,
32904,STANDARD,0,Melbourne,"Melbourne Village, Melbourne Vlg, W Melbourne, West Melbourne",,FL,Brevard County,America/New_York,321,NA,US,28.07,-80.68,27150,
32905,STANDARD,0,Palm Bay,Melbourne,,FL,Brevard County,America/New_York,321,NA,US,28.03,-80.6,19690,
32906,PO BOX,0,Palm Bay,Melbourne,,FL,Brevard County,America/New_York,321,NA,US,27.98,-80.66,781,
32907,STANDARD,0,Palm Bay,Melbourne,Interchange Square,FL,Brevard County,America/New_York,321,NA,US,28.02,-80.68,37270,
32908,STANDARD,0,Palm Bay,Melbourne,,FL,Brevard County,America/New_York,321,NA,US,27.96,-80.7,11120,
32909,STANDARD,0,Palm Bay,"Grant Valkaria, Grant Vlkria, Melbourne",Grant,FL,Brevard County,America/New_York,321,NA,US,27.98,-80.66,28860,
32910,PO BOX,0,Palm Bay,Melbourne,,FL,Brevard County,America/New_York,321,NA,US,27.98,-80.66,628,
32911,PO BOX,0,Palm Bay,Melbourne,,FL,Brevard County,America/New_York,321,NA,US,27.98,-80.66,657,
32912,PO BOX,0,Melbourne,"W Melbourne, West Melbourne",,FL,Brevard County,America/New_York,321,NA,US,28.08,-80.6,571,
32919,UNIQUE,0,Melbourne,,"Harris Corp, Harris Corporation",FL,Brevard County,America/New_York,321,NA,US,28.08,-80.6,0,
32920,STANDARD,0,Cape Canaveral,"Cpe Canaveral, Port Canaveral, Pt Canaveral",,FL,Brevard County,America/New_York,321,NA,US,28.4,-80.6,8000,
32922,STANDARD,0,Cocoa,,,FL,Brevard County,America/New_York,321,NA,US,28.37,-80.75,12170,
32923,PO BOX,0,Cocoa,,,FL,Brevard County,America/New_York,321,NA,US,28.37,-80.75,1059,
32924,PO BOX,0,Cocoa,,,FL,Brevard County,America/New_York,321,NA,US,28.37,-80.75,287,
32925,STANDARD,0,Patrick Afb,"Canaveral Air Station, Canaveral As, Patrick Air Force Base",,FL,Brevard County,America/New_York,,NA,US,28.23,-80.6,1350,
32926,STANDARD,0,Cocoa,,,FL,Brevard County,America/New_York,321,NA,US,28.39,-80.82,18630,
32927,STANDARD,0,Cocoa,"Port Saint John, Port St John",,FL,Brevard County,America/New_York,321,NA,US,28.46,-80.81,23330,
32931,STANDARD,0,Cocoa Beach,,,FL,Brevard County,America/New_York,321,NA,US,28.33,-80.62,11910,
32932,PO BOX,0,Cocoa Beach,,,FL,Brevard County,America/New_York,321,NA,US,28.33,-80.62,558,
32934,STANDARD,0,Melbourne,Eau Gallie,Suntree,FL,Brevard County,America/New_York,321,NA,US,28.14,-80.71,15980,
32935,STANDARD,0,Melbourne,,Suntree,FL,Brevard County,America/New_York,321,NA,US,28.15,-80.65,34520,
32936,PO BOX,0,Melbourne,Eau Gallie,,FL,Brevard County,America/New_York,321,NA,US,28.08,-80.6,665,
32937,STANDARD,0,Satellite Beach,"Ind Hbr Bch, Indian Harbour Beach, Indn Hbr Bch, Melbourne, Satellite Bch",,FL,Brevard County,America/New_York,321,NA,US,28.17,-80.6,24420,
32940,STANDARD,0,Melbourne,"Palm Shores, Viera",Suntree,FL,Brevard County,America/New_York,321,NA,US,28.21,-80.8,36620,
32941,PO BOX,0,Melbourne,,Suntree,FL,Brevard County,America/New_York,321,NA,US,28.08,-80.6,645,
32948,STANDARD,0,Fellsmere,,,FL,Indian River County,America/New_York,772,NA,US,27.76,-80.59,6950,
32949,STANDARD,0,Grant,"Grant Valkaria, Grant Vlkria",,FL,Brevard County,America/New_York,,NA,US,27.92,-80.52,1960,
32950,STANDARD,0,Malabar,"Grant Valkaria, Grant Vlkria","Grant, Valkaria",FL,Brevard County,America/New_York,,NA,US,27.98,-80.58,3960,
32951,STANDARD,0,Melbourne Beach,"Melbourne, Melbourne Bch",,FL,Brevard County,America/New_York,,NA,US,28.06,-80.55,9680,
32952,STANDARD,0,Merritt Island,Merritt Is,,FL,Brevard County,America/New_York,,NA,US,28.32,-80.68,18760,
32953,STANDARD,0,Merritt Island,Merritt Is,,FL,Brevard County,America/New_York,321,NA,US,28.44,-80.7,20170,
32954,PO BOX,0,Merritt Island,Merritt Is,,FL,Brevard County,America/New_York,,NA,US,28.32,-80.68,920,
32955,STANDARD,0,Rockledge,Viera,,FL,Brevard County,America/New_York,321,NA,US,28.31,-80.72,35310,
32956,PO BOX,0,Rockledge,,,FL,Brevard County,America/New_York,321,NA,US,28.31,-80.72,589,
32957,PO BOX,0,Roseland,,,FL,Indian River County,America/New_York,772,NA,US,27.83,-80.48,792,
32958,STANDARD,0,Sebastian,,,FL,Indian River County,America/New_York,772,NA,US,27.78,-80.48,22700,
32959,PO BOX,0,Sharpes,,,FL,Brevard County,America/New_York,,NA,US,28.43,-80.76,554,
32960,STANDARD,0,Vero Beach,,,FL,Indian River County,America/New_York,772,NA,US,27.64,-80.39,16510,
32961,PO BOX,0,Vero Beach,,,FL,Indian River County,America/New_York,772,NA,US,27.64,-80.39,2203,
32962,STANDARD,0,Vero Beach,,,FL,Indian River County,America/New_York,772,NA,US,27.59,-80.38,20880,
32963,STANDARD,0,Vero Beach,"Indian River Shores, Indn Riv Shrs, Orchid",,FL,Indian River County,America/New_York,772,NA,US,27.72,-80.39,13220,
32964,PO BOX,0,Vero Beach,,,FL,Indian River County,America/New_York,772,NA,US,27.64,-80.39,610,
32965,PO BOX,0,Vero Beach,,,FL,Indian River County,America/New_York,772,NA,US,27.64,-80.39,765,
32966,STANDARD,0,Vero Beach,Citrus Ridge,,FL,Indian River County,America/New_York,772,NA,US,27.68,-80.71,13760,
32967,STANDARD,0,Vero Beach,,,FL,Indian River County,America/New_York,772,NA,US,27.72,-80.45,20020,
32968,STANDARD,0,Vero Beach,Citrus Ridge,,FL,Indian River County,America/New_York,772,NA,US,27.58,-80.47,12580,
32969,PO BOX,0,Vero Beach,Citrus Ridge,,FL,Indian River County,America/New_York,772,NA,US,27.64,-80.39,460,
32970,PO BOX,0,Wabasso,,,FL,Indian River County,America/New_York,772,NA,US,27.75,-80.45,950,
32971,PO BOX,0,Winter Beach,,,FL,Indian River County,America/New_York,772,NA,US,27.71,-80.42,212,
32976,STANDARD,0,Sebastian,"Barefoot Bay, Micco",,FL,Brevard County,America/New_York,772,NA,US,27.85,-80.55,6050,
32978,PO BOX,0,Sebastian,,,FL,Indian River County,America/New_York,772,NA,US,27.78,-80.48,717,
33001,PO BOX,0,Long Key,,"Conch Key, Fiesta Key, Layton",FL,Monroe County,America/New_York,,NA,US,24.82,-80.81,400,
33002,PO BOX,0,Hialeah,,,FL,Miami-Dade County,America/New_York,786,NA,US,25.86,-80.29,454,
33004,STANDARD,0,Dania,Dania Beach,,FL,Broward County,America/New_York,754,NA,US,26.05,-80.14,12800,
33008,PO BOX,0,Hallandale,,"Golden Isles, Golden Isles Postal Store",FL,Broward County,America/New_York,754,NA,US,25.98,-80.14,962,
33009,STANDARD,0,Hallandale,"Hallandale Beach, Halndle Bch","Golden Isles, Pembroke Park",FL,Broward County,America/New_York,754,NA,US,25.98,-80.14,31890,
33010,STANDARD,0,Hialeah,,"Hialeah Gardens, Miami",FL,Miami-Dade County,America/New_York,"305,786",NA,US,25.83,-80.28,37940,
33011,PO BOX,0,Hialeah,,Miami,FL,Miami-Dade County,America/New_York,786,NA,US,25.86,-80.29,698,
33012,STANDARD,0,Hialeah,,Miami,FL,Miami-Dade County,America/New_York,"305,786",NA,US,25.86,-80.29,62200,
33013,STANDARD,0,Hialeah,,Miami,FL,Miami-Dade County,America/New_York,786,NA,US,25.86,-80.27,29190,
33014,STANDARD,0,Hialeah,"Miami Gardens, Miami Lakes","Hialeah Lakes, Miami, Opa Locka",FL,Miami-Dade County,America/New_York,"305,786",NA,US,25.9,-80.3,38080,
33015,STANDARD,0,Hialeah,Miami Gardens,"Hialeah Lakes, Miami, Miami Lakes, Palm Springs North",FL,Miami-Dade County,America/New_York,786,NA,US,25.94,-80.32,59030,
33016,STANDARD,0,Hialeah,"Hialeah Gardens, Hialeah Gdns, Miami Lakes",Miami,FL,Miami-Dade County,America/New_York,"305,786",NA,US,25.9,-80.33,42980,
33017,PO BOX,0,Hialeah,Miami Gardens,Miami,FL,Miami-Dade County,America/New_York,786,NA,US,25.86,-80.29,1186,
33018,STANDARD,0,Hialeah,"Hialeah Gardens, Hialeah Gdns, Miami Lakes",Miami,FL,Miami-Dade County,America/New_York,786,NA,US,25.92,-80.38,45900,
33019,STANDARD,0,Hollywood,,Pembroke Pines,FL,Broward County,America/New_York,"754,954",NA,US,26.03,-80.12,12650,
33020,STANDARD,0,Hollywood,,Pembroke Pines,FL,Broward County,America/New_York,"754,954",NA,US,26.02,-80.16,36120,
33021,STANDARD,0,Hollywood,Pembroke Park,,FL,Broward County,America/New_York,"954,754",NA,US,26.02,-80.19,41380,
33022,PO BOX,0,Hollywood,,Pembroke Pines,FL,Broward County,America/New_York,754,NA,US,26.02,-80.16,1046,
33023,STANDARD,0,Hollywood,"Miramar, Pembroke Park, Pembroke Pines, Pembroke Pnes, W Hollywood, West Hollywood, West Park",,FL,Broward County,America/New_York,954,NA,US,25.99,-80.22,62570,
33024,STANDARD,0,Hollywood,"Pembroke Pines, Pembroke Pnes","Cooper City, Davie, University",FL,Broward County,America/New_York,954,NA,US,26.03,-80.24,67470,
33025,STANDARD,0,Hollywood,"Miramar, Pembroke Pines, Pembroke Pnes",,FL,Broward County,America/New_York,954,NA,US,25.99,-80.28,61170,
33026,STANDARD,0,Hollywood,"Pembroke Pines, Pembroke Pnes","Cooper City, Pembroke Lakes",FL,Broward County,America/New_York,954,NA,US,26.03,-80.3,28000,
33027,STANDARD,0,Hollywood,"Miramar, Pembroke Pines, Pembroke Pnes",,FL,Broward County,America/New_York,954,NA,US,25.99,-80.34,56340,
33028,STANDARD,0,Pembroke Pines,"Hollywood, Pembroke Pnes",Miramar,FL,Broward County,America/New_York,754,NA,US,26.02,-80.34,26450,
33029,STANDARD,0,Hollywood,"Miramar, Pembroke Pines, Pembroke Pnes",Chapel Lakes,FL,Broward County,America/New_York,754,NA,US,25.97,-80.42,44940,
33030,STANDARD,0,Homestead,,"Everglades National Park, Leisure City, Modello",FL,Miami-Dade County,America/New_York,"305,786",NA,US,25.49,-80.51,29450,
33031,STANDARD,0,Homestead,Redland,,FL,Miami-Dade County,America/New_York,786,NA,US,25.52,-80.5,5700,
33032,STANDARD,0,Homestead,"Naranja, Princeton, Redland",,FL,Miami-Dade County,America/New_York,"305,786",NA,US,25.53,-80.39,40350,
33033,STANDARD,0,Homestead,,"Leisure City, Naranja",FL,Miami-Dade County,America/New_York,"786,305",NA,US,25.48,-80.41,52080,
33034,STANDARD,0,Homestead,"Flamingo Ldge, Flamingo Lodge, Florida City",,FL,Miami-Dade County,America/New_York,"786,305",NA,US,25.27,-80.63,17910,
33035,STANDARD,0,Homestead,,Florida City,FL,Miami-Dade County,America/New_York,"305,786",NA,US,25.46,-80.45,13710,
33036,STANDARD,0,Islamorada,,"Lower Matecumbe Key, Matecumbe Key, Plantation Key, Upper Matecumbe Key, Venetian Shores, Windley Key",FL,Monroe County,America/New_York,305,NA,US,24.92,-80.63,3280,
33037,STANDARD,0,Key Largo,,"Cross Key, Ocean Reef Club, Upper Key Largo",FL,Monroe County,America/New_York,305,NA,US,25.08,-80.44,12290,
33039,UNIQUE,0,Homestead,"Homestead Afb, Homestead Air Force Base",,FL,Miami-Dade County,America/New_York,305,NA,US,25.5,-80.4,48,
33040,STANDARD,0,Key West,"E Rockland Key, E Rockland Ky, East Rockland Key, Key West Nas, Key West Naval Air Station, Stock Island","Fort Jefferson National Mon, Munson Island, Naval Air Station Unit 2, Raccoon Key",FL,Monroe County,America/New_York,305,NA,US,24.55,-81.78,29590,
33041,PO BOX,0,Key West,,"Ky Wst, Stock Island",FL,Monroe County,America/New_York,305,NA,US,24.55,-81.78,1654,
33042,STANDARD,0,Summerland Key,"Big Torch Key, Cudjoe Key, Little Torch Key, Lower Sugarloaf Key, Ltl Torch Key, Lwr Sugarloaf, Mid Torch Key, Middle Torch Key, Ramrod Key, Sugarlf Shrs, Sugarloaf, Sugarloaf Key, Sugarloaf Shrs, Summrlnd Key, Upper Sugarloaf Key, Upr Sugarloaf",,FL,Monroe County,America/New_York,305,NA,US,24.66,-81.45,5690,
33043,STANDARD,0,Big Pine Key,"Summerland Key, Summrlnd Key",No Name Key,FL,Monroe County,America/New_York,305,NA,US,24.67,-81.35,4170,
33045,PO BOX,0,Key West,,,FL,Monroe County,America/New_York,305,NA,US,24.55,-81.78,1137,
33050,STANDARD,0,Marathon,"Conch Key, Duck Key, Grassy Key, Marathon Shores, Marathon Shrs",,FL,Monroe County,America/New_York,305,NA,US,24.71,-81.08,9000,
33051,PO BOX,0,Key Colony Beach,"Key Col Bch, Marathon",,FL,Monroe County,America/New_York,,NA,US,24.72,-81.02,836,
33052,PO BOX,0,Marathon Shores,"Marathon, Marathon Shrs",,FL,Monroe County,America/New_York,,NA,US,24.72,-81.04,445,
33054,STANDARD,0,Opa Locka,Miami Gardens,Miami,FL,Miami-Dade County,America/New_York,"786,305",NA,US,25.91,-80.27,25950,
33055,STANDARD,0,Opa Locka,"Carol City, Miami Gardens",Miami,FL,Miami-Dade County,America/New_York,305,NA,US,25.95,-80.28,41120,
33056,STANDARD,0,Miami Gardens,"Carol City, Opa Locka",,FL,Miami-Dade County,America/New_York,"786,305",NA,US,25.93,-80.26,33090,
33060,STANDARD,0,Pompano Beach,,,FL,Broward County,America/New_York,"561,754,954",NA,US,26.23,-80.13,30500,
33061,PO BOX,0,Pompano Beach,,,FL,Broward County,America/New_York,754,NA,US,26.23,-80.13,846,
33062,STANDARD,0,Pompano Beach,"Hillsboro Bch, Hillsboro Beach","Laud By The Sea, Lauderdale By The Sea",FL,Broward County,America/New_York,"754,954,561",NA,US,26.24,-80.09,19790,
33063,STANDARD,0,Pompano Beach,"Coconut Creek, Margate",,FL,Broward County,America/New_York,"754,954",NA,US,26.25,-80.21,47110,
33064,STANDARD,0,Pompano Beach,"Lighthouse Point, Lighthouse Pt","Deerfield Beach, Lghthse Point",FL,Broward County,America/New_York,"754,561,954",NA,US,26.28,-80.12,48540,
33065,STANDARD,0,Pompano Beach,"Coral Springs, Margate",,FL,Broward County,America/New_York,"754,954",NA,US,26.27,-80.26,50540,
33066,STANDARD,0,Pompano Beach,Coconut Creek,,FL,Broward County,America/New_York,954,NA,US,26.25,-80.17,13940,
33067,STANDARD,0,Pompano Beach,"Coral Springs, Parkland",,FL,Broward County,America/New_York,754,NA,US,26.31,-80.23,26160,
33068,STANDARD,0,Pompano Beach,"Margate, N Lauderdale, North Lauderdale",,FL,Broward County,America/New_York,954,NA,US,26.22,-80.22,48880,
33069,STANDARD,0,Pompano Beach,,Deerfield Beach,FL,Broward County,America/New_York,"754,954",NA,US,26.24,-80.16,21090,
33070,STANDARD,0,Tavernier,,"Islamorada, Plantation Key",FL,Monroe County,America/New_York,305,NA,US,25.01,-80.51,5200,
33071,STANDARD,0,Pompano Beach,Coral Springs,,FL,Broward County,America/New_York,"754,954",NA,US,26.24,-80.27,37570,
33072,PO BOX,0,Pompano Beach,,,FL,Broward County,America/New_York,754,NA,US,26.23,-80.13,0,
33073,STANDARD,0,Pompano Beach,"Coconut Creek, Coral Springs, Margate, Parkland",Deerfield Beach,FL,Broward County,America/New_York,754,NA,US,26.3,-80.18,28970,
33074,PO BOX,0,Pompano Beach,"Lighthouse Point, Lighthouse Pt",Lghthse Point,FL,Broward County,America/New_York,754,NA,US,26.23,-80.13,773,
33075,PO BOX,0,Coral Springs,Pompano Beach,,FL,Broward County,America/New_York,754,NA,US,26.23,-80.13,651,
33076,STANDARD,0,Pompano Beach,"Coral Springs, Parkland",Margate,FL,Broward County,America/New_York,754,NA,US,26.32,-80.28,34580,
33077,PO BOX,0,Pompano Beach,Coral Springs,,FL,Broward County,America/New_York,754,NA,US,26.23,-80.13,786,
33081,PO BOX,0,Hollywood,,"Hillcrest, Pembroke Pines",FL,Broward County,America/New_York,754,NA,US,26.02,-80.16,571,
33082,PO BOX,0,Pembroke Pines,"Pembroke Pnes, South Florida",Hollywood,FL,Broward County,America/New_York,754,NA,US,26,-80.34,1020,
33083,PO BOX,0,Hollywood,,"Miramar, Pembroke Pines",FL,Broward County,America/New_York,754,NA,US,26.02,-80.16,664,
33084,PO BOX,0,Hollywood,"Pembroke Pines, Pembroke Pnes",,FL,Broward County,America/New_York,754,NA,US,26,-80.34,569,
33090,PO BOX,0,Homestead,,,FL,Miami-Dade County,America/New_York,786,NA,US,25.46,-80.45,1639,
33092,PO BOX,0,Homestead,"Naranja, Princeton",,FL,Miami-Dade County,America/New_York,786,NA,US,25.46,-80.45,841,
33093,PO BOX,0,Margate,"Coconut Creek, Coconutcreek, Pompano Beach",,FL,Broward County,America/New_York,754,NA,US,26.23,-80.13,549,
33097,PO BOX,0,Coconut Creek,Pompano Beach,,FL,Broward County,America/New_York,754,NA,US,26.23,-80.13,293,
33101,PO BOX,0,Miami,,,FL,Miami-Dade County,America/New_York,786,NA,US,25.78,-80.2,1259,
33102,PO BOX,0,Miami,,,FL,Miami-Dade County,America/New_York,786,NA,US,25.77,-80.2,3648,
33106,UNIQUE,0,Miami,,Skyshop Logistics Inc,FL,,America/New_York,786,NA,US,25.84,-80.22,0,
33107,UNIQUE,1,Miami,,Master Charge,FL,Miami-Dade County,America/New_York,786,NA,US,25.79,-80.31,23,
33109,STANDARD,0,Miami Beach,Miami,Fisher Island,FL,Miami-Dade County,America/New_York,"786,305",NA,US,25.76,-80.14,410,
33110,UNIQUE,1,Miami,,Southern Bell,FL,Miami-Dade County,America/New_York,786,NA,US,25.85,-80.2,303,
33111,PO BOX,0,Miami,,,FL,Miami-Dade County,America/New_York,786,NA,US,25.77,-80.2,0,
33112,UNIQUE,0,Miami,,International Service Center,FL,Miami-Dade County,America/New_York,786,NA,US,25.79,-80.38,20,
33114,PO BOX,0,Coral Gables,Miami,,FL,Miami-Dade County,America/New_York,786,NA,US,25.77,-80.2,1449,
33116,PO BOX,0,Miami,,,FL,Miami-Dade County,America/New_York,786,NA,US,25.77,-80.2,1042,
33119,PO BOX,0,Miami Beach,Miami,,FL,Miami-Dade County,America/New_York,786,NA,US,25.77,-80.2,569,
33121,UNIQUE,1,Miami,,Flagship Banks Of Miami,FL,Miami-Dade County,America/New_York,786,NA,US,25.79,-80.31,25,
33122,STANDARD,0,Miami,Doral,Air Mail Facility,FL,Miami-Dade County,America/New_York,"305,786",NA,US,25.79,-80.3,1146,
33124,PO BOX,0,Miami,"Coral Gables, Univ Of Miami, University Of Miami",,FL,Miami-Dade County,America/New_York,786,NA,US,25.77,-80.2,178,
33125,STANDARD,0,Miami,,,FL,Miami-Dade County,America/New_York,"305,786",NA,US,25.78,-80.24,43170,
33126,STANDARD,0,Miami,Doral,,FL,Miami-Dade County,America/New_York,"305,786",NA,US,25.78,-80.3,42520,
33127,STANDARD,0,Miami,,,FL,Miami-Dade County,America/New_York,305,NA,US,25.81,-80.21,24030,
33128,STANDARD,0,Miami,,,FL,Miami-Dade County,America/New_York,"305,786",NA,US,25.78,-80.2,5110,
33129,STANDARD,0,Miami,,,FL,Miami-Dade County,America/New_York,"305,786",NA,US,25.75,-80.19,11920,
33130,STANDARD,0,Miami,,,FL,Miami-Dade County,America/New_York,"305,786",NA,US,25.77,-80.2,21170,
33131,STANDARD,0,Miami,,,FL,Miami-Dade County,America/New_York,"305,786",NA,US,25.77,-80.18,15540,
33132,STANDARD,0,Miami,,Seybold,FL,Miami-Dade County,America/New_York,"305,786",NA,US,25.78,-80.18,7770,
33133,STANDARD,0,Miami,"Coconut Grove, Coral Gables",,FL,Miami-Dade County,America/New_York,305,NA,US,25.73,-80.24,28030,
33134,STANDARD,0,Miami,Coral Gables,Coconut Grove,FL,Miami-Dade County,America/New_York,"305,786",NA,US,25.75,-80.27,35570,
33135,STANDARD,0,Miami,,,FL,Miami-Dade County,America/New_York,"305,786",NA,US,25.77,-80.24,27790,
33136,STANDARD,0,Miami,,,FL,Miami-Dade County,America/New_York,"305,786",NA,US,25.79,-80.2,10850,
33137,STANDARD,0,Miami,,,FL,Miami-Dade County,America/New_York,305,NA,US,25.82,-80.17,16490,
33138,STANDARD,0,Miami,"El Portal, Miami Shores",,FL,Miami-Dade County,America/New_York,305,NA,US,25.85,-80.18,23880,
33139,STANDARD,0,Miami Beach,Miami,"Fisher Island, Venetian Islands",FL,Miami-Dade County,America/New_York,"305,786",NA,US,25.78,-80.15,27090,
33140,STANDARD,0,Miami Beach,Miami,Sunset Island,FL,Miami-Dade County,America/New_York,"305,786",NA,US,25.82,-80.13,17380,
33141,STANDARD,0,Miami Beach,"Miami, North Bay Village, North Bay Vlg","Normandy, Normandy Isle",FL,Miami-Dade County,America/New_York,"305,786",NA,US,25.85,-80.14,29460,
33142,STANDARD,0,Miami,,,FL,Miami-Dade County,America/New_York,"786,305",NA,US,25.81,-80.24,44790,
33143,STANDARD,0,Miami,"Coral Gables, South Miami",,FL,Miami-Dade County,America/New_York,"305,786",NA,US,25.7,-80.3,26430,
33144,STANDARD,0,Miami,West Miami,"Coral Gables, Sweetwater",FL,Miami-Dade County,America/New_York,"305,786",NA,US,25.76,-80.31,23450,
33145,STANDARD,0,Miami,Coral Gables,Coral,FL,Miami-Dade County,America/New_York,"786,305",NA,US,25.75,-80.23,25590,
33146,STANDARD,0,Miami,"Coconut Grove, Coral Gables, South Miami, Univ Of Miami, University Of Miami",,FL,Miami-Dade County,America/New_York,"305,786",NA,US,25.72,-80.27,10010,
33147,STANDARD,0,Miami,,Dr Martin Luther King Jr,FL,Miami-Dade County,America/New_York,"305,786",NA,US,25.85,-80.24,43340,
33148,UNIQUE,1,Miami,,Eastern Airlines,FL,Miami-Dade County,America/New_York,786,NA,US,25.79,-80.31,49,
33149,STANDARD,0,Key Biscayne,Miami,,FL,Miami-Dade County,America/New_York,305,NA,US,25.68,-80.16,11240,
33150,STANDARD,0,Miami,"El Portal, Miami Shores",,FL,Miami-Dade County,America/New_York,"305,786",NA,US,25.85,-80.21,24530,
33151,PO BOX,0,Miami,,,FL,Miami-Dade County,America/New_York,786,NA,US,25.77,-80.2,175,
33152,PO BOX,0,Miami,,,FL,Miami-Dade County,America/New_York,786,NA,US,25.77,-80.2,1754,
33153,PO BOX,0,Miami,Miami Shores,,FL,Miami-Dade County,America/New_York,786,NA,US,25.77,-80.2,548,
33154,STANDARD,0,Miami Beach,"Bal Harbour, Bay Harbor Is, Bay Harbor Islands, Ind Crk Vlg, Indian Creek Village, Miami, Surfside",Indian Creek,FL,Miami-Dade County,America/New_York,"305,786",NA,US,25.88,-80.13,12150,
33155,STANDARD,0,Miami,,"South Miami, West Miami",FL,Miami-Dade County,America/New_York,"305,786",NA,US,25.74,-80.31,41220,
33156,STANDARD,0,Miami,"Coral Gables, Kendall, Pinecrest","Gables By The Sea, Pinecrest Postal Store, Richmond Heights, South Miami, Village Of Pinecrest",FL,Miami-Dade County,America/New_York,786,NA,US,25.67,-80.3,29430,
33157,STANDARD,0,Miami,"Cutler Bay, Cutler Ridge, Palmetto Bay, Perrine, Village Of Palmetto Bay",South Miami Heights,FL,Miami-Dade County,America/New_York,"305,786",NA,US,25.61,-80.34,60480,
33158,STANDARD,0,Miami,"Coral Gables, Palmetto Bay, Village Of Palmetto Bay","C Gables, Coral Gbls, Gables, Kendall, Richmond Heights",FL,Miami-Dade County,America/New_York,786,NA,US,25.64,-80.31,6430,
33159,PO BOX,0,Miami,,,FL,Miami-Dade County,America/New_York,786,NA,US,25.77,-80.2,134,
33160,STANDARD,0,North Miami Beach,"Aventura, Golden Beach, Miami, N Miami Beach, Sunny Isl Bch, Sunny Isles Beach",Sunny Isles,FL,Miami-Dade County,America/New_York,"305,786",NA,US,25.93,-80.14,32380,
33161,STANDARD,0,Miami,"Biscayne Park, Miami Shores, North Miami","Barry University, Nmb, North Miami Beach",FL,Miami-Dade County,America/New_York,"305,786,954",NA,US,25.89,-80.18,46800,
33162,STANDARD,0,Miami,"N Miami Beach, North Miami Beach, Uleta","Mia Shores, Mia Shrs, Miami Shores, North Miami",FL,Miami-Dade County,America/New_York,"305,786,954",NA,US,25.93,-80.18,40970,
33163,PO BOX,0,Miami,Ojus,,FL,Miami-Dade County,America/New_York,786,NA,US,25.77,-80.2,160,
33164,PO BOX,0,Miami,Uleta,,FL,Miami-Dade County,America/New_York,786,NA,US,25.77,-80.2,447,
33165,STANDARD,0,Miami,"Olympia Heights, Olympia Hgts",Westchester,FL,Miami-Dade County,America/New_York,"305,786",NA,US,25.73,-80.36,50710,
33166,STANDARD,0,Miami,"Doral, Medley, Miami Springs, Virginia Gardens, Virginia Gdns",Milam Dairy,FL,Miami-Dade County,America/New_York,"305,786",NA,US,25.82,-80.3,22220,
33167,STANDARD,0,Miami,"Miami Shores, North Miami",,FL,Miami-Dade County,America/New_York,"786,305",NA,US,25.88,-80.24,17790,
33168,STANDARD,0,Miami,"Miami Shores, North Miami",,FL,Miami-Dade County,America/New_York,"305,786",NA,US,25.89,-80.21,25400,
33169,STANDARD,0,Miami,"Miami Gardens, N Miami Beach, North Miami Beach",North Miami,FL,Miami-Dade County,America/New_York,"305,954,786",NA,US,25.94,-80.21,38020,
33170,STANDARD,0,Miami,"Goulds, Quail Heights","Country Lakes, Cutler Ridge, Perrine",FL,Miami-Dade County,America/New_York,786,NA,US,25.56,-80.46,12430,
33172,STANDARD,0,Miami,Doral,"Doral Branch, Sweetwater, West Miami",FL,Miami-Dade County,America/New_York,"305,786",NA,US,25.79,-80.36,37900,
33173,STANDARD,0,Miami,,"Kendall, South Miami",FL,Miami-Dade County,America/New_York,"305,786",NA,US,25.7,-80.36,29710,
33174,STANDARD,0,Miami,,"Olympia Heights, Sweetwater, West Miami",FL,Miami-Dade County,America/New_York,"305,786",NA,US,25.76,-80.36,26640,
33175,STANDARD,0,Miami,"Olympia Heights, Olympia Hgts",,FL,Miami-Dade County,America/New_York,786,NA,US,25.73,-80.41,50630,
33176,STANDARD,0,Miami,Palmetto Bay,"Kendall, Richmond Heights, Snapper Creek, South Miami",FL,Miami-Dade County,America/New_York,"305,786",NA,US,25.66,-80.36,46890,
33177,STANDARD,0,Miami,Quail Heights,"Country Lakes, Perrine",FL,Miami-Dade County,America/New_York,"305,786",NA,US,25.6,-80.4,51550,
33178,STANDARD,0,Miami,"Doral, Medley",,FL,Miami-Dade County,America/New_York,"305,786",NA,US,25.85,-80.41,41830,
33179,STANDARD,0,Miami,"Miami Gardens, N Miami Beach, North Miami Beach",,FL,Miami-Dade County,America/New_York,"305,786",NA,US,25.96,-80.18,37240,
33180,STANDARD,0,Miami,Aventura,"Nmb, North Miami Beach, Ojus",FL,Miami-Dade County,America/New_York,"305,954",NA,US,25.96,-80.14,25840,
33181,STANDARD,0,Miami,"N Miami Beach, North Miami, North Miami Beach","Biscayne Park, Nmb",FL,Miami-Dade County,America/New_York,"305,786,954",NA,US,25.9,-80.15,15500,
33182,STANDARD,0,Miami,Doral,"Sweetwater, West Miami",FL,Miami-Dade County,America/New_York,786,NA,US,25.78,-80.41,13380,
33183,STANDARD,0,Miami,Kendall,"Morales Discount Pharmacy, South Miami, Town & Country Postal Store",FL,Miami-Dade County,America/New_York,"305,786",NA,US,25.7,-80.4,34040,
33184,STANDARD,0,Miami,,"Olympia Heights, Sweetwater",FL,Miami-Dade County,America/New_York,786,NA,US,25.76,-80.41,19510,
33185,STANDARD,0,Miami,"Olympia Heights, Olympia Hgts",,FL,Miami-Dade County,America/New_York,786,NA,US,25.73,-80.45,26580,
33186,STANDARD,0,Miami,,"Crossings, Kendall",FL,Miami-Dade County,America/New_York,786,NA,US,25.65,-80.41,63130,
33187,STANDARD,0,Miami,Quail Heights,"Country Lakes, Perrine",FL,Miami-Dade County,America/New_York,786,NA,US,25.6,-80.51,17200,
33188,UNIQUE,0,Miami,,Florida Power & Light Co,FL,Miami-Dade County,America/New_York,786,NA,US,25.77,-80.2,35,
33189,STANDARD,0,Miami,"Cutler Bay, Quail Heights","Cutler Ridge, Perrine",FL,Miami-Dade County,America/New_York,"305,786",NA,US,25.57,-80.34,22740,
33190,STANDARD,0,Miami,"Cutler Bay, Quail Heights","Cutler Ridge, Perrine",FL,Miami-Dade County,America/New_York,"305,786",NA,US,25.56,-80.35,13080,
33191,STANDARD,0,Miami,Doral,,FL,,America/New_York,,NA,US,25.77,-80.2,0,
33192,STANDARD,0,Miami,Doral,,FL,,America/New_York,,NA,US,25.77,-80.2,550,
33193,STANDARD,0,Miami,,Kendall,FL,Miami-Dade County,America/New_York,305,NA,US,25.7,-80.47,44430,
33194,STANDARD,0,Miami,,"Father Felix Varela, Sweetwater, West Miami",FL,Miami-Dade County,America/New_York,786,NA,US,25.71,-80.58,5430,
33195,UNIQUE,1,Miami,,First Union Bank,FL,Miami-Dade County,America/New_York,786,NA,US,25.79,-80.31,850,
33196,STANDARD,0,Miami,,"Kendall, West Dade",FL,Miami-Dade County,America/New_York,786,NA,US,25.65,-80.49,45390,
33197,PO BOX,0,Miami,Quail Heights,,FL,Miami-Dade County,America/New_York,786,NA,US,25.77,-80.2,1154,
33198,STANDARD,0,Miami,"Doral, Medley",,FL,,America/New_York,,NA,US,25.77,-80.2,0,
33199,UNIQUE,0,Miami,,"Flinternational Univ, Florida International Univ",FL,Miami-Dade County,America/New_York,786,NA,US,25.77,-80.2,37,
33206,UNIQUE,0,Miami,,"Aeropost, Coral Gables",FL,,America/New_York,786,NA,US,25.72,-80.26,0,
33222,PO BOX,0,Miami,,,FL,Miami-Dade County,America/New_York,786,NA,US,25.93,-80.23,107,
33231,PO BOX,0,Miami,,Brickell,FL,Miami-Dade County,America/New_York,786,NA,US,25.77,-80.2,283,
33233,PO BOX,0,Miami,,Coconut Gr,FL,Miami-Dade County,America/New_York,786,NA,US,25.77,-80.2,496,
33234,PO BOX,0,Miami,Coral Gables,"C Gables, Coral Gbls, Gables",FL,Miami-Dade County,America/New_York,786,NA,US,25.77,-80.2,283,
33238,PO BOX,0,Miami,,,FL,Miami-Dade County,America/New_York,786,NA,US,25.77,-80.2,981,
33239,PO BOX,0,Miami Beach,"Carl Fisher, Miami",,FL,Miami-Dade County,America/New_York,786,NA,US,25.77,-80.2,193,
33242,PO BOX,0,Miami,,,FL,Miami-Dade County,America/New_York,786,NA,US,25.77,-80.2,888,
33243,PO BOX,0,Miami,South Miami,,FL,Miami-Dade County,America/New_York,786,NA,US,25.77,-80.2,514,
33245,PO BOX,0,Miami,,,FL,Miami-Dade County,America/New_York,786,NA,US,25.77,-80.2,594,
33247,PO BOX,0,Miami,,,FL,Miami-Dade County,America/New_York,786,NA,US,25.77,-80.2,1158,
33255,PO BOX,0,Miami,Ludlam,,FL,Miami-Dade County,America/New_York,786,NA,US,25.77,-80.2,447,
33256,PO BOX,0,Miami,"Kendall, Pinecrest","South Miami, Village Of Pinecrest",FL,Miami-Dade County,America/New_York,786,NA,US,25.77,-80.2,823,
33257,PO BOX,0,Miami,Perrine,Quail Heights,FL,Miami-Dade County,America/New_York,786,NA,US,25.77,-80.2,373,
33261,PO BOX,0,Miami,North Miami,"Biscayne Park, Keystone Islands, North Miami Beach",FL,Miami-Dade County,America/New_York,786,NA,US,25.77,-80.2,988,
33265,PO BOX,0,Miami,"Olympia Heights, Olympia Hgts",,FL,Miami-Dade County,America/New_York,786,NA,US,25.77,-80.2,993,
33266,PO BOX,0,Miami,Miami Springs,,FL,Miami-Dade County,America/New_York,786,NA,US,25.77,-80.2,485,
33269,PO BOX,0,Miami,,,FL,Miami-Dade County,America/New_York,786,NA,US,25.77,-80.2,938,
33280,PO BOX,0,Miami,,"Aventura, Nmb",FL,Miami-Dade County,America/New_York,786,NA,US,25.77,-80.2,274,
33283,PO BOX,0,Miami,,"Kendall, Town & Country Postal Store",FL,Miami-Dade County,America/New_York,786,NA,US,25.77,-80.2,1154,
33296,PO BOX,0,Miami,,Kendall,FL,Miami-Dade County,America/New_York,786,NA,US,25.77,-80.2,314,
33299,PO BOX,0,Miami,,,FL,Miami-Dade County,America/New_York,786,NA,US,25.77,-80.2,387,
33301,STANDARD,0,Fort Lauderdale,Ft Lauderdale,,FL,Broward County,America/New_York,"305,754,786,954",NA,US,26.12,-80.13,13550,
33302,PO BOX,0,Fort Lauderdale,Ft Lauderdale,,FL,Broward County,America/New_York,754,NA,US,26.14,-80.13,1000,
33303,PO BOX,0,Fort Lauderdale,Ft Lauderdale,,FL,Broward County,America/New_York,754,NA,US,26.14,-80.13,279,
33304,STANDARD,0,Fort Lauderdale,"Ft Lauderdale, Oakland Park",Sunrise,FL,Broward County,America/New_York,"305,786,954",NA,US,26.14,-80.13,15050,
33305,STANDARD,0,Fort Lauderdale,"Ft Lauderdale, Lazy Lake, Oakland Park, Wilton Manors",,FL,Broward County,America/New_York,954,NA,US,26.15,-80.12,9310,
33306,STANDARD,0,Fort Lauderdale,"Ft Lauderdale, Oakland Park, Wilton Manors",,FL,Broward County,America/New_York,954,NA,US,26.17,-80.11,3050,
33307,PO BOX,0,Fort Lauderdale,"Ft Lauderdale, Oakland Park",,FL,Broward County,America/New_York,754,NA,US,26.14,-80.13,760,
33308,STANDARD,0,Fort Lauderdale,"Ft Lauderdale, Laud By Sea, Lauderdale By The Sea, Oakland Park, Sea Ranch Lakes, Sea Ranch Lks",,FL,Broward County,America/New_York,954,NA,US,26.19,-80.1,23960,
33309,STANDARD,0,Fort Lauderdale,"Ft Lauderdale, Laud Lakes, Lauderdale Lakes, Oakland Park, Tamarac",North Lauderdale,FL,Broward County,America/New_York,954,NA,US,26.19,-80.17,34410,
33310,PO BOX,0,Fort Lauderdale,Ft Lauderdale,Oakland Park,FL,Broward County,America/New_York,754,NA,US,26.14,-80.13,1777,
33311,STANDARD,0,Fort Lauderdale,"Ft Lauderdale, Laud Lakes, Lauderdale Lakes, Lauderhill, Oakland Park, Plantation, Wilton Manors",,FL,Broward County,America/New_York,954,NA,US,26.14,-80.17,60160,
33312,STANDARD,0,Fort Lauderdale,"Davie, Ft Lauderdale","Dania, Dania Beach, Hollywood, Lauderdale Isles, Melrose Vista, Plantation",FL,Broward County,America/New_York,954,NA,US,26.09,-80.18,45060,
33313,STANDARD,0,Fort Lauderdale,"City Of Sunrise, Ft Lauderdale, Laud Lakes, Lauderdale Lakes, Lauderhill, Plantation, Sunrise",Ldhl,FL,Broward County,America/New_York,954,NA,US,26.15,-80.23,52530,
33314,STANDARD,0,Fort Lauderdale,"Davie, Ft Lauderdale","Dania Beach, Hollywood",FL,Broward County,America/New_York,954,NA,US,26.07,-80.22,20810,
33315,STANDARD,0,Fort Lauderdale,Ft Lauderdale,,FL,Broward County,America/New_York,954,NA,US,26.09,-80.15,10830,
33316,STANDARD,0,Fort Lauderdale,Ft Lauderdale,"Hollywood, Port Everglades",FL,Broward County,America/New_York,"754,954",NA,US,26.1,-80.12,9910,
33317,STANDARD,0,Fort Lauderdale,"Davie, Ft Lauderdale, Plantation",,FL,Broward County,America/New_York,954,NA,US,26.11,-80.23,34070,
33318,PO BOX,0,Fort Lauderdale,"Ft Lauderdale, Plantation",,FL,Broward County,America/New_York,754,NA,US,26.14,-80.13,851,
33319,STANDARD,0,Fort Lauderdale,"Ft Lauderdale, Laud Lakes, Lauderdale Lakes, Lauderhill, Sunrise, Tamarac","Inverrary, Lauder Hill, Ldhl, North Lauderdale",FL,Broward County,America/New_York,954,NA,US,26.18,-80.23,41680,
33320,PO BOX,0,Fort Lauderdale,"Ft Lauderdale, Tamarac",,FL,Broward County,America/New_York,754,NA,US,26.14,-80.13,534,
33321,STANDARD,0,Fort Lauderdale,"Ft Lauderdale, Tamarac","Lauder Hill, Lauderhill, Ldhl, Sunrise",FL,Broward County,America/New_York,954,NA,US,26.21,-80.27,42610,
33322,STANDARD,0,Fort Lauderdale,"Ft Lauderdale, Plantation, Sunrise",,FL,Broward County,America/New_York,954,NA,US,26.15,-80.27,34430,
33323,STANDARD,0,Fort Lauderdale,"Ft Lauderdale, Plantation, Sunrise",Tamarac,FL,Broward County,America/New_York,954,NA,US,26.15,-80.32,20240,
33324,STANDARD,0,Fort Lauderdale,"Davie, Ft Lauderdale, Plantation",,FL,Broward County,America/New_York,954,NA,US,26.11,-80.27,40240,
33325,STANDARD,0,Fort Lauderdale,"Davie, Ft Lauderdale, Plantation, Sunrise",Westside,FL,Broward County,America/New_York,954,NA,US,26.11,-80.32,27480,
33326,STANDARD,0,Fort Lauderdale,"Davie, Ft Lauderdale, Sunrise, Weston","Bonaventure, P E Chevron Cs, Plantation",FL,Broward County,America/New_York,954,NA,US,26.11,-80.39,31730,
33327,STANDARD,0,Fort Lauderdale,"Ft Lauderdale, Weston",Plantation,FL,Broward County,America/New_York,954,NA,US,26.11,-80.42,21220,
33328,STANDARD,0,Fort Lauderdale,"Cooper City, Davie, Ft Lauderdale",,FL,Broward County,America/New_York,954,NA,US,26.07,-80.28,25480,
33329,PO BOX,0,Fort Lauderdale,"Cooper City, Davie, Ft Lauderdale",,FL,Broward County,America/New_York,754,NA,US,26.14,-80.13,463,
33330,STANDARD,0,Fort Lauderdale,"Cooper City, Davie, Ft Lauderdale, Laud Lakes, Southwest Ranches, Sw Ranches","Pembroke Pines, Westside",FL,Broward County,America/New_York,954,NA,US,26.06,-80.32,14220,
33331,STANDARD,0,Fort Lauderdale,"Davie, Ft Lauderdale, Southwest Ranches, Sw Ranches, Weston","Everglades Br, Pembroke Pines",FL,Broward County,America/New_York,754,NA,US,26.06,-80.37,22390,
33332,STANDARD,0,Fort Lauderdale,"Davie, Ft Lauderdale, Southwest Ranches, Sw Ranches, Weston","Everglades Br, Hollywood, Pembroke Pines",FL,Broward County,America/New_York,954,NA,US,26.01,-80.46,10340,
33334,STANDARD,0,Fort Lauderdale,"Ft Lauderdale, Oakland Park, Wilton Manors",,FL,Broward County,America/New_York,954,NA,US,26.18,-80.13,25430,
33335,PO BOX,0,Fort Lauderdale,Ft Lauderdale,,FL,Broward County,America/New_York,754,NA,US,26.14,-80.13,601,
33336,UNIQUE,0,Fort Lauderdale,Ft Lauderdale,American Express,FL,Broward County,America/New_York,754,NA,US,26.14,-80.13,0,
33337,UNIQUE,0,Fort Lauderdale,Ft Lauderdale,"American Express, Plantation",FL,Broward County,America/New_York,754,NA,US,26.14,-80.13,0,
33338,PO BOX,0,Fort Lauderdale,Ft Lauderdale,Sunrise,FL,Broward County,America/New_York,754,NA,US,26.14,-80.13,398,
33339,PO BOX,0,Fort Lauderdale,Ft Lauderdale,,FL,Broward County,America/New_York,754,NA,US,26.14,-80.13,356,
33340,PO BOX,0,Fort Lauderdale,Ft Lauderdale,,FL,Broward County,America/New_York,754,NA,US,26.14,-80.13,60,
33345,PO BOX,0,Fort Lauderdale,"Ft Lauderdale, Sunrise",,FL,Broward County,America/New_York,754,NA,US,26.14,-80.13,615,
33346,PO BOX,0,Fort Lauderdale,Ft Lauderdale,,FL,Broward County,America/New_York,754,NA,US,26.14,-80.13,186,
33348,PO BOX,0,Fort Lauderdale,Ft Lauderdale,,FL,Broward County,America/New_York,754,NA,US,26.14,-80.13,89,
33349,PO BOX,0,Fort Lauderdale,Ft Lauderdale,,FL,Broward County,America/New_York,754,NA,US,26.14,-80.13,435,
33351,STANDARD,0,Fort Lauderdale,"Ft Lauderdale, Lauderhill, Sunrise, Tamarac",,FL,Broward County,America/New_York,954,NA,US,26.18,-80.27,33360,
33355,PO BOX,0,Fort Lauderdale,"Davie, Ft Lauderdale","Sunrise, Westside",FL,Broward County,America/New_York,754,NA,US,26.14,-80.13,334,
33359,PO BOX,0,Fort Lauderdale,"Ft Lauderdale, Tamarac",Sabal Palm Postal Store,FL,Broward County,America/New_York,754,NA,US,26.14,-80.13,342,
33388,STANDARD,0,Plantation,"Fort Lauderdale, Ft Lauderdale",Broward Mall,FL,Broward County,America/New_York,954,NA,US,26.14,-80.13,0,
33394,STANDARD,0,Fort Lauderdale,Ft Lauderdale,"Financial Plaza, One Financial Plaza",FL,Broward County,America/New_York,"305,754,786,954",NA,US,26.14,-80.13,28,
33401,STANDARD,0,West Palm Beach,West Palm Bch,,FL,Palm Beach County,America/New_York,561,NA,US,26.72,-80.07,21510,
33402,PO BOX,0,West Palm Beach,West Palm Bch,,FL,Palm Beach County,America/New_York,561,NA,US,26.74,-80.12,1151,
33403,STANDARD,0,West Palm Beach,"Lake Park, N Palm Beach, North Palm Beach, Palm Bch Gdns, Palm Beach Gardens, Riviera Beach, W Plm Bch, West Palm Bch",,FL,Palm Beach County,America/New_York,561,NA,US,26.8,-80.08,11950,
33404,STANDARD,0,West Palm Beach,"Palm Bch Shrs, Palm Beach Shores, Riviera Beach, Singer Island, West Palm Bch",,FL,Palm Beach County,America/New_York,561,NA,US,26.78,-80.06,25080,
33405,STANDARD,0,West Palm Beach,West Palm Bch,,FL,Palm Beach County,America/New_York,561,NA,US,26.67,-80.06,17530,
33406,STANDARD,0,West Palm Beach,"Cloud Lake, Glen Ridge, Lake Clarke, Lake Clarke Shores, Palm Springs, West Palm Bch",,FL,Palm Beach County,America/New_York,561,NA,US,26.66,-80.09,23730,
33407,STANDARD,0,West Palm Beach,"Riviera Beach, West Palm Bch",Mangonia Park,FL,Palm Beach County,America/New_York,561,NA,US,26.76,-80.09,27680,
33408,STANDARD,0,North Palm Beach,"Juno Beach, N Palm Beach, Palm Bch Gdns, Palm Beach Gardens, West Palm Bch, West Palm Beach",,FL,Palm Beach County,America/New_York,561,NA,US,26.84,-80.05,15780,
33409,STANDARD,0,West Palm Beach,"Haverhill, West Palm Bch",,FL,Palm Beach County,America/New_York,561,NA,US,26.72,-80.1,27680,
33410,STANDARD,0,Palm Beach Gardens,"N Palm Beach, North Palm Beach, Palm Bch Gdns, Riviera Beach, West Palm Bch, West Palm Beach",,FL,Palm Beach County,America/New_York,561,NA,US,26.85,-80.09,31360,
33411,STANDARD,0,West Palm Beach,"Royal Palm Beach, Royal Plm Bch, Wellington, West Palm Bch","Royal Plm Beach, Ryl Palm Bch",FL,Palm Beach County,America/New_York,561,NA,US,26.72,-80.19,64920,
33412,STANDARD,0,West Palm Beach,"Palm Bch Gdns, Palm Beach Gardens, Royal Palm Beach, Royal Plm Bch, West Palm Bch",Ryl Palm Bch,FL,Palm Beach County,America/New_York,561,NA,US,26.79,-80.21,14130,
33413,STANDARD,0,West Palm Beach,"Green Acres, Greenacres, West Palm Bch",,FL,Palm Beach County,America/New_York,561,NA,US,26.66,-80.15,15420,
33414,STANDARD,0,Wellington,"Royal Palm Beach, Royal Plm Bch, Village Of Wellington, Vlg Wellingtn, West Palm Bch, West Palm Beach",Royal Plm Beach,FL,Palm Beach County,America/New_York,561,NA,US,26.65,-80.25,54240,
33415,STANDARD,0,West Palm Beach,"Green Acres, Greenacres, Haverhill, West Palm Bch",,FL,Palm Beach County,America/New_York,561,NA,US,26.66,-80.13,42790,
33416,PO BOX,0,West Palm Beach,West Palm Bch,,FL,Palm Beach County,America/New_York,561,NA,US,26.74,-80.12,2489,
33417,STANDARD,0,West Palm Beach,"Haverhill, West Palm Bch",,FL,Palm Beach County,America/New_York,561,NA,US,26.74,-80.12,24800,
33418,STANDARD,0,Palm Beach Gardens,"Palm Bch Gdns, Riviera Beach, West Palm Bch, West Palm Beach",,FL,Palm Beach County,America/New_York,561,NA,US,26.87,-80.17,35360,
33419,PO BOX,0,West Palm Beach,"Riviera Beach, West Palm Bch",,FL,Palm Beach County,America/New_York,561,NA,US,26.74,-80.12,1383,
33420,PO BOX,0,West Palm Beach,"Palm Bch Gdns, Palm Beach Gardens, West Palm Bch",,FL,Palm Beach County,America/New_York,561,NA,US,26.74,-80.12,879,
33421,PO BOX,0,Royal Palm Beach,"Royal Plm Bch, Wellington, West Palm Bch, West Palm Beach",Ryl Palm Bch,FL,Palm Beach County,America/New_York,561,NA,US,26.74,-80.12,934,
33422,PO BOX,0,West Palm Beach,"Haverhill, West Palm Bch",,FL,Palm Beach County,America/New_York,561,NA,US,26.74,-80.12,849,
33424,PO BOX,0,Boynton Beach,,,FL,Palm Beach County,America/New_York,561,NA,US,26.52,-80.08,697,
33425,PO BOX,0,Boynton Beach,,,FL,Palm Beach County,America/New_York,561,NA,US,26.52,-80.08,1013,
33426,STANDARD,0,Boynton Beach,,,FL,Palm Beach County,America/New_York,561,NA,US,26.52,-80.08,19700,
33427,PO BOX,0,Boca Raton,,,FL,Palm Beach County,America/New_York,561,NA,US,26.37,-80.1,636,
33428,STANDARD,0,Boca Raton,,,FL,Palm Beach County,America/New_York,561,NA,US,26.35,-80.21,36720,
33429,PO BOX,0,Boca Raton,,,FL,Palm Beach County,America/New_York,561,NA,US,26.37,-80.1,684,
33430,STANDARD,0,Belle Glade,,,FL,Palm Beach County,America/New_York,561,NA,US,26.68,-80.67,18300,
33431,STANDARD,0,Boca Raton,,,FL,Palm Beach County,America/New_York,561,NA,US,26.37,-80.1,14770,
33432,STANDARD,0,Boca Raton,,,FL,Palm Beach County,America/New_York,561,NA,US,26.34,-80.08,17370,
33433,STANDARD,0,Boca Raton,,,FL,Palm Beach County,America/New_York,561,NA,US,26.35,-80.16,38310,
33434,STANDARD,0,Boca Raton,,,FL,Palm Beach County,America/New_York,561,NA,US,26.38,-80.17,16570,
33435,STANDARD,0,Boynton Beach,"Briny Breezes, Ocean Ridge",,FL,Palm Beach County,America/New_York,561,NA,US,26.53,-80.06,31080,
33436,STANDARD,0,Boynton Beach,"Golf, Village Of Golf, Vlg Of Golf",,FL,Palm Beach County,America/New_York,561,NA,US,26.52,-80.11,37330,
33437,STANDARD,0,Boynton Beach,,,FL,Palm Beach County,America/New_York,561,NA,US,26.51,-80.15,32700,
33438,STANDARD,0,Canal Point,Bryant,,FL,Palm Beach County,America/New_York,,NA,US,26.93,-80.59,960,
33439,STANDARD,1,Canal Point,Bryant,,FL,Palm Beach County,America/New_York,561,NA,US,26.84,-80.61,0,
33440,STANDARD,0,Clewiston,,,FL,Hendry County,America/New_York,863,NA,US,26.75,-80.93,17100,
33441,STANDARD,0,Deerfield Beach,Deerfield Bch,,FL,Broward County,America/New_York,"561,754,954",NA,US,26.31,-80.1,22780,
33442,STANDARD,0,Deerfield Beach,Deerfield Bch,,FL,Broward County,America/New_York,"754,954,561",NA,US,26.31,-80.12,22980,
33443,PO BOX,0,Deerfield Beach,Deerfield Bch,,FL,Broward County,America/New_York,754,NA,US,26.31,-80.12,702,
33444,STANDARD,0,Delray Beach,,,FL,Palm Beach County,America/New_York,561,NA,US,26.45,-80.08,19520,
33445,STANDARD,0,Delray Beach,,,FL,Palm Beach County,America/New_York,561,NA,US,26.46,-80.11,27020,
33446,STANDARD,0,Delray Beach,"W Delray Bch, West Delray Beach",,FL,Palm Beach County,America/New_York,561,NA,US,26.45,-80.19,20440,
33447,STANDARD,1,Delray Beach,,,FL,Palm Beach County,America/New_York,561,NA,US,26.46,-80.07,34,
33448,PO BOX,0,Delray Beach,"W Delray Bch, West Delray Beach",,FL,Palm Beach County,America/New_York,561,NA,US,26.45,-80.08,163,
33449,STANDARD,0,Lake Worth,Wellington,Village Of Wellington,FL,Palm Beach County,America/New_York,561,NA,US,26.58,-80.22,9310,
33454,PO BOX,0,Greenacres,Lake Worth,Green Acres,FL,Palm Beach County,America/New_York,561,NA,US,26.61,-80.05,773,
33455,STANDARD,0,Hobe Sound,,,FL,Martin County,America/New_York,772,NA,US,27.07,-80.13,16750,
33458,STANDARD,0,Jupiter,,,FL,Palm Beach County,America/New_York,561,NA,US,26.92,-80.1,49760,
33459,PO BOX,0,Lake Harbor,,,FL,Palm Beach County,America/New_York,561,NA,US,26.7,-80.83,181,
33460,STANDARD,0,Lake Worth,Lantana,,FL,Palm Beach County,America/New_York,561,NA,US,26.61,-80.05,30140,
33461,STANDARD,0,Lake Worth,Palm Springs,Village Of Palm Springs,FL,Palm Beach County,America/New_York,561,NA,US,26.62,-80.09,37320,
33462,STANDARD,0,Lake Worth,"Atlantis, Hypoluxo, Lantana, Manalapan",,FL,Palm Beach County,America/New_York,561,NA,US,26.58,-80.07,28040,
33463,STANDARD,0,Lake Worth,Greenacres,Green Acres,FL,Palm Beach County,America/New_York,561,NA,US,26.59,-80.13,55580,
33464,UNIQUE,0,Boca Raton,,National Enquirer,FL,Palm Beach County,America/New_York,561,NA,US,26.61,-80.05,0,
33465,PO BOX,0,Lake Worth,Lantana,,FL,Palm Beach County,America/New_York,561,NA,US,26.61,-80.05,327,
33466,PO BOX,0,Lake Worth,,,FL,Palm Beach County,America/New_York,561,NA,US,26.61,-80.05,912,
33467,STANDARD,0,Lake Worth,"Greenacres, Wellington",Green Acres,FL,Palm Beach County,America/New_York,561,NA,US,26.6,-80.18,46620,
33468,PO BOX,0,Jupiter,,,FL,Palm Beach County,America/New_York,561,NA,US,26.92,-80.1,1511,
33469,STANDARD,0,Jupiter,"Jupiter Inlet, Jupiter Inlet Colony, Tequesta",,FL,Palm Beach County,America/New_York,561,NA,US,26.99,-80.11,13460,
33470,STANDARD,0,Loxahatchee,"Lox, Loxahatchee Groves, Lxhtchee Grvs, Village Of Wellington, Vlg Wellingtn, Wellington",West Palm Beach,FL,Palm Beach County,America/New_York,561,NA,US,26.73,-80.32,25420,
33471,STANDARD,0,Moore Haven,,,FL,Glades County,America/New_York,863,NA,US,26.83,-81.09,3810,
33472,STANDARD,0,Boynton Beach,,,FL,Palm Beach County,America/New_York,561,NA,US,26.53,-80.19,16000,
33473,STANDARD,0,Boynton Beach,,,FL,Palm Beach County,America/New_York,561,NA,US,26.49,-80.19,8800,
33474,PO BOX,0,Boynton Beach,,,FL,Palm Beach County,America/New_York,561,NA,US,26.52,-80.08,447,
33475,PO BOX,0,Hobe Sound,,,FL,Martin County,America/New_York,772,NA,US,27.07,-80.13,1385,
33476,STANDARD,0,Pahokee,,,FL,Palm Beach County,America/New_York,561,NA,US,26.81,-80.66,5660,
33477,STANDARD,0,Jupiter,,,FL,Palm Beach County,America/New_York,561,NA,US,26.92,-80.08,10270,
33478,STANDARD,0,Jupiter,,,FL,Palm Beach County,America/New_York,561,NA,US,26.94,-80.25,12530,
33480,STANDARD,0,Palm Beach,"S Palm Bch, South Palm Beach",,FL,Palm Beach County,America/New_York,561,NA,US,26.69,-80.03,8280,
33481,PO BOX,0,Boca Raton,,,FL,Palm Beach County,America/New_York,561,NA,US,26.37,-80.1,586,
33482,PO BOX,0,Delray Beach,,,FL,Palm Beach County,America/New_York,561,NA,US,26.45,-80.08,980,
33483,STANDARD,0,Delray Beach,Gulf Stream,,FL,Palm Beach County,America/New_York,561,NA,US,26.46,-80.06,10690,
33484,STANDARD,0,Delray Beach,"W Delray Bch, West Delray Beach",,FL,Palm Beach County,America/New_York,561,NA,US,26.45,-80.13,17950,
33486,STANDARD,0,Boca Raton,,,FL,Palm Beach County,America/New_York,561,NA,US,26.35,-80.11,19960,
33487,STANDARD,0,Boca Raton,"Highland Bch, Highland Beach",,FL,Palm Beach County,America/New_York,561,NA,US,26.41,-80.09,15820,
33488,PO BOX,0,Boca Raton,,,FL,Palm Beach County,America/New_York,561,NA,US,26.37,-80.1,231,
33493,STANDARD,0,South Bay,,,FL,Palm Beach County,America/New_York,561,NA,US,26.66,-80.71,2790,
33496,STANDARD,0,Boca Raton,,,FL,Palm Beach County,America/New_York,561,NA,US,26.41,-80.16,19220,
33497,PO BOX,0,Boca Raton,,,FL,Palm Beach County,America/New_York,561,NA,US,26.37,-80.1,233,
33498,STANDARD,0,Boca Raton,,,FL,Palm Beach County,America/New_York,561,NA,US,26.39,-80.22,13770,
33499,UNIQUE,0,Boca Raton,,Seta Corporation,FL,Palm Beach County,America/New_York,561,NA,US,26.37,-80.1,0,
33503,PO BOX,0,Balm,,,FL,Hillsborough County,America/New_York,813,NA,US,27.76,-82.28,782,
33508,PO BOX,0,Brandon,,,FL,Hillsborough County,America/New_York,813,NA,US,27.94,-82.29,322,
33509,PO BOX,0,Brandon,,,FL,Hillsborough County,America/New_York,813,NA,US,27.92,-82.29,2058,
33510,STANDARD,0,Brandon,,,FL,Hillsborough County,America/New_York,813,NA,US,27.96,-82.3,25450,
33511,STANDARD,0,Brandon,,,FL,Hillsborough County,America/New_York,813,NA,US,27.92,-82.29,48950,
33513,STANDARD,0,Bushnell,,,FL,Sumter County,America/New_York,352,NA,US,28.66,-82.11,8250,
33514,STANDARD,0,Center Hill,,Centerhill,FL,Sumter County,America/New_York,352,NA,US,28.64,-81.99,1670,
33521,PO BOX,0,Coleman,,,FL,Sumter County,America/New_York,352,NA,US,28.8,-82.06,915,
33523,STANDARD,0,Dade City,Ridge Manor,,FL,Pasco County,America/New_York,352,NA,US,28.42,-82.21,14390,
33524,PO BOX,0,Crystal Springs,Crystal Spgs,,FL,Pasco County,America/New_York,,NA,US,28.18,-82.15,658,
33525,STANDARD,0,Dade City,Richland,,FL,Pasco County,America/New_York,352,NA,US,28.36,-82.19,14660,
33526,PO BOX,0,Dade City,,,FL,Pasco County,America/New_York,352,NA,US,28.36,-82.19,2362,
33527,STANDARD,0,Dover,,,FL,Hillsborough County,America/New_York,813,NA,US,27.99,-82.22,16000,
33530,PO BOX,0,Durant,,,FL,Hillsborough County,America/New_York,813,NA,US,27.9,-82.24,782,
33534,STANDARD,0,Gibsonton,,,FL,Hillsborough County,America/New_York,813,NA,US,27.84,-82.37,13190,
33537,PO BOX,0,Lacoochee,,,FL,Pasco County,America/New_York,,NA,US,28.46,-82.16,1106,
33538,STANDARD,0,Lake Panasoffkee,Lk Panasoffke,,FL,Sumter County,America/New_York,352,NA,US,28.79,-82.13,3350,
33539,PO BOX,0,Zephyrhills,,,FL,Pasco County,America/New_York,813,NA,US,28.23,-82.17,1853,
33540,STANDARD,0,Zephyrhills,,,FL,Pasco County,America/New_York,813,NA,US,28.26,-82.13,6420,
33541,STANDARD,0,Zephyrhills,,,FL,Pasco County,America/New_York,813,NA,US,28.24,-82.23,14050,
33542,STANDARD,0,Zephyrhills,,,FL,Pasco County,America/New_York,813,NA,US,28.23,-82.17,14570,
33543,STANDARD,0,Wesley Chapel,Zephyrhills,,FL,Pasco County,America/New_York,813,NA,US,28.21,-82.3,23860,
33544,STANDARD,0,Wesley Chapel,Zephyrhills,,FL,Pasco County,America/New_York,813,NA,US,28.25,-82.37,24150,
33545,STANDARD,0,Wesley Chapel,Zephyrhills,,FL,Pasco County,America/New_York,813,NA,US,28.28,-82.29,16240,
33547,STANDARD,0,Lithia,,,FL,Hillsborough County,America/New_York,"863,813",NA,US,27.85,-82.17,25430,
33548,STANDARD,0,Lutz,,,FL,Hillsborough County,America/New_York,813,NA,US,28.15,-82.48,6480,
33549,STANDARD,0,Lutz,,,FL,Hillsborough County,America/New_York,813,NA,US,28.13,-82.46,15290,
33550,PO BOX,0,Mango,,,FL,Hillsborough County,America/New_York,813,NA,US,27.99,-82.3,939,
33556,STANDARD,0,Odessa,,,FL,Hillsborough County,America/New_York,813,NA,US,28.13,-82.59,22330,
33558,STANDARD,0,Lutz,,,FL,Hillsborough County,America/New_York,813,NA,US,28.17,-82.51,21460,
33559,STANDARD,0,Lutz,,,FL,Hillsborough County,America/New_York,813,NA,US,28.16,-82.41,13120,
33563,STANDARD,0,Plant City,,,FL,Hillsborough County,America/New_York,813,NA,US,28.01,-82.14,24530,
33564,PO BOX,0,Plant City,,,FL,Hillsborough County,America/New_York,813,NA,US,28,-82.12,1238,
33565,STANDARD,0,Plant City,,,FL,Hillsborough County,America/New_York,"863,813",NA,US,28.09,-82.15,14930,
33566,STANDARD,0,Plant City,,,FL,Hillsborough County,America/New_York,"813,863",NA,US,27.98,-82.1,20490,
33567,STANDARD,0,Plant City,,,FL,Hillsborough County,America/New_York,"813,863",NA,US,27.92,-82.12,9950,
33568,PO BOX,0,Riverview,,,FL,Hillsborough County,America/New_York,813,NA,US,27.84,-82.31,2360,
33569,STANDARD,0,Riverview,,,FL,Hillsborough County,America/New_York,813,NA,US,27.83,-82.29,24030,
33570,STANDARD,0,Ruskin,,Sun City Center,FL,Hillsborough County,America/New_York,813,NA,US,27.71,-82.42,23660,
33571,PO BOX,0,Sun City Center,"Ruskin, Sun City Ctr",,FL,Hillsborough County,America/New_York,813,NA,US,27.72,-82.35,590,
33572,STANDARD,0,Apollo Beach,Ruskin,,FL,Hillsborough County,America/New_York,813,NA,US,27.78,-82.39,17570,
33573,STANDARD,0,Sun City Center,"Ruskin, Sun City Ctr",,FL,Hillsborough County,America/New_York,813,NA,US,27.72,-82.35,19220,
33574,PO BOX,0,Saint Leo,,,FL,Pasco County,America/New_York,,NA,US,28.33,-82.25,209,
33575,PO BOX,0,Ruskin,"Sun City Center, Sun City Ctr",,FL,Hillsborough County,America/New_York,813,NA,US,27.72,-82.43,1778,
33576,STANDARD,0,San Antonio,,,FL,Pasco County,America/New_York,"813,352",NA,US,28.33,-82.27,4630,
33578,STANDARD,0,Riverview,,,FL,Hillsborough County,America/New_York,813,NA,US,27.88,-82.33,40590,
33579,STANDARD,0,Riverview,,,FL,Hillsborough County,America/New_York,813,NA,US,27.79,-82.29,27110,
33583,PO BOX,0,Seffner,,,FL,Hillsborough County,America/New_York,813,NA,US,27.99,-82.27,1340,
33584,STANDARD,0,Seffner,,,FL,Hillsborough County,America/New_York,813,NA,US,27.99,-82.27,23470,
33585,STANDARD,0,Sumterville,,,FL,Sumter County,America/New_York,352,NA,US,28.73,-82.09,1060,
33586,PO BOX,0,Sun City,,,FL,Hillsborough County,America/New_York,813,NA,US,27.68,-82.47,537,
33587,PO BOX,0,Sydney,,,FL,Hillsborough County,America/New_York,813,NA,US,27.9,-82.24,1398,
33592,STANDARD,0,Thonotosassa,,,FL,Hillsborough County,America/New_York,813,NA,US,28.07,-82.3,8380,
33593,PO BOX,0,Trilby,,,FL,Pasco County,America/New_York,,NA,US,28.44,-82.2,673,
33594,STANDARD,0,Valrico,,,FL,Hillsborough County,America/New_York,813,NA,US,27.94,-82.25,30670,
33595,PO BOX,0,Valrico,,,FL,Hillsborough County,America/New_York,813,NA,US,27.94,-82.25,1238,
33596,STANDARD,0,Valrico,,,FL,Hillsborough County,America/New_York,813,NA,US,27.88,-82.24,27740,
33597,STANDARD,0,Webster,"Rdg Mnr Est, Ridge Manor Estates",,FL,Sumter County,America/New_York,352,NA,US,28.61,-82.05,6420,
33598,STANDARD,0,Wimauma,,,FL,Hillsborough County,America/New_York,813,NA,US,27.71,-82.3,18110,
33601,PO BOX,0,Tampa,,,FL,Hillsborough County,America/New_York,813,NA,US,27.95,-82.48,806,
33602,STANDARD,0,Tampa,,,FL,Hillsborough County,America/New_York,813,NA,US,27.95,-82.46,11460,
33603,STANDARD,0,Tampa,,,FL,Hillsborough County,America/New_York,813,NA,US,27.99,-82.46,16170,
33604,STANDARD,0,Tampa,,,FL,Hillsborough County,America/New_York,813,NA,US,28.02,-82.46,31250,
33605,STANDARD,0,Tampa,Ybor City,,FL,Hillsborough County,America/New_York,813,NA,US,27.95,-82.43,14140,
33606,STANDARD,0,Tampa,"Univ Of Tampa, University Of Tampa",,FL,Hillsborough County,America/New_York,813,NA,US,27.95,-82.48,13950,
33607,STANDARD,0,Tampa,,,FL,Hillsborough County,America/New_York,"727,813",NA,US,27.96,-82.49,20830,
33608,PO BOX,0,Tampa,Macdill Afb,,FL,Hillsborough County,America/New_York,813,NA,US,27.95,-82.48,501,
33609,STANDARD,0,Tampa,,,FL,Hillsborough County,America/New_York,"727,813",NA,US,27.94,-82.52,15090,
33610,STANDARD,0,Tampa,,,FL,Hillsborough County,America/New_York,813,NA,US,28,-82.38,36910,
33611,STANDARD,0,Tampa,,,FL,Hillsborough County,America/New_York,813,NA,US,27.89,-82.51,26270,
33612,STANDARD,0,Tampa,,,FL,Hillsborough County,America/New_York,813,NA,US,28.05,-82.45,37930,
33613,STANDARD,0,Tampa,,,FL,Hillsborough County,America/New_York,813,NA,US,28.08,-82.45,24750,
33614,STANDARD,0,Tampa,,,FL,Hillsborough County,America/New_York,813,NA,US,28,-82.51,42470,
33615,STANDARD,0,Tampa,"Town N Country, Twn N Cntry",,FL,Hillsborough County,America/New_York,813,NA,US,28.01,-82.58,41110,
33616,STANDARD,0,Tampa,,,FL,Hillsborough County,America/New_York,813,NA,US,27.87,-82.54,13480,
33617,STANDARD,0,Tampa,"Temple Ter, Temple Terr, Temple Terrace",,FL,Hillsborough County,America/New_York,813,NA,US,28.04,-82.39,36390,
33618,STANDARD,0,Tampa,Carrollwood,,FL,Hillsborough County,America/New_York,"727,813",NA,US,28.07,-82.5,23750,
33619,STANDARD,0,Tampa,"Clair Mel, Clair Mel City",,FL,Hillsborough County,America/New_York,813,NA,US,27.94,-82.38,30580,
33620,UNIQUE,0,Tampa,"Univ Of S Fl, University Of South Florida, Usf",Univ Of So Florida,FL,Hillsborough County,America/New_York,813,NA,US,28.06,-82.41,450,
33621,STANDARD,0,Tampa,,,FL,Hillsborough County,America/New_York,813,NA,US,27.84,-82.49,2690,
33622,PO BOX,0,Tampa,,,FL,Hillsborough County,America/New_York,813,NA,US,27.95,-82.48,716,
33623,PO BOX,0,Tampa,,,FL,Hillsborough County,America/New_York,813,NA,US,27.95,-82.48,821,
33624,STANDARD,0,Tampa,Northdale,,FL,Hillsborough County,America/New_York,"813,727",NA,US,28.08,-82.53,35820,
33625,STANDARD,0,Tampa,Carrollwood,,FL,Hillsborough County,America/New_York,"727,813",NA,US,28.07,-82.56,24060,
33626,STANDARD,0,Tampa,"Northdale, Westchase",,FL,Hillsborough County,America/New_York,813,NA,US,28.07,-82.62,28430,
33629,STANDARD,0,Tampa,Palma Ceia,,FL,Hillsborough County,America/New_York,"813,727",NA,US,27.92,-82.51,23500,
33630,PO BOX,0,Tampa,,,FL,Hillsborough County,America/New_York,813,NA,US,27.95,-82.48,0,
33631,PO BOX,0,Tampa,,,FL,Hillsborough County,America/New_York,813,NA,US,27.95,-82.48,26,
33633,UNIQUE,0,Tampa,,"Business Reply, Tampa Brm Unique",FL,Hillsborough County,America/New_York,813,NA,US,27.95,-82.48,0,
33634,STANDARD,0,Tampa,,Time Cs Brm Unique,FL,Hillsborough County,America/New_York,813,NA,US,28.01,-82.55,19780,
33635,STANDARD,0,Tampa,,,FL,Hillsborough County,America/New_York,813,NA,US,28.03,-82.62,16020,
33637,STANDARD,0,Tampa,"Temple Ter, Temple Terr, Temple Terrace",,FL,Hillsborough County,America/New_York,813,NA,US,28.05,-82.36,14110,
33646,PO BOX,0,Tampa,,,FL,Hillsborough County,America/New_York,813,NA,US,27.95,-82.45,204,
33647,STANDARD,0,Tampa,Tampa Palms,,FL,Hillsborough County,America/New_York,813,NA,US,28.13,-82.35,60360,
33650,UNIQUE,0,Tampa,,Home Shopping Club,FL,Hillsborough County,America/New_York,813,NA,US,27.95,-82.48,0,
33651,UNIQUE,1,Tampa,,First National Bank Of Fl,FL,Hillsborough County,America/New_York,813,NA,US,27.95,-82.53,0,
33655,UNIQUE,0,Tampa,,Bank Of America,FL,Hillsborough County,America/New_York,813,NA,US,27.95,-82.48,0,
33660,UNIQUE,0,Tampa,,Time Inc,FL,Hillsborough County,America/New_York,813,NA,US,27.95,-82.48,0,
33661,UNIQUE,0,Tampa,,Time Inc,FL,Hillsborough County,America/New_York,813,NA,US,27.95,-82.48,0,
33662,UNIQUE,0,Tampa,,Time Inc,FL,Hillsborough County,America/New_York,813,NA,US,27.95,-82.48,0,
33663,UNIQUE,0,Tampa,,Time Customer Service Inc,FL,Hillsborough County,America/New_York,813,NA,US,27.95,-82.48,0,
33664,UNIQUE,0,Tampa,"Time Customer Service Inc, Time Inc",Time Cs Brm Unique,FL,Hillsborough County,America/New_York,813,NA,US,27.95,-82.48,0,
33672,PO BOX,0,Tampa,,,FL,Hillsborough County,America/New_York,813,NA,US,27.95,-82.48,606,
33673,PO BOX,0,Tampa,,,FL,Hillsborough County,America/New_York,813,NA,US,27.95,-82.48,621,
33674,PO BOX,0,Tampa,,,FL,Hillsborough County,America/New_York,813,NA,US,27.95,-82.48,829,
33675,PO BOX,0,Tampa,Ybor City,,FL,Hillsborough County,America/New_York,813,NA,US,27.95,-82.48,831,
33677,PO BOX,0,Tampa,,,FL,Hillsborough County,America/New_York,813,NA,US,27.95,-82.48,523,
33679,PO BOX,0,Tampa,,,FL,Hillsborough County,America/New_York,813,NA,US,27.95,-82.48,661,
33680,PO BOX,0,Tampa,,,FL,Hillsborough County,America/New_York,813,NA,US,27.95,-82.48,1374,
33681,PO BOX,0,Tampa,,,FL,Hillsborough County,America/New_York,813,NA,US,27.95,-82.48,624,
33682,PO BOX,0,Tampa,,,FL,Hillsborough County,America/New_York,813,NA,US,27.95,-82.48,1549,
33684,PO BOX,0,Tampa,,,FL,Hillsborough County,America/New_York,813,NA,US,27.95,-82.48,1364,
33685,PO BOX,0,Tampa,,,FL,Hillsborough County,America/New_York,813,NA,US,27.95,-82.48,1125,
33686,PO BOX,0,Tampa,,,FL,Hillsborough County,America/New_York,813,NA,US,27.95,-82.48,145,
33687,PO BOX,0,Tampa,Temple Ter,,FL,Hillsborough County,America/New_York,813,NA,US,27.95,-82.48,1857,
33688,PO BOX,0,Tampa,Carrollwood,,FL,Hillsborough County,America/New_York,813,NA,US,27.95,-82.48,1296,
33689,PO BOX,0,Tampa,,,FL,Hillsborough County,America/New_York,813,NA,US,27.95,-82.48,312,
33690,STANDARD,1,Tampa,Palma Ceia,,FL,Hillsborough County,America/New_York,813,NA,US,27.92,-82.49,0,
33694,PO BOX,0,Tampa,,,FL,Hillsborough County,America/New_York,813,NA,US,27.95,-82.48,587,
33701,STANDARD,0,Saint Petersburg,St Petersburg,,FL,Pinellas County,America/New_York,727,NA,US,27.77,-82.63,12220,
33702,STANDARD,0,Saint Petersburg,St Petersburg,,FL,Pinellas County,America/New_York,727,NA,US,27.85,-82.63,25530,
33703,STANDARD,0,Saint Petersburg,St Petersburg,,FL,Pinellas County,America/New_York,727,NA,US,27.82,-82.62,20780,
33704,STANDARD,0,Saint Petersburg,St Petersburg,,FL,Pinellas County,America/New_York,727,NA,US,27.8,-82.63,14260,
33705,STANDARD,0,Saint Petersburg,St Petersburg,,FL,Pinellas County,America/New_York,727,NA,US,27.75,-82.64,21870,
33706,STANDARD,0,Saint Petersburg,"Pass A Grille, Pass A Grille Beach, Saint Pete Beach, St Pete Bch, St Pete Beach, St Petersburg, St Petersburg Beach, Treasure Is, Treasure Island",,FL,Pinellas County,America/New_York,727,NA,US,27.74,-82.75,12730,
33707,STANDARD,0,Saint Petersburg,"Gulfport, S Pasadena, South Pasadena, St Pete Beach, St Petersburg",Pasadena,FL,Pinellas County,America/New_York,727,NA,US,27.76,-82.73,19250,
33708,STANDARD,0,Saint Petersburg,"Madeira Beach, N Redngtn Bch, North Redington Beach, Redingtn Shor, Redington Bch, Redington Beach, Redington Shores, St Petersburg",Johns Pass,FL,Pinellas County,America/New_York,727,NA,US,27.82,-82.8,12960,
33709,STANDARD,0,Saint Petersburg,"Kenneth City, St Petersburg",,FL,Pinellas County,America/New_York,727,NA,US,27.82,-82.73,20310,
33710,STANDARD,0,Saint Petersburg,St Petersburg,,FL,Pinellas County,America/New_York,727,NA,US,27.79,-82.73,29190,
33711,STANDARD,0,Saint Petersburg,"Gulfport, St Petersburg",,FL,Pinellas County,America/New_York,727,NA,US,27.74,-82.69,14830,
33712,STANDARD,0,Saint Petersburg,St Petersburg,,FL,Pinellas County,America/New_York,727,NA,US,27.73,-82.67,21940,
33713,STANDARD,0,Saint Petersburg,St Petersburg,,FL,Pinellas County,America/New_York,727,NA,US,27.79,-82.68,25790,
33714,STANDARD,0,Saint Petersburg,St Petersburg,,FL,Pinellas County,America/New_York,727,NA,US,27.82,-82.68,14490,
33715,STANDARD,0,Saint Petersburg,"St Petersburg, Tierra Verde",,FL,Pinellas County,America/New_York,727,NA,US,27.66,-82.72,6510,
33716,STANDARD,0,Saint Petersburg,St Petersburg,,FL,Pinellas County,America/New_York,727,NA,US,27.88,-82.65,13850,
33729,UNIQUE,0,Saint Petersburg,"Home Shopping, St Petersburg",,FL,Pinellas County,America/New_York,727,NA,US,27.75,-82.64,0,
33730,STANDARD,0,Saint Petersburg,St Petersburg,,FL,Pinellas County,America/New_York,727,NA,US,27.75,-82.64,0,
33731,PO BOX,0,Saint Petersburg,St Petersburg,,FL,Pinellas County,America/New_York,727,NA,US,27.75,-82.64,821,
33732,PO BOX,0,Saint Petersburg,St Petersburg,,FL,Pinellas County,America/New_York,727,NA,US,27.75,-82.64,445,
33733,PO BOX,0,Saint Petersburg,"St Pete, St Petersburg",,FL,Pinellas County,America/New_York,727,NA,US,27.75,-82.64,2058,
33734,PO BOX,0,Saint Petersburg,St Petersburg,,FL,Pinellas County,America/New_York,727,NA,US,27.75,-82.64,512,
33736,PO BOX,0,Saint Petersburg,"St Pete Beach, St Petersburg",,FL,Pinellas County,America/New_York,727,NA,US,27.75,-82.64,437,
33737,PO BOX,0,Saint Petersburg,St Petersburg,,FL,Pinellas County,America/New_York,727,NA,US,27.75,-82.64,47,
33738,PO BOX,0,Saint Petersburg,"Madeira Beach, St Petersburg",,FL,Pinellas County,America/New_York,727,NA,US,27.75,-82.64,338,
33740,PO BOX,0,Saint Petersburg,"St Petersburg, Treasure Is, Treasure Island",,FL,Pinellas County,America/New_York,727,NA,US,27.75,-82.64,69,
33741,PO BOX,0,Saint Petersburg,"Pass A Grille, Pass A Grille Beach, St Petersburg",,FL,Pinellas County,America/New_York,727,NA,US,27.75,-82.64,94,
33742,PO BOX,0,Saint Petersburg,St Petersburg,,FL,Pinellas County,America/New_York,727,NA,US,27.75,-82.64,666,
33743,PO BOX,0,Saint Petersburg,St Petersburg,,FL,Pinellas County,America/New_York,727,NA,US,27.75,-82.64,891,
33744,PO BOX,0,Bay Pines,,,FL,Pinellas County,America/New_York,727,NA,US,27.81,-82.77,268,
33747,PO BOX,0,Saint Petersburg,St Petersburg,,FL,Pinellas County,America/New_York,727,NA,US,27.75,-82.64,466,
33755,STANDARD,0,Clearwater,,,FL,Pinellas County,America/New_York,727,NA,US,27.98,-82.78,22550,
33756,STANDARD,0,Clearwater,Belleair,,FL,Pinellas County,America/New_York,727,NA,US,27.95,-82.79,25710,
33757,PO BOX,0,Clearwater,,,FL,Pinellas County,America/New_York,727,NA,US,27.97,-82.76,708,
33758,PO BOX,0,Clearwater,,,FL,Pinellas County,America/New_York,727,NA,US,27.97,-82.76,1243,
33759,STANDARD,0,Clearwater,,,FL,Pinellas County,America/New_York,"727,813",NA,US,27.98,-82.7,16110,
33760,STANDARD,0,Clearwater,,,FL,Pinellas County,America/New_York,"727,813",NA,US,27.91,-82.71,13900,
33761,STANDARD,0,Clearwater,,,FL,Pinellas County,America/New_York,727,NA,US,28.03,-82.72,15170,
33762,STANDARD,0,Clearwater,,,FL,Pinellas County,America/New_York,727,NA,US,27.9,-82.68,5420,
33763,STANDARD,0,Clearwater,,,FL,Pinellas County,America/New_York,727,NA,US,28,-82.74,15210,
33764,STANDARD,0,Clearwater,,,FL,Pinellas County,America/New_York,"727,813",NA,US,27.93,-82.74,21790,
33765,STANDARD,0,Clearwater,,,FL,Pinellas County,America/New_York,727,NA,US,27.97,-82.76,12240,
33766,PO BOX,0,Clearwater,,,FL,Pinellas County,America/New_York,727,NA,US,27.97,-82.76,293,
33767,STANDARD,0,Clearwater Beach,Clearwater,,FL,Pinellas County,America/New_York,727,NA,US,27.98,-82.82,6990,
33769,UNIQUE,0,Clearwater,,Readers Digest,FL,Pinellas County,America/New_York,727,NA,US,27.97,-82.76,20,
33770,STANDARD,0,Largo,"Belleair Blf, Belleair Bluffs",,FL,Pinellas County,America/New_York,727,NA,US,27.92,-82.8,20130,
33771,STANDARD,0,Largo,,,FL,Pinellas County,America/New_York,727,NA,US,27.9,-82.78,22220,
33772,STANDARD,0,Seminole,,Largo,FL,Pinellas County,America/New_York,727,NA,US,27.84,-82.78,19830,
33773,STANDARD,0,Largo,,,FL,Pinellas County,America/New_York,727,NA,US,27.88,-82.76,14550,
33774,STANDARD,0,Largo,,Seminole,FL,Pinellas County,America/New_York,727,NA,US,27.88,-82.83,14810,
33775,PO BOX,0,Seminole,,Largo,FL,Pinellas County,America/New_York,727,NA,US,27.84,-82.78,920,
33776,STANDARD,0,Seminole,Largo,,FL,Pinellas County,America/New_York,727,NA,US,27.85,-82.83,11430,
33777,STANDARD,0,Seminole,Largo,,FL,Pinellas County,America/New_York,727,NA,US,27.85,-82.76,15180,
33778,STANDARD,0,Largo,Seminole,,FL,Pinellas County,America/New_York,727,NA,US,27.89,-82.8,11620,
33779,PO BOX,0,Largo,,,FL,Pinellas County,America/New_York,727,NA,US,27.9,-82.78,998,
33780,PO BOX,0,Pinellas Park,,,FL,Pinellas County,America/New_York,727,NA,US,27.85,-82.7,1012,
33781,STANDARD,0,Pinellas Park,,,FL,Pinellas County,America/New_York,727,NA,US,27.84,-82.71,22570,
33782,STANDARD,0,Pinellas Park,,,FL,Pinellas County,America/New_York,727,NA,US,27.85,-82.7,18020,
33784,PO BOX,0,Saint Petersburg,St Petersburg,,FL,Pinellas County,America/New_York,727,NA,US,27.75,-82.64,333,
33785,STANDARD,0,Indian Rocks Beach,"Belleair Bch, Belleair Beach, Indian Rk Bch, Indian Rks Beach, Indian Shores",,FL,Pinellas County,America/New_York,727,NA,US,27.89,-82.85,4800,
33786,STANDARD,0,Belleair Beach,"Belleair Bch, Belleair Shores, Belleair Shrs, Indian Rk Bch, Indian Rks Beach, Indian Rocks Beach",,FL,Pinellas County,America/New_York,727,NA,US,27.91,-82.84,1520,
33801,STANDARD,0,Lakeland,,,FL,Polk County,America/New_York,863,NA,US,28.04,-81.9,24740,
33802,PO BOX,0,Lakeland,,,FL,Polk County,America/New_York,863,NA,US,28.04,-81.96,2299,
33803,STANDARD,0,Lakeland,,,FL,Polk County,America/New_York,863,NA,US,28.01,-81.93,23020,
33804,PO BOX,0,Lakeland,,,FL,Polk County,America/New_York,863,NA,US,28.04,-81.96,2348,
33805,STANDARD,0,Lakeland,,Gibsonia,FL,Polk County,America/New_York,863,NA,US,28.1,-81.91,19660,
33806,PO BOX,0,Lakeland,,,FL,Polk County,America/New_York,863,NA,US,28.04,-81.96,583,
33807,PO BOX,0,Lakeland,,,FL,Polk County,America/New_York,863,NA,US,28.04,-81.96,1218,
33809,STANDARD,0,Lakeland,,,FL,Polk County,America/New_York,863,NA,US,28.22,-81.97,25300,
33810,STANDARD,0,Lakeland,,,FL,Polk County,America/New_York,863,NA,US,28.13,-82.03,41970,
33811,STANDARD,0,Lakeland,,,FL,Polk County,America/New_York,863,NA,US,27.98,-82.01,19930,
33812,STANDARD,0,Lakeland,,,FL,Polk County,America/New_York,863,NA,US,27.97,-81.89,11890,
33813,STANDARD,0,Lakeland,,,FL,Polk County,America/New_York,863,NA,US,27.97,-81.94,32080,
33815,STANDARD,0,Lakeland,,,FL,Polk County,America/New_York,863,NA,US,28.04,-81.96,10830,
33820,PO BOX,0,Alturas,,,FL,Polk County,America/New_York,863,NA,US,27.79,-81.85,628,
33823,STANDARD,0,Auburndale,,,FL,Polk County,America/New_York,863,NA,US,28.07,-81.79,27350,
33825,STANDARD,0,Avon Park,,,FL,Highlands County,America/New_York,863,NA,US,27.59,-81.5,17750,
33826,PO BOX,0,Avon Park,,,FL,Highlands County,America/New_York,863,NA,US,27.59,-81.5,1706,
33827,STANDARD,0,Babson Park,,,FL,Polk County,America/New_York,863,NA,US,27.83,-81.52,2310,
33830,STANDARD,0,Bartow,,,FL,Polk County,America/New_York,863,NA,US,27.89,-81.84,23240,
33831,PO BOX,0,Bartow,,,FL,Polk County,America/New_York,863,NA,US,27.89,-81.84,1399,
33834,STANDARD,0,Bowling Green,,,FL,Hardee County,America/New_York,863,NA,US,27.63,-81.82,4870,
33835,PO BOX,0,Bradley,,,FL,Polk County,America/New_York,863,NA,US,27.79,-81.85,563,
33836,PO BOX,0,Davenport,,,FL,Polk County,America/New_York,863,NA,US,28.16,-81.6,2862,
33837,STANDARD,0,Davenport,,,FL,Polk County,America/New_York,863,NA,US,28.16,-81.6,22350,
33838,STANDARD,0,Dundee,,,FL,Polk County,America/New_York,863,NA,US,28.02,-81.62,3640,
33839,STANDARD,0,Eagle Lake,,,FL,Polk County,America/New_York,863,NA,US,27.97,-81.75,3820,
33840,PO BOX,0,Eaton Park,,,FL,Polk County,America/New_York,863,NA,US,28.2,-81.91,1636,
33841,STANDARD,0,Fort Meade,,,FL,Polk County,America/New_York,863,NA,US,27.75,-81.79,7020,
33843,STANDARD,0,Frostproof,,,FL,Polk County,America/New_York,863,NA,US,27.74,-81.53,7590,
33844,STANDARD,0,Haines City,,,FL,Polk County,America/New_York,863,NA,US,28.1,-81.62,30610,
33845,PO BOX,0,Haines City,,,FL,Polk County,America/New_York,863,NA,US,28.1,-81.62,2401,
33846,PO BOX,0,Highland City,,,FL,Polk County,America/New_York,863,NA,US,27.96,-81.87,1269,
33847,PO BOX,0,Homeland,,,FL,Polk County,America/New_York,863,NA,US,27.8,-81.82,362,
33848,PO BOX,0,Intercession City,Intrcsion Cty,,FL,Osceola County,America/New_York,407,NA,US,28.26,-81.5,946,
33849,STANDARD,0,Kathleen,,,FL,Polk County,America/New_York,863,NA,US,28.23,-82.07,1360,
33850,STANDARD,0,Lake Alfred,,,FL,Polk County,America/New_York,863,NA,US,28.09,-81.72,6690,
33851,PO BOX,0,Lake Hamilton,,,FL,Polk County,America/New_York,863,NA,US,28.04,-81.62,1366,
33852,STANDARD,0,Lake Placid,,,FL,Highlands County,America/New_York,863,NA,US,27.29,-81.36,15950,
33853,STANDARD,0,Lake Wales,,,FL,Polk County,America/New_York,863,NA,US,27.9,-81.58,9330,
33854,PO BOX,0,Lakeshore,"Fedhaven, Lake Wales",,FL,Polk County,America/New_York,863,NA,US,27.86,-81.41,191,
33855,PO BOX,0,Indian Lake Estates,"Indian Lk Est, Lake Wales",,FL,Polk County,America/New_York,863,NA,US,27.8,-81.35,735,
33856,PO BOX,0,Nalcrest,Lake Wales,,FL,Polk County,America/New_York,863,NA,US,27.86,-81.43,392,
33857,STANDARD,0,Lorida,,,FL,Highlands County,America/New_York,863,NA,US,27.34,-81.19,1030,
33858,PO BOX,0,Loughman,,,FL,Polk County,America/New_York,863,NA,US,28.23,-81.57,549,
33859,STANDARD,0,Lake Wales,,,FL,Polk County,America/New_York,863,NA,US,27.87,-81.63,8820,
33860,STANDARD,0,Mulberry,,,FL,Polk County,America/New_York,863,NA,US,27.9,-81.97,21130,
33862,PO BOX,0,Lake Placid,,,FL,Highlands County,America/New_York,863,NA,US,27.29,-81.36,3000,
33863,PO BOX,0,Nichols,,,FL,Polk County,America/New_York,863,NA,US,27.79,-81.85,139,
33865,STANDARD,0,Ona,,,FL,Hardee County,America/New_York,941,NA,US,27.49,-81.92,830,
33867,STANDARD,0,River Ranch,Lake Wales,,FL,Polk County,America/New_York,863,NA,US,27.78,-81.2,142,
33868,STANDARD,0,Polk City,,,FL,Polk County,America/New_York,863,NA,US,28.18,-81.82,8500,
33870,STANDARD,0,Sebring,,,FL,Highlands County,America/New_York,863,NA,US,27.49,-81.45,16450,
33871,PO BOX,0,Sebring,,,FL,Highlands County,America/New_York,863,NA,US,27.49,-81.45,1206,
33872,STANDARD,0,Sebring,,,FL,Highlands County,America/New_York,863,NA,US,27.51,-81.55,10220,
33873,STANDARD,0,Wauchula,,,FL,Hardee County,America/New_York,863,NA,US,27.54,-81.8,12070,
33875,STANDARD,0,Sebring,,,FL,Highlands County,America/New_York,863,NA,US,27.41,-81.48,8570,
33876,STANDARD,0,Sebring,,,FL,Highlands County,America/New_York,863,NA,US,27.42,-81.34,3810,
33877,PO BOX,0,Waverly,,,FL,Polk County,America/New_York,863,NA,US,27.99,-81.61,807,
33880,STANDARD,0,Winter Haven,"Eloise, Jpv, Wahneta",,FL,Polk County,America/New_York,"239,863",NA,US,27.98,-81.78,33840,
33881,STANDARD,0,Winter Haven,,Florence Villa,FL,Polk County,America/New_York,"239,863",NA,US,28.04,-81.72,25690,
33882,PO BOX,0,Winter Haven,,,FL,Polk County,America/New_York,863,NA,US,28.04,-81.72,946,
33883,PO BOX,0,Winter Haven,,Winter Hvn,FL,Polk County,America/New_York,863,NA,US,28.04,-81.72,1133,
33884,STANDARD,0,Winter Haven,"Cypress Gardens, Cypress Gdns",,FL,Polk County,America/New_York,"239,863",NA,US,27.98,-81.67,27440,
33885,PO BOX,0,Winter Haven,"Florence Vill, Florence Villa",,FL,Polk County,America/New_York,863,NA,US,28.04,-81.72,871,
33888,UNIQUE,0,Winter Haven,,State Farm Ins,FL,Polk County,America/New_York,863,NA,US,28.04,-81.72,0,
33890,STANDARD,0,Zolfo Springs,,,FL,Hardee County,America/New_York,863,NA,US,27.49,-81.79,4890,
33896,STANDARD,0,Davenport,"Champions Gate, Champions Gt",,FL,Polk County,America/New_York,"321,407,863",NA,US,28.26,-81.58,10670,
33897,STANDARD,0,Davenport,,,FL,Polk County,America/New_York,"407,863",NA,US,28.28,-81.69,16030,
33898,STANDARD,0,Lake Wales,,,FL,Polk County,America/New_York,863,NA,US,27.84,-81.37,12180,
33900,STANDARD,1,Fort Myers,,,FL,Lee County,America/New_York,239,NA,US,26.62,-81.84,0,
33901,STANDARD,0,Fort Myers,,"F M, Fmy, Ft Myers",FL,Lee County,America/New_York,239,NA,US,26.62,-81.88,18320,
33902,PO BOX,0,Fort Myers,,Ft Myers,FL,Lee County,America/New_York,239,NA,US,26.63,-81.85,1605,
33903,STANDARD,0,North Fort Myers,"Fort Myers, N Fort Myers, N Ft Myers, No Fort Myers, No Ft Myers",Ft Myers,FL,Lee County,America/New_York,239,NA,US,26.68,-81.91,16960,
33904,STANDARD,0,Cape Coral,,,FL,Lee County,America/New_York,239,NA,US,26.58,-81.94,26880,
33905,STANDARD,0,Fort Myers,Tice,Ft Myers,FL,Lee County,America/New_York,239,NA,US,26.67,-81.76,29340,
33906,PO BOX,0,Fort Myers,,Ft Myers,FL,Lee County,America/New_York,239,NA,US,26.63,-81.85,1094,
33907,STANDARD,0,Fort Myers,,Ft Myers,FL,Lee County,America/New_York,239,NA,US,26.56,-81.87,20670,
33908,STANDARD,0,Fort Myers,,Ft Myers,FL,Lee County,America/New_York,239,NA,US,26.52,-81.98,33440,
33909,STANDARD,0,Cape Coral,,,FL,Lee County,America/New_York,239,NA,US,26.69,-81.95,25690,
33910,PO BOX,0,Cape Coral,"Cape Coral S, Cape Coral South",,FL,Lee County,America/New_York,239,NA,US,26.63,-81.99,723,
33911,PO BOX,0,Fort Myers,,Ft Myers,FL,Lee County,America/New_York,239,NA,US,26.63,-81.85,826,
33912,STANDARD,0,Fort Myers,,"Ft Myers, S Fort Myers, San Carlos Park",FL,Lee County,America/New_York,239,NA,US,26.53,-81.83,15260,
33913,STANDARD,0,Fort Myers,Miromar Lakes,Ft Myers,FL,Lee County,America/New_York,239,NA,US,26.51,-81.7,18330,
33914,STANDARD,0,Cape Coral,,,FL,Lee County,America/New_York,239,NA,US,26.55,-82.02,34530,
33915,PO BOX,0,Cape Coral,,,FL,Lee County,America/New_York,239,NA,US,26.63,-81.99,1654,
33916,STANDARD,0,Fort Myers,,Ft Myers,FL,Lee County,America/New_York,239,NA,US,26.63,-81.85,19480,
33917,STANDARD,0,North Fort Myers,"Fort Myers, N Fort Myers, N Ft Myers, No Fort Myers, No Ft Myers, North Ft Myers",Ft Myers,FL,Lee County,America/New_York,239,NA,US,26.74,-81.84,22410,
33918,PO BOX,0,North Fort Myers,"Fort Myers, N Fort Myers, N Ft Myers, No Fort Myers, North Ft Myers",Ft Myers,FL,Lee County,America/New_York,239,NA,US,26.63,-81.85,1233,
33919,STANDARD,0,Fort Myers,,Ft Myers,FL,Lee County,America/New_York,239,NA,US,26.56,-81.9,24950,
33920,STANDARD,0,Alva,,,FL,Lee County,America/New_York,863,NA,US,26.71,-81.61,4850,
33921,PO BOX,0,Boca Grande,,,FL,Lee County,America/New_York,239,NA,US,26.77,-82.25,1332,
33922,STANDARD,0,Bokeelia,,,FL,Lee County,America/New_York,"941,239",NA,US,26.64,-82.16,3090,
33924,PO BOX,0,Captiva,,,FL,Lee County,America/New_York,239,NA,US,26.58,-82.21,385,
33927,PO BOX,0,El Jobean,,,FL,Charlotte County,America/New_York,,NA,US,26.89,-82.05,75,
33928,STANDARD,0,Estero,,,FL,Lee County,America/New_York,239,NA,US,26.44,-81.81,20630,
33929,PO BOX,0,Estero,,,FL,Lee County,America/New_York,239,NA,US,26.43,-81.8,593,
33930,PO BOX,0,Felda,,,FL,Hendry County,America/New_York,863,NA,US,26.54,-81.43,1026,
33931,STANDARD,0,Fort Myers Beach,Ft Myers Bch,Ft Myers Beach,FL,Lee County,America/New_York,239,NA,US,26.48,-81.95,6990,
33932,PO BOX,0,Fort Myers Beach,Ft Myers Bch,Ft Myers Beach,FL,Lee County,America/New_York,239,NA,US,26.45,-81.94,411,
33935,STANDARD,0,Labelle,"Fort Denaud, Ft Denaud",La Belle,FL,Hendry County,America/New_York,863,NA,US,26.64,-81.34,14870,
33936,STANDARD,0,Lehigh Acres,,Lehigh,FL,Lee County,America/New_York,239,NA,US,26.6,-81.63,17580,
33938,PO BOX,0,Murdock,,,FL,Charlotte County,America/New_York,,NA,US,27,-82.13,624,
33944,PO BOX,0,Palmdale,,,FL,Glades County,America/New_York,863,NA,US,26.94,-81.31,246,
33945,PO BOX,0,Pineland,,,FL,Lee County,America/New_York,239,NA,US,26.6,-82.22,447,
33946,STANDARD,0,Placida,Cape Haze,,FL,Charlotte County,America/New_York,941,NA,US,26.85,-82.28,2080,
33947,STANDARD,0,Rotonda West,"Cape Haze, Placida",,FL,Charlotte County,America/New_York,941,NA,US,26.88,-82.27,7740,
33948,STANDARD,0,Port Charlotte,Pt Charlotte,,FL,Charlotte County,America/New_York,941,NA,US,26.99,-82.15,13350,
33949,PO BOX,0,Port Charlotte,Pt Charlotte,,FL,Charlotte County,America/New_York,941,NA,US,26.98,-82.1,1025,
33950,STANDARD,0,Punta Gorda,,,FL,Charlotte County,America/New_York,941,NA,US,26.89,-82.05,18040,
33951,PO BOX,0,Punta Gorda,,,FL,Charlotte County,America/New_York,941,NA,US,26.89,-82.05,1307,
33952,STANDARD,0,Port Charlotte,Pt Charlotte,Ft Charlotte,FL,Charlotte County,America/New_York,941,NA,US,26.98,-82.1,24800,
33953,STANDARD,0,Port Charlotte,Pt Charlotte,,FL,Charlotte County,America/New_York,941,NA,US,27,-82.21,4860,
33954,STANDARD,0,Port Charlotte,Pt Charlotte,,FL,Charlotte County,America/New_York,941,NA,US,27.02,-82.12,8740,
33955,STANDARD,0,Punta Gorda,,,FL,Charlotte County,America/New_York,941,NA,US,26.82,-81.99,7680,
33956,STANDARD,0,Saint James City,St James City,,FL,Lee County,America/New_York,239,NA,US,26.49,-82.08,2900,
33957,STANDARD,0,Sanibel,,,FL,Lee County,America/New_York,239,NA,US,26.44,-82.1,5750,
33960,STANDARD,0,Venus,,,FL,Highlands County,America/New_York,863,NA,US,27.06,-81.35,610,
33965,UNIQUE,0,Fort Myers,,"Florida Gulf Coast Univ, Ft Myers",FL,Lee County,America/New_York,239,NA,US,26.46,-81.77,76,
33966,STANDARD,0,Fort Myers,,Ft Myers,FL,Lee County,America/New_York,239,NA,US,26.59,-81.83,8480,
33967,STANDARD,0,Fort Myers,,"Ft Myers, S Fort Myers, San Carlos Park",FL,Lee County,America/New_York,239,NA,US,26.47,-81.8,21860,
33970,PO BOX,0,Lehigh Acres,,,FL,Lee County,America/New_York,239,NA,US,26.6,-81.63,1488,
33971,STANDARD,0,Lehigh Acres,,Lehigh,FL,Lee County,America/New_York,239,NA,US,26.64,-81.7,23220,
33972,STANDARD,0,Lehigh Acres,,Lehigh,FL,Lee County,America/New_York,"239,863",NA,US,26.65,-81.62,10910,
33973,STANDARD,0,Lehigh Acres,,"Leehigh, Leehigh Acres, Lehigh",FL,Lee County,America/New_York,239,NA,US,26.59,-81.72,10870,
33974,STANDARD,0,Lehigh Acres,,"Leehigh, Leehigh Acres, Lehigh",FL,Lee County,America/New_York,239,NA,US,26.56,-81.59,13170,
33975,PO BOX,0,Labelle,,,FL,Hendry County,America/New_York,863,NA,US,26.64,-81.34,5203,
33976,STANDARD,0,Lehigh Acres,,"Leehigh, Leehigh Acres, Lehigh",FL,Lee County,America/New_York,239,NA,US,26.6,-81.68,14050,
33980,STANDARD,0,Punta Gorda,"Port Charlotte, Pt Charlotte",,FL,Charlotte County,America/New_York,941,NA,US,26.98,-82.05,8520,
33981,STANDARD,0,Port Charlotte,Pt Charlotte,,FL,Charlotte County,America/New_York,941,NA,US,26.92,-82.22,9200,
33982,STANDARD,0,Punta Gorda,,,FL,Charlotte County,America/New_York,,NA,US,26.91,-81.77,6750,
33983,STANDARD,0,Punta Gorda,"Port Charlotte, Pt Charlotte",,FL,Charlotte County,America/New_York,941,NA,US,27.01,-82.02,12760,
33990,STANDARD,0,Cape Coral,,Fort Myers,FL,Lee County,America/New_York,239,NA,US,26.63,-81.94,26980,
33991,STANDARD,0,Cape Coral,"Matlacha Isle, Matlacha Isles",,FL,Lee County,America/New_York,239,NA,US,26.63,-81.99,19240,
33993,STANDARD,0,Cape Coral,"Fort Myers, Matlacha",,FL,Lee County,America/New_York,239,NA,US,26.69,-82.03,23370,
33994,PO BOX,0,Fort Myers,,"E Fort Myers, Ft Myers",FL,Lee County,America/New_York,239,NA,US,26.63,-81.85,1364,
34101,PO BOX,0,Naples,,,FL,Collier County,America/New_York,239,NA,US,26.03,-81.76,4078,
34102,STANDARD,0,Naples,,,FL,Collier County,America/New_York,239,NA,US,26.14,-81.79,8520,
34103,STANDARD,0,Naples,,,FL,Collier County,America/New_York,239,NA,US,26.19,-81.81,10830,
34104,STANDARD,0,Naples,,,FL,Collier County,America/New_York,239,NA,US,26.15,-81.74,22900,
34105,STANDARD,0,Naples,,,FL,Collier County,America/New_York,239,NA,US,26.19,-81.76,14000,
34106,PO BOX,0,Naples,,,FL,Collier County,America/New_York,239,NA,US,26.14,-81.79,1010,
34107,PO BOX,0,Naples,Vanderbilt,,FL,Collier County,America/New_York,239,NA,US,26.27,-81.82,397,
34108,STANDARD,0,Naples,Coco River,,FL,Collier County,America/New_York,239,NA,US,26.25,-81.81,15870,
34109,STANDARD,0,Naples,,,FL,Collier County,America/New_York,239,NA,US,26.24,-81.76,22580,
34110,STANDARD,0,Naples,,,FL,Collier County,America/New_York,239,NA,US,26.3,-81.79,19690,
34112,STANDARD,0,Naples,,,FL,Collier County,America/New_York,239,NA,US,26.12,-81.74,22130,
34113,STANDARD,0,Naples,,,FL,Collier County,America/New_York,239,NA,US,26.04,-81.73,20080,
34114,STANDARD,0,Naples,,,FL,Collier County,America/New_York,239,NA,US,25.94,-81.54,14890,
34116,STANDARD,0,Naples,,Golden Gate,FL,Collier County,America/New_York,239,NA,US,26.19,-81.71,33930,
34117,STANDARD,0,Naples,,,FL,Collier County,America/New_York,239,NA,US,26.18,-81.61,14070,
34119,STANDARD,0,Naples,,,FL,Collier County,America/New_York,239,NA,US,26.27,-81.71,28170,
34120,STANDARD,0,Naples,,,FL,Collier County,America/New_York,239,NA,US,26.33,-81.57,30130,
34133,PO BOX,0,Bonita Springs,Bonita Spgs,,FL,Lee County,America/New_York,239,NA,US,26.34,-81.78,3015,
34134,STANDARD,0,Bonita Springs,"Barefoot Bch, Barefoot Beach, Bonita Spgs",Bonita Beach,FL,Lee County,America/New_York,239,NA,US,26.35,-81.82,12700,
34135,STANDARD,0,Bonita Springs,Bonita Spgs,,FL,Lee County,America/New_York,239,NA,US,26.34,-81.78,35820,
34136,PO BOX,0,Bonita Springs,Bonita Spgs,,FL,Lee County,America/New_York,239,NA,US,26.34,-81.78,1399,
34137,PO BOX,0,Copeland,,,FL,Collier County,America/New_York,239,NA,US,25.94,-81.38,144,
34138,PO BOX,0,Chokoloskee,,,FL,Collier County,America/New_York,239,NA,US,25.82,-81.37,325,
34139,PO BOX,0,Everglades City,Everglades,,FL,Collier County,America/New_York,239,NA,US,25.83,-81.4,530,
34140,PO BOX,0,Goodland,,,FL,Collier County,America/New_York,239,NA,US,25.92,-81.66,312,
34141,STANDARD,0,Ochopee,Jerome,,FL,Collier County,America/New_York,239,NA,US,25.9,-81.3,430,
34142,STANDARD,0,Immokalee,Ave Maria,,FL,Collier County,America/New_York,239,NA,US,26.41,-81.42,21140,
34143,PO BOX,0,Immokalee,Ave Maria,,FL,Collier County,America/New_York,239,NA,US,26.41,-81.42,8114,
34145,STANDARD,0,Marco Island,,,FL,Collier County,America/New_York,239,NA,US,25.94,-81.73,13710,
34146,PO BOX,0,Marco Island,,,FL,Collier County,America/New_York,239,NA,US,25.94,-81.73,1119,
34201,STANDARD,0,Bradenton,"Braden River, University Park, University Pk",,FL,Manatee County,America/New_York,941,NA,US,27.4,-82.47,3660,
34202,STANDARD,0,Bradenton,"Lakewood Ranch, Lakewood Rch",,FL,Manatee County,America/New_York,941,NA,US,27.41,-82.39,22030,
34203,STANDARD,0,Bradenton,"Braden River, Lakewood Rch",Lakewood Ranch,FL,Manatee County,America/New_York,941,NA,US,27.44,-82.51,32820,
34204,PO BOX,0,Bradenton,,Braden River,FL,Manatee County,America/New_York,941,NA,US,27.48,-82.57,699,
34205,STANDARD,0,Bradenton,,"Cedar Hammock, West Bradenton",FL,Manatee County,America/New_York,941,NA,US,27.48,-82.57,26840,
34206,PO BOX,0,Bradenton,,,FL,Manatee County,America/New_York,941,NA,US,27.48,-82.57,1102,
34207,STANDARD,0,Bradenton,,Bayshore Gardens,FL,Manatee County,America/New_York,941,NA,US,27.44,-82.58,24390,
34208,STANDARD,0,Bradenton,,Samoset,FL,Manatee County,America/New_York,941,NA,US,27.49,-82.52,31940,
34209,STANDARD,0,Bradenton,Palma Sola,,FL,Manatee County,America/New_York,941,NA,US,27.5,-82.65,27710,
34210,STANDARD,0,Bradenton,,,FL,Manatee County,America/New_York,941,NA,US,27.44,-82.62,12640,
34211,STANDARD,0,Bradenton,"Lakewood Ranch, Lakewood Rch","B'ton, Brad, Braden River, Bradington",FL,Manatee County,America/New_York,941,NA,US,27.44,-82.39,7460,
34212,STANDARD,0,Bradenton,"Lakewood Ranch, Lakewood Rch",,FL,Manatee County,America/New_York,941,NA,US,27.5,-82.41,17590,
34215,STANDARD,0,Cortez,,,FL,Manatee County,America/New_York,941,NA,US,27.47,-82.69,730,
34216,PO BOX,0,Anna Maria,,,FL,Manatee County,America/New_York,941,NA,US,27.53,-82.73,1566,
34217,STANDARD,0,Bradenton Beach,"Bradenton Bch, Holmes Beach",,FL,Manatee County,America/New_York,941,NA,US,27.46,-82.69,3420,
34218,PO BOX,0,Holmes Beach,"Bradenton Bch, Bradenton Beach",,FL,Manatee County,America/New_York,941,NA,US,27.51,-82.71,168,
34219,STANDARD,0,Parrish,Duette,,FL,Manatee County,America/New_York,941,NA,US,27.58,-82.42,22610,
34220,PO BOX,0,Palmetto,,,FL,Manatee County,America/New_York,941,NA,US,27.52,-82.57,1968,
34221,STANDARD,0,Palmetto,Rubonia,,FL,Manatee County,America/New_York,941,NA,US,27.52,-82.57,34820,
34222,STANDARD,0,Ellenton,,,FL,Manatee County,America/New_York,941,NA,US,27.52,-82.52,11200,
34223,STANDARD,0,Englewood,,"Englewood Beach, Inglewood",FL,Sarasota County,America/New_York,941,NA,US,26.95,-82.35,13670,
34224,STANDARD,0,Englewood,Grove City,Inglewood,FL,Charlotte County,America/New_York,941,NA,US,26.92,-82.3,12150,
34228,STANDARD,0,Longboat Key,,Long Boat Key,FL,Sarasota County,America/New_York,941,NA,US,27.37,-82.62,5670,
34229,STANDARD,0,Osprey,,,FL,Sarasota County,America/New_York,941,NA,US,27.19,-82.49,6710,
34230,PO BOX,0,Sarasota,,,FL,Sarasota County,America/New_York,941,NA,US,27.33,-82.54,2302,
34231,STANDARD,0,Sarasota,,,FL,Sarasota County,America/New_York,941,NA,US,27.27,-82.52,26390,
34232,STANDARD,0,Sarasota,,,FL,Sarasota County,America/New_York,941,NA,US,27.32,-82.47,29960,
34233,STANDARD,0,Sarasota,,,FL,Sarasota County,America/New_York,941,NA,US,27.28,-82.48,15770,
34234,STANDARD,0,Sarasota,,,FL,Sarasota County,America/New_York,941,NA,US,27.37,-82.54,17040,
34235,STANDARD,0,Sarasota,,,FL,Sarasota County,America/New_York,941,NA,US,27.37,-82.48,12140,
34236,STANDARD,0,Sarasota,,,FL,Sarasota County,America/New_York,941,NA,US,27.33,-82.54,9950,
34237,STANDARD,0,Sarasota,,,FL,Sarasota County,America/New_York,941,NA,US,27.34,-82.51,14110,
34238,STANDARD,0,Sarasota,,,FL,Sarasota County,America/New_York,941,NA,US,27.24,-82.47,16960,
34239,STANDARD,0,Sarasota,,,FL,Sarasota County,America/New_York,941,NA,US,27.31,-82.52,13480,
34240,STANDARD,0,Sarasota,Lakewood Rch,Lakewood Ranch,FL,Sarasota County,America/New_York,941,NA,US,27.36,-82.32,11100,
34241,STANDARD,0,Sarasota,,,FL,Sarasota County,America/New_York,941,NA,US,27.25,-82.38,12980,
34242,STANDARD,0,Sarasota,Siesta Key,Crescent Beach,FL,Sarasota County,America/New_York,941,NA,US,27.26,-82.54,6530,
34243,STANDARD,0,Sarasota,,,FL,Manatee County,America/New_York,941,NA,US,27.4,-82.53,23980,
34249,UNIQUE,0,Sarasota,,My Access USA,FL,Sarasota County,America/New_York,,NA,US,27.34,-82.54,0,
34250,PO BOX,0,Terra Ceia,"Terra Ceia Is, Terra Ceia Island",,FL,Manatee County,America/New_York,941,NA,US,27.58,-82.58,628,
34251,STANDARD,0,Myakka City,,,FL,Manatee County,America/New_York,941,NA,US,27.35,-82.16,6900,
34260,PO BOX,0,Sarasota,Manasota,,FL,Sarasota County,America/New_York,941,NA,US,27.42,-82.54,0,
34264,PO BOX,0,Oneco,,,FL,Manatee County,America/New_York,941,NA,US,27.44,-82.54,1523,
34265,PO BOX,0,Arcadia,,,FL,Desoto County,America/New_York,863,NA,US,27.21,-81.85,3005,
34266,STANDARD,0,Arcadia,"Lake Suzy, Sidell",,FL,DeSoto County,America/New_York,863,NA,US,27.21,-81.85,19330,
34267,PO BOX,0,Fort Ogden,,Ft Ogden,FL,Desoto County,America/New_York,,NA,US,27.09,-81.95,497,
34268,PO BOX,0,Nocatee,,,FL,DeSoto County,America/New_York,,NA,US,27.16,-81.89,2282,
34269,STANDARD,0,Arcadia,Lake Suzy,,FL,DeSoto County,America/New_York,863,NA,US,27.07,-82.01,2690,
34270,PO BOX,0,Tallevast,,,FL,Manatee County,America/New_York,941,NA,US,27.44,-82.51,865,
34272,PO BOX,0,Laurel,,,FL,Sarasota County,America/New_York,941,NA,US,27.14,-82.46,284,
34274,PO BOX,0,Nokomis,,,FL,Sarasota County,America/New_York,941,NA,US,27.12,-82.43,739,
34275,STANDARD,0,Nokomis,North Venice,,FL,Sarasota County,America/New_York,941,NA,US,27.12,-82.43,14370,
34276,PO BOX,0,Sarasota,,,FL,Sarasota County,America/New_York,941,NA,US,27.33,-82.54,929,
34277,PO BOX,0,Sarasota,,,FL,Sarasota County,America/New_York,941,NA,US,27.33,-82.54,741,
34278,PO BOX,0,Sarasota,Pinecraft,,FL,Sarasota County,America/New_York,941,NA,US,27.33,-82.54,165,
34280,PO BOX,0,Bradenton,Palma Sola,,FL,Manatee County,America/New_York,941,NA,US,27.48,-82.57,535,
34281,PO BOX,0,Bradenton,"Trailer Est, Trailer Estates",,FL,Manatee County,America/New_York,941,NA,US,27.48,-82.57,734,
34282,PO BOX,0,Bradenton,,,FL,Manatee County,America/New_York,941,NA,US,27.48,-82.57,471,
34284,PO BOX,0,Venice,,,FL,Sarasota County,America/New_York,941,NA,US,27.09,-82.43,1012,
34285,STANDARD,0,Venice,,,FL,Sarasota County,America/New_York,941,NA,US,27.09,-82.43,13380,
34286,STANDARD,0,North Port,Venice,"N Port, No Port, Northport",FL,Sarasota County,America/New_York,941,NA,US,27.04,-82.19,17940,
34287,STANDARD,0,North Port,Venice,,FL,Sarasota County,America/New_York,941,NA,US,27.05,-82.25,19470,
34288,STANDARD,0,North Port,,"N Port, No Port, Northport, Venice",FL,Sarasota County,America/New_York,941,NA,US,27.05,-82.11,11350,
34289,STANDARD,0,North Port,,"N Port, No Port, Northport, Venice",FL,Sarasota County,America/New_York,941,NA,US,27.08,-82.13,2230,
34290,PO BOX,0,North Port,Venice,,FL,Sarasota County,America/New_York,941,NA,US,27.04,-82.24,92,
34291,STANDARD,0,North Port,Venice,,FL,Sarasota County,America/New_York,941,NA,US,27.09,-82.24,6570,
34292,STANDARD,0,Venice,,,FL,Sarasota County,America/New_York,941,NA,US,27.1,-82.34,12610,
34293,STANDARD,0,Venice,,,FL,Sarasota County,America/New_York,941,NA,US,27.03,-82.33,32080,
34295,PO BOX,0,Englewood,,Inglewood,FL,Sarasota County,America/New_York,941,NA,US,26.95,-82.35,615,
34420,STANDARD,0,Belleview,,,FL,Marion County,America/New_York,352,NA,US,29.05,-82.05,13200,
34421,PO BOX,0,Belleview,,,FL,Marion County,America/New_York,352,NA,US,29.05,-82.05,2821,
34423,PO BOX,0,Crystal River,,,FL,Citrus County,America/New_York,352,NA,US,28.9,-82.59,1387,
34428,STANDARD,0,Crystal River,,,FL,Citrus County,America/New_York,352,NA,US,28.9,-82.59,6790,
34429,STANDARD,0,Crystal River,,,FL,Citrus County,America/New_York,352,NA,US,28.85,-82.67,6430,
34430,PO BOX,0,Dunnellon,,,FL,Marion County,America/New_York,352,NA,US,29.04,-82.44,1794,
34431,STANDARD,0,Dunnellon,,,FL,Marion County,America/New_York,352,NA,US,29.13,-82.53,6100,
34432,STANDARD,0,Dunnellon,,,FL,Marion County,America/New_York,352,NA,US,29.04,-82.44,9830,
34433,STANDARD,0,Dunnellon,"Citrus Spgs, Citrus Springs",,FL,Citrus County,America/New_York,352,NA,US,29,-82.52,5390,
34434,STANDARD,0,Dunnellon,"Citrus Spgs, Citrus Springs",,FL,Citrus County,America/New_York,352,NA,US,29,-82.44,7330,
34436,STANDARD,0,Floral City,,,FL,Citrus County,America/New_York,352,NA,US,28.74,-82.29,5750,
34441,PO BOX,0,Hernando,,,FL,,America/New_York,,NA,US,28.9,-82.38,0,
34442,STANDARD,0,Hernando,Citrus Hills,,FL,Citrus County,America/New_York,352,NA,US,28.9,-82.37,11790,
34445,PO BOX,0,Holder,,,FL,Citrus County,America/New_York,352,NA,US,28.97,-82.42,303,
34446,STANDARD,0,Homosassa,"Homosassa Spg, Homosassa Springs",,FL,Citrus County,America/New_York,352,NA,US,28.75,-82.52,13400,
34447,PO BOX,0,Homosassa Springs,Homosassa Spg,,FL,Citrus County,America/New_York,352,NA,US,28.79,-82.54,1682,
34448,STANDARD,0,Homosassa,"Homosassa Spg, Homosassa Springs",,FL,Citrus County,America/New_York,352,NA,US,28.78,-82.61,7200,
34449,STANDARD,0,Inglis,,,FL,Levy County,America/New_York,,NA,US,29.03,-82.65,2150,
34450,STANDARD,0,Inverness,,,FL,Citrus County,America/New_York,352,NA,US,28.83,-82.27,7800,
34451,PO BOX,0,Inverness,,,FL,Citrus County,America/New_York,352,NA,US,28.83,-82.34,1318,
34452,STANDARD,0,Inverness,,,FL,Citrus County,America/New_York,352,NA,US,28.83,-82.34,9360,
34453,STANDARD,0,Inverness,,,FL,Citrus County,America/New_York,352,NA,US,28.87,-82.34,8070,
34460,PO BOX,0,Lecanto,,,FL,Citrus County,America/New_York,352,NA,US,28.85,-82.48,828,
34461,STANDARD,0,Lecanto,,,FL,Citrus County,America/New_York,352,NA,US,28.85,-82.48,7350,
34464,PO BOX,0,Beverly Hills,,,FL,Citrus County,America/New_York,352,NA,US,28.91,-82.46,605,
34465,STANDARD,0,Beverly Hills,Pine Ridge,,FL,Citrus County,America/New_York,352,NA,US,28.91,-82.46,13380,
34470,STANDARD,0,Ocala,,,FL,Marion County,America/New_York,352,NA,US,29.2,-82.09,15570,
34471,STANDARD,0,Ocala,,Maricamp,FL,Marion County,America/New_York,352,NA,US,29.18,-82.13,22350,
34472,STANDARD,0,Ocala,,Maricamp,FL,Marion County,America/New_York,352,NA,US,29.11,-82,24470,
34473,STANDARD,0,Ocala,,,FL,Marion County,America/New_York,352,NA,US,29.01,-82.18,16560,
34474,STANDARD,0,Ocala,,,FL,Marion County,America/New_York,352,NA,US,29.16,-82.21,13560,
34475,STANDARD,0,Ocala,,,FL,Marion County,America/New_York,352,NA,US,29.26,-82.17,8940,
34476,STANDARD,0,Ocala,,,FL,Marion County,America/New_York,352,NA,US,29.08,-82.2,19350,
34477,PO BOX,0,Ocala,,,FL,Marion County,America/New_York,352,NA,US,29.18,-82.13,1582,
34478,PO BOX,0,Ocala,,,FL,Marion County,America/New_York,352,NA,US,29.18,-82.13,3936,
34479,STANDARD,0,Ocala,,,FL,Marion County,America/New_York,352,NA,US,29.26,-82.11,11230,
34480,STANDARD,0,Ocala,,Maricamp,FL,Marion County,America/New_York,352,NA,US,29.1,-82.1,17490,
34481,STANDARD,0,Ocala,,,FL,Marion County,America/New_York,352,NA,US,29.13,-82.31,16060,
34482,STANDARD,0,Ocala,,,FL,Marion County,America/New_York,352,NA,US,29.24,-82.28,15420,
34483,PO BOX,0,Ocala,,,FL,Marion County,America/New_York,352,NA,US,29.18,-82.13,871,
34484,STANDARD,0,Oxford,,,FL,Sumter County,America/New_York,352,NA,US,28.92,-82.04,4330,
34487,PO BOX,0,Homosassa,,,FL,Citrus County,America/New_York,352,NA,US,28.78,-82.61,615,
34488,STANDARD,0,Silver Springs,Silver Spgs,,FL,Marion County,America/New_York,352,NA,US,29.23,-81.94,7530,
34489,PO BOX,0,Silver Springs,Silver Spgs,,FL,Marion County,America/New_York,352,NA,US,29.22,-82,1390,
34491,STANDARD,0,Summerfield,,,FL,Marion County,America/New_York,352,NA,US,29,-82.03,24010,
34492,PO BOX,0,Summerfield,,,FL,Marion County,America/New_York,352,NA,US,29,-82.03,1181,
34498,STANDARD,0,Yankeetown,,,FL,Levy County,America/New_York,352,NA,US,29.03,-82.74,420,
34601,STANDARD,0,Brooksville,,,FL,Hernando County,America/New_York,352,NA,US,28.55,-82.39,16110,
34602,STANDARD,0,Brooksville,,Rolling Acres,FL,Hernando County,America/New_York,352,NA,US,28.5,-82.28,6170,
34603,PO BOX,0,Brooksville,,,FL,Hernando County,America/New_York,352,NA,US,28.55,-82.39,898,
34604,STANDARD,0,Brooksville,"Masaryktown, Spring Hill",,FL,Hernando County,America/New_York,352,NA,US,28.48,-82.42,8740,
34605,PO BOX,0,Brooksville,,,FL,Hernando County,America/New_York,352,NA,US,28.55,-82.39,862,
34606,STANDARD,0,Spring Hill,"Brooksville, Weeki Wachee",,FL,Hernando County,America/New_York,352,NA,US,28.47,-82.6,21630,
34607,STANDARD,0,Spring Hill,"Brooksville, Hernando Bch, Hernando Beach, Weeki Wachee",,FL,Hernando County,America/New_York,352,NA,US,28.5,-82.63,6550,
34608,STANDARD,0,Spring Hill,Brooksville,,FL,Hernando County,America/New_York,352,NA,US,28.44,-82.56,25940,
34609,STANDARD,0,Spring Hill,Brooksville,,FL,Hernando County,America/New_York,352,NA,US,28.48,-82.51,34710,
34610,STANDARD,0,Spring Hill,"Brooksville, Shady Hills",,FL,Pasco County,America/New_York,"352,813",NA,US,28.37,-82.51,11210,
34611,PO BOX,0,Spring Hill,Brooksville,,FL,Hernando County,America/New_York,352,NA,US,28.44,-82.56,1257,
34613,STANDARD,0,Brooksville,"Spring Hill, Weeki Wachee",,FL,Hernando County,America/New_York,352,NA,US,28.57,-82.57,13810,
34614,STANDARD,0,Brooksville,Weeki Wachee,,FL,Hernando County,America/New_York,352,NA,US,28.65,-82.54,6210,
34636,PO BOX,0,Istachatta,,,FL,Hernando County,America/New_York,352,NA,US,28.65,-82.3,186,
34637,STANDARD,0,Land O Lakes,,,FL,Pasco County,America/New_York,813,NA,US,28.3,-82.46,5630,
34638,STANDARD,0,Land O Lakes,,,FL,Pasco County,America/New_York,813,NA,US,28.27,-82.52,24070,
34639,STANDARD,0,Land O Lakes,,Land O' Lakes,FL,Pasco County,America/New_York,813,NA,US,28.27,-82.42,25420,
34652,STANDARD,0,New Port Richey,"New Prt Rchy, New Pt Richey, Nw Prt Rchy",,FL,Pasco County,America/New_York,727,NA,US,28.24,-82.74,18850,
34653,STANDARD,0,New Port Richey,"New Prt Rchy, New Pt Richey",,FL,Pasco County,America/New_York,727,NA,US,28.24,-82.71,24270,
34654,STANDARD,0,New Port Richey,"New Prt Rchy, New Pt Richey",,FL,Pasco County,America/New_York,727,NA,US,28.28,-82.63,18670,
34655,STANDARD,0,New Port Richey,"New Prt Rchy, New Pt Richey, Trinity",Seven Springs,FL,Pasco County,America/New_York,727,NA,US,28.21,-82.62,38700,
34656,PO BOX,0,New Port Richey,"New Prt Rchy, New Pt Richey",,FL,Pasco County,America/New_York,727,NA,US,28.24,-82.71,692,
34660,PO BOX,0,Ozona,,,FL,Pinellas County,America/New_York,727,NA,US,28.08,-82.76,567,
34661,PO BOX,0,Nobleton,,,FL,Hernando County,America/New_York,352,NA,US,28.64,-82.26,453,
34667,STANDARD,0,Hudson,"Bayonet Point, Port Richey",,FL,Pasco County,America/New_York,727,NA,US,28.35,-82.69,24430,
34668,STANDARD,0,Port Richey,,,FL,Pasco County,America/New_York,727,NA,US,28.3,-82.7,34690,
34669,STANDARD,0,Hudson,Port Richey,,FL,Pasco County,America/New_York,727,NA,US,28.36,-82.61,11350,
34673,PO BOX,0,Port Richey,,,FL,Pasco County,America/New_York,727,NA,US,28.27,-82.71,719,
34674,PO BOX,0,Hudson,Port Richey,,FL,Pasco County,America/New_York,727,NA,US,28.35,-82.69,693,
34677,STANDARD,0,Oldsmar,,,FL,Pinellas County,America/New_York,727,NA,US,28.04,-82.67,20220,
34679,PO BOX,0,Aripeka,,,FL,Pasco County,America/New_York,,NA,US,28.43,-82.66,277,
34680,PO BOX,0,Elfers,,,FL,Pasco County,America/New_York,,NA,US,28.21,-82.72,592,
34681,PO BOX,0,Crystal Beach,,,FL,Pinellas County,America/New_York,727,NA,US,28.08,-82.78,1472,
34682,PO BOX,0,Palm Harbor,,,FL,Pinellas County,America/New_York,727,NA,US,28.08,-82.76,666,
34683,STANDARD,0,Palm Harbor,,,FL,Pinellas County,America/New_York,727,NA,US,28.08,-82.76,28790,
34684,STANDARD,0,Palm Harbor,,,FL,Pinellas County,America/New_York,727,NA,US,28.08,-82.73,23220,
34685,STANDARD,0,Palm Harbor,,,FL,Pinellas County,America/New_York,727,NA,US,28.09,-82.69,16550,
34688,STANDARD,0,Tarpon Springs,"Tarpon Spgs, Tarpon Spngs",,FL,Pinellas County,America/New_York,727,NA,US,28.15,-82.68,7850,
34689,STANDARD,0,Tarpon Springs,"Tarpon Spgs, Tarpon Spngs",,FL,Pinellas County,America/New_York,727,NA,US,28.14,-82.78,21880,
34690,STANDARD,0,Holiday,"Tarpon Spgs, Tarpon Spngs, Tarpon Springs",,FL,Pasco County,America/New_York,727,NA,US,28.18,-82.74,10370,
34691,STANDARD,0,Holiday,"Tarpon Spgs, Tarpon Spngs, Tarpon Springs",,FL,Pasco County,America/New_York,727,NA,US,28.2,-82.82,17470,
34692,PO BOX,0,Holiday,,Tarpon Springs,FL,Pasco County,America/New_York,727,NA,US,28.19,-82.74,375,
34695,STANDARD,0,Safety Harbor,,,FL,Pinellas County,America/New_York,727,NA,US,28,-82.69,15970,
34697,PO BOX,0,Dunedin,,,FL,Pinellas County,America/New_York,727,NA,US,28.02,-82.77,708,
34698,STANDARD,0,Dunedin,,,FL,Pinellas County,America/New_York,727,NA,US,28.02,-82.77,30530,
34705,STANDARD,0,Astatula,,,FL,Lake County,America/New_York,352,NA,US,28.71,-81.73,2600,
34711,STANDARD,0,Clermont,,,FL,Lake County,America/New_York,352,NA,US,28.55,-81.75,55220,
34712,PO BOX,0,Clermont,,,FL,Lake County,America/New_York,352,NA,US,28.55,-81.75,1169,
34713,PO BOX,0,Clermont,,Clermont South Branch Postal,FL,Lake County,America/New_York,352,NA,US,28.55,-81.75,1063,
34714,STANDARD,0,Clermont,,Clermont South Branch Postal,FL,Lake County,America/New_York,352,NA,US,28.4,-81.78,17610,
34715,STANDARD,0,Clermont,Minneola,Clermont South Branch Postal,FL,Lake County,America/New_York,352,NA,US,28.63,-81.75,15220,
34729,PO BOX,0,Ferndale,Montverde,,FL,Lake County,America/New_York,352,NA,US,28.62,-81.69,207,
34731,STANDARD,0,Fruitland Park,Fruitland Pk,,FL,Lake County,America/New_York,352,NA,US,28.85,-81.9,9370,
34734,STANDARD,0,Gotha,,,FL,Orange County,America/New_York,407,NA,US,28.54,-81.52,4390,
34736,STANDARD,0,Groveland,,,FL,Lake County,America/New_York,352,NA,US,28.56,-81.85,16910,
34737,STANDARD,0,Howey In The Hills,"Groveland, Howey In Hls",,FL,Lake County,America/New_York,352,NA,US,28.71,-81.77,2590,
34739,STANDARD,0,Kenansville,,,FL,Osceola County,America/New_York,"321,407",NA,US,27.88,-80.99,630,
34740,PO BOX,0,Killarney,Oakland,,FL,Orange County,America/New_York,407,NA,US,28.54,-81.65,148,
34741,STANDARD,0,Kissimmee,,,FL,Osceola County,America/New_York,"321,407",NA,US,28.3,-81.41,44920,
34742,PO BOX,0,Kissimmee,,,FL,Osceola County,America/New_York,407,NA,US,28.3,-81.41,2121,
34743,STANDARD,0,Kissimmee,"Buena Ventura Lakes, Bvl",,FL,Osceola County,America/New_York,"321,407",NA,US,28.33,-81.36,36080,
34744,STANDARD,0,Kissimmee,,,FL,Osceola County,America/New_York,"321,407",NA,US,28.29,-81.34,46710,
34745,PO BOX,0,Kissimmee,,,FL,Osceola County,America/New_York,407,NA,US,28.3,-81.41,1831,
34746,STANDARD,0,Kissimmee,,,FL,Osceola County,America/New_York,"321,407",NA,US,28.24,-81.45,41810,
34747,STANDARD,0,Kissimmee,"Celebration, Reunion",,FL,Osceola County,America/New_York,"321,407",NA,US,28.31,-81.6,18940,
34748,STANDARD,0,Leesburg,,,FL,Lake County,America/New_York,352,NA,US,28.8,-81.88,33470,
34749,PO BOX,0,Leesburg,,,FL,Lake County,America/New_York,352,NA,US,28.8,-81.88,1455,
34753,STANDARD,0,Mascotte,,,FL,Lake County,America/New_York,352,NA,US,28.57,-81.88,5950,
34755,PO BOX,0,Minneola,,,FL,Lake County,America/New_York,352,NA,US,28.57,-81.74,1323,
34756,STANDARD,0,Montverde,,,FL,Lake County,America/New_York,"321,407",NA,US,28.59,-81.67,3410,
34758,STANDARD,0,Kissimmee,Poinciana,,FL,Osceola County,America/New_York,863,NA,US,28.19,-81.49,35020,
34759,STANDARD,0,Kissimmee,Poinciana,,FL,Polk County,America/New_York,863,NA,US,28.08,-81.44,32320,
34760,PO BOX,0,Oakland,,,FL,Orange County,America/New_York,407,NA,US,28.55,-81.63,1207,
34761,STANDARD,0,Ocoee,,,FL,Orange County,America/New_York,407,NA,US,28.57,-81.53,41080,
34762,STANDARD,0,Okahumpka,,,FL,Lake County,America/New_York,352,NA,US,28.74,-81.89,690,
34769,STANDARD,0,Saint Cloud,,,FL,Osceola County,America/New_York,"321,407",NA,US,28.24,-81.28,21700,
34770,PO BOX,0,Saint Cloud,,,FL,Osceola County,America/New_York,407,NA,US,28.24,-81.28,1719,
34771,STANDARD,0,Saint Cloud,"Magnolia Sq, Magnolia Square",,FL,Osceola County,America/New_York,"321,407",NA,US,28.28,-81.17,16050,
34772,STANDARD,0,Saint Cloud,,,FL,Osceola County,America/New_York,"321,407",NA,US,28.16,-81.27,24830,
34773,STANDARD,0,Saint Cloud,Harmony,,FL,Osceola County,America/New_York,407,NA,US,28.16,-81.01,3460,
34777,PO BOX,0,Winter Garden,,,FL,Orange County,America/New_York,407,NA,US,28.56,-81.58,614,
34778,PO BOX,0,Winter Garden,,Wintergarden,FL,Orange County,America/New_York,407,NA,US,28.56,-81.58,574,
34785,STANDARD,0,Wildwood,,,FL,Sumter County,America/New_York,352,NA,US,28.85,-82.04,9550,
34786,STANDARD,0,Windermere,,,FL,Orange County,America/New_York,407,NA,US,28.49,-81.53,36030,
34787,STANDARD,0,Winter Garden,Oakland,,FL,Orange County,America/New_York,407,NA,US,28.56,-81.58,54730,
34788,STANDARD,0,Leesburg,Haines Creek,,FL,Lake County,America/New_York,352,NA,US,28.9,-81.81,13660,
34789,PO BOX,0,Leesburg,,,FL,Lake County,America/New_York,352,NA,US,28.8,-81.88,275,
34797,STANDARD,0,Yalaha,"Howey In Hls, Howey In The Hills",,FL,Lake County,America/New_York,352,NA,US,28.74,-81.82,1170,
34945,STANDARD,0,Fort Pierce,,,FL,St. Lucie County,America/New_York,772,NA,US,27.44,-80.56,3510,
34946,STANDARD,0,Fort Pierce,,,FL,St. Lucie County,America/New_York,772,NA,US,27.5,-80.36,5210,
34947,STANDARD,0,Fort Pierce,,,FL,St. Lucie County,America/New_York,772,NA,US,27.45,-80.38,10500,
34948,PO BOX,0,Fort Pierce,,,FL,St. Lucie County,America/New_York,772,NA,US,27.44,-80.32,639,
34949,STANDARD,0,Fort Pierce,"Hutchinson Is, Hutchinson Island",,FL,St. Lucie County,America/New_York,772,NA,US,27.47,-80.3,5750,
34950,STANDARD,0,Fort Pierce,,,FL,St. Lucie County,America/New_York,772,NA,US,27.44,-80.32,12800,
34951,STANDARD,0,Fort Pierce,,,FL,St. Lucie County,America/New_York,772,NA,US,27.53,-80.42,11670,
34952,STANDARD,0,Port Saint Lucie,"Fort Pierce, Port St Lucie",,FL,St. Lucie County,America/New_York,772,NA,US,27.3,-80.3,32450,
34953,STANDARD,0,Port Saint Lucie,"Fort Pierce, Port St Lucie, Saint Lucie West, St Lucie West",,FL,St. Lucie County,America/New_York,772,NA,US,27.25,-80.38,61610,
34954,PO BOX,0,Fort Pierce,,,FL,St. Lucie County,America/New_York,772,NA,US,27.44,-80.32,2201,
34956,STANDARD,0,Indiantown,,,FL,Martin County,America/New_York,772,NA,US,27.03,-80.46,7610,
34957,STANDARD,0,Jensen Beach,"Ocean Breeze Park, Ocean Brz Pk",,FL,Martin County,America/New_York,772,NA,US,27.23,-80.23,18610,
34958,PO BOX,0,Jensen Beach,,,FL,Martin County,America/New_York,772,NA,US,27.23,-80.23,679,
34972,STANDARD,0,Okeechobee,"Basinger, Yeehaw, Yeehaw Junction",,FL,Okeechobee County,America/New_York,863,NA,US,27.5,-80.93,14180,
34973,PO BOX,0,Okeechobee,,,FL,Okeechobee County,America/New_York,863,NA,US,27.24,-80.82,2803,
34974,STANDARD,0,Okeechobee,,,FL,Okeechobee County,America/New_York,863,NA,US,27.24,-80.82,17850,
34979,PO BOX,0,Fort Pierce,,,FL,St. Lucie County,America/New_York,772,NA,US,27.44,-80.32,996,
34981,STANDARD,0,Fort Pierce,,,FL,St. Lucie County,America/New_York,772,NA,US,27.39,-80.37,3640,
34982,STANDARD,0,Fort Pierce,,,FL,St. Lucie County,America/New_York,772,NA,US,27.37,-80.31,22110,
34983,STANDARD,0,Port Saint Lucie,"Fort Pierce, Port St Lucie, Saint Lucie West, St Lucie West",,FL,St. Lucie County,America/New_York,772,NA,US,27.32,-80.35,35520,
34984,STANDARD,0,Port Saint Lucie,"Fort Pierce, Port St Lucie",,FL,St. Lucie County,America/New_York,772,NA,US,27.27,-80.35,13400,
34985,PO BOX,0,Port Saint Lucie,"Fort Pierce, Port St Lucie",,FL,St. Lucie County,America/New_York,772,NA,US,27.27,-80.35,1002,
34986,STANDARD,0,Port Saint Lucie,"Fort Pierce, Port St Lucie, Saint Lucie West, St Lucie West",,FL,St. Lucie County,America/New_York,772,NA,US,27.32,-80.4,23470,
34987,STANDARD,0,Port Saint Lucie,"Fort Pierce, Port St Lucie, Saint Lucie West, St Lucie West",,FL,St. Lucie County,America/New_York,772,NA,US,27.3,-80.49,8220,
34988,PO BOX,0,Port Saint Lucie,"Fort Pierce, Port St Lucie, Saint Lucie West, St Lucie West",,FL,St. Lucie County,America/New_York,772,NA,US,27.27,-80.35,728,
34990,STANDARD,0,Palm City,,,FL,Martin County,America/New_York,772,NA,US,27.16,-80.26,27450,
34991,PO BOX,0,Palm City,,,FL,Martin County,America/New_York,772,NA,US,27.16,-80.26,1138,
34992,PO BOX,0,Port Salerno,,,FL,Martin County,America/New_York,772,NA,US,27.14,-80.18,813,
34994,STANDARD,0,Stuart,,,FL,Martin County,America/New_York,772,NA,US,27.19,-80.24,13280,
34995,PO BOX,0,Stuart,,,FL,Martin County,America/New_York,772,NA,US,27.19,-80.24,1385,
34996,STANDARD,0,Stuart,Sewalls Point,,FL,Martin County,America/New_York,772,NA,US,27.19,-80.19,8470,
34997,STANDARD,0,Stuart,,,FL,Martin County,America/New_York,772,NA,US,27.06,-80.27,37770,
